{
"type": "FeatureCollection",
"name": "pressure_contour2",
"crs": { "type": "name", "properties": { "name": "urn:ogc:def:crs:OGC:1.3:CRS84" } },
"features": [
{ "type": "Feature", "properties": { "fid": 1, "ID": 0, "ELEV": 99900.0 }, "geometry": { "type": "LineString", "coordinates": [ [ -36.25, 56.692157347731886 ], [ -30.161782661782667, 57.99624957236594 ], [ -21.469145566039344, 60.550341796999987 ], [ -21.469145566039344, 60.550341796999987 ], [ -19.11885483974055, 63.050341796999987 ], [ -19.11885483974055, 63.050341796999987 ], [ -22.811491935483872, 64.528099804117431 ], [ -22.811491935483872, 64.528099804117431 ], [ -31.146800397877982, 64.528099804117431 ], [ -31.146800397877982, 64.528099804117431 ], [ -41.146800397877982, 63.697425557548925 ], [ -41.146800397877982, 63.697425557548925 ], [ -48.265850765581192, 62.447425557548925 ], [ -48.265850765581192, 62.447425557548925 ], [ -50.331656726379535, 60.550341796999987 ], [ -50.331656726379535, 60.550341796999987 ], [ -48.315805960798343, 58.243336888762684 ], [ -48.315805960798343, 58.243336888762684 ], [ -43.75, 56.822660049952042 ], [ -43.75, 56.822660049952042 ], [ -38.75, 56.57557273355529 ], [ -36.25, 56.692157347731886 ] ] } },
{ "type": "Feature", "properties": { "fid": 2, "ID": 1, "ELEV": 100200.0 }, "geometry": { "type": "LineString", "coordinates": [ [ -36.25, 54.04711107427535 ], [ -28.75, 55.631402178284944 ], [ -17.738673528280117, 58.258017539647263 ], [ -17.738673528280117, 58.258017539647263 ], [ -6.488673528280117, 62.422707516226183 ], [ -6.488673528280117, 62.422707516226183 ], [ 10.0, 68.156597898042321 ], [ 10.0, 68.156597898042321 ], [ 21.162483487450459, 71.284232178816126 ], [ 21.162483487450459, 71.284232178816126 ], [ 23.461635184057243, 73.050341796999987 ], [ 23.461635184057243, 73.050341796999987 ], [ 17.299151696606785, 75.077574327797919 ], [ 17.299151696606785, 75.077574327797919 ], [ 6.25, 75.574618326290476 ], [ 6.25, 75.574618326290476 ], [ -0.936119455734215, 74.797385795492545 ], [ -0.936119455734215, 74.797385795492545 ], [ -9.403687224575435, 71.800341796999987 ], [ -9.403687224575435, 71.800341796999987 ], [ -18.467567768841221, 68.631466568653082 ], [ -18.467567768841221, 68.631466568653082 ], [ -27.5, 67.178631868504525 ], [ -27.5, 67.178631868504525 ], [ -43.75, 65.966693851173318 ], [ -43.75, 65.966693851173318 ], [ -55.298710756284386, 64.919528551321875 ], [ -55.298710756284386, 64.919528551321875 ], [ -57.592817570280701, 63.050341796999987 ], [ -57.592817570280701, 63.050341796999987 ], [ -57.7239552988448, 60.550341796999987 ], [ -57.7239552988448, 60.550341796999987 ], [ -55.570722119793885, 58.050341796999987 ], [ -55.570722119793885, 58.050341796999987 ], [ -51.3908736349454, 55.654311710653523 ], [ -51.3908736349454, 55.654311710653523 ], [ -46.25, 54.103979852246447 ], [ -46.25, 54.103979852246447 ], [ -40.0, 53.873394577230592 ], [ -36.25, 54.04711107427535 ] ] } },
{ "type": "Feature", "properties": { "fid": 3, "ID": 2, "ELEV": 100500.0 }, "geometry": { "type": "LineString", "coordinates": [ [ -36.25, 51.634008935879379 ], [ -24.943893408903932, 54.217175366439683 ], [ 2.556106591096068, 61.744912360753297 ], [ 2.556106591096068, 61.744912360753297 ], [ 30.0, 68.583772582334717 ], [ 30.0, 68.583772582334717 ], [ 43.33457415128052, 71.139202018581415 ], [ 43.33457415128052, 71.139202018581415 ], [ 46.061577996296791, 73.050341796999987 ], [ 46.061577996296791, 73.050341796999987 ], [ 43.97700384501627, 75.471940816537142 ], [ 43.97700384501627, 75.471940816537142 ], [ 38.75, 77.043794363447901 ], [ 38.75, 77.043794363447901 ], [ 25.0, 78.548236644217226 ], [ 25.0, 78.548236644217226 ], [ 10.0, 79.64311952817016 ], [ 10.0, 79.64311952817016 ], [ 2.5, 79.160507825512695 ], [ 2.5, 79.160507825512695 ], [ -3.75, 78.090786758762832 ], [ -3.75, 78.090786758762832 ], [ -13.75, 74.22094583749211 ], [ -13.75, 74.22094583749211 ], [ -25.0, 69.919140048022427 ], [ -25.0, 69.919140048022427 ], [ -32.5, 68.539944565576093 ], [ -32.5, 68.539944565576093 ], [ -38.75, 68.236035916640304 ], [ -38.75, 68.236035916640304 ], [ -43.75, 68.585069173776304 ], [ -43.75, 68.585069173776304 ], [ -51.25, 70.039281068580749 ], [ -51.25, 70.039281068580749 ], [ -57.5, 71.237446754647152 ], [ -57.5, 71.237446754647152 ], [ -60.0, 70.984712870526408 ], [ -60.0, 70.984712870526408 ], [ -62.5, 69.68559684804174 ], [ -62.5, 69.68559684804174 ], [ -64.43567539388323, 67.742817911649666 ], [ -64.43567539388323, 67.742817911649666 ], [ -65.548274421610984, 65.550341796999987 ], [ -65.548274421610984, 65.550341796999987 ], [ -65.561343721037673, 63.050341796999987 ], [ -65.561343721037673, 63.050341796999987 ], [ -62.443757517476328, 59.300341796999987 ], [ -62.443757517476328, 59.300341796999987 ], [ -56.745012824166423, 54.938797900818827 ], [ -56.745012824166423, 54.938797900818827 ], [ -51.870534532945229, 52.438797900818827 ], [ -51.870534532945229, 52.438797900818827 ], [ -48.120534532945229, 51.491818166007029 ], [ -48.120534532945229, 51.491818166007029 ], [ -41.25, 51.408651735446725 ], [ -36.25, 51.634008935879379 ] ] } },
{ "type": "Feature", "properties": { "fid": 4, "ID": 3, "ELEV": 99900.0 }, "geometry": { "type": "LineString", "coordinates": [ [ -180.0, 46.884427475881203 ], [ -179.375, 46.884427475881203 ], [ -174.604133386581452, 48.092384636440599 ], [ -174.604133386581452, 48.092384636440599 ], [ -170.854133386581452, 49.740897352555542 ], [ -170.854133386581452, 49.740897352555542 ], [ -172.5, 50.804219206030808 ], [ -172.5, 50.804219206030808 ], [ -176.875, 51.685152795658425 ], [ -180.0, 51.943320087366338 ] ] } },
{ "type": "Feature", "properties": { "fid": 5, "ID": 4, "ELEV": 100800.0 }, "geometry": { "type": "LineString", "coordinates": [ [ -7.380375823324272, 83.050341796999987 ], [ -7.380375823324272, 82.425341796999987 ], [ -11.815187911662136, 79.94781799866881 ], [ -11.815187911662136, 79.94781799866881 ], [ -21.974981349248637, 74.94781799866881 ], [ -21.974981349248637, 74.94781799866881 ], [ -30.724981349248637, 71.24326406971376 ], [ -30.724981349248637, 71.24326406971376 ], [ -36.25, 70.707364555937431 ], [ -36.25, 70.707364555937431 ], [ -41.25, 71.242768933554089 ], [ -41.25, 71.242768933554089 ], [ -48.75, 74.09285872162863 ], [ -48.75, 74.09285872162863 ], [ -57.5, 77.150712448832564 ], [ -57.5, 77.150712448832564 ], [ -65.0, 77.859722717766601 ], [ -65.0, 77.859722717766601 ], [ -72.427125763747455, 77.323542340232223 ], [ -72.427125763747455, 77.323542340232223 ], [ -77.858259003084783, 75.550341796999987 ], [ -77.858259003084783, 75.550341796999987 ], [ -78.710944290464667, 71.800341796999987 ], [ -78.710944290464667, 71.800341796999987 ], [ -77.699187053460037, 68.050341796999987 ], [ -77.699187053460037, 68.050341796999987 ], [ -77.128548712512668, 65.550341796999987 ], [ -77.128548712512668, 65.550341796999987 ], [ -75.22003552830536, 63.050341796999987 ], [ -75.22003552830536, 63.050341796999987 ], [ -70.010862818125389, 59.566765071646273 ], [ -70.010862818125389, 59.566765071646273 ], [ -61.25, 53.849043438846415 ], [ -61.25, 53.849043438846415 ], [ -54.778557036577809, 49.832620164200129 ], [ -54.778557036577809, 49.832620164200129 ], [ -51.028557036577809, 48.929582656358228 ], [ -51.028557036577809, 48.929582656358228 ], [ -45.0, 48.610312453622456 ], [ -45.0, 48.610312453622456 ], [ -33.75, 50.022658899630628 ], [ -33.75, 50.022658899630628 ], [ -3.75, 57.20093097531786 ], [ -3.75, 57.20093097531786 ], [ 33.75, 65.608185779284156 ], [ 33.75, 65.608185779284156 ], [ 50.710151231263382, 68.749183906332703 ], [ 50.710151231263382, 68.749183906332703 ], [ 55.308400385129573, 70.550341796999987 ], [ 55.308400385129573, 70.550341796999987 ], [ 59.107901379035667, 73.050341796999987 ], [ 59.107901379035667, 73.050341796999987 ], [ 60.150136717736927, 75.550341796999987 ], [ 60.150136717736927, 75.550341796999987 ], [ 59.390484492567452, 77.231898616586989 ], [ 59.390484492567452, 77.231898616586989 ], [ 56.25, 78.783040215849809 ], [ 56.25, 78.783040215849809 ], [ 50.125580413676659, 80.851483396262807 ], [ 50.125580413676659, 80.851483396262807 ], [ 46.501160827353317, 82.425341796999987 ], [ 46.501160827353317, 83.050341796999987 ] ] } },
{ "type": "Feature", "properties": { "fid": 6, "ID": 5, "ELEV": 99900.0 }, "geometry": { "type": "LineString", "coordinates": [ [ 180.0, 50.866818999520689 ], [ 176.769987398487814, 50.083580398260338 ], [ 176.055741776574934, 48.050341796999987 ], [ 176.055741776574934, 48.050341796999987 ], [ 179.28575437808712, 46.787942395914456 ], [ 180.0, 46.775542994828925 ] ] } },
{ "type": "Feature", "properties": { "fid": 7, "ID": 6, "ELEV": 101100.0 }, "geometry": { "type": "LineString", "coordinates": [ [ -78.571660181582359, 83.050341796999987 ], [ -78.571660181582359, 82.425341796999987 ], [ -83.66083009079118, 80.6072313840736 ], [ -83.66083009079118, 80.6072313840736 ], [ -91.533150337837839, 78.1072313840736 ], [ -91.533150337837839, 78.1072313840736 ], [ -94.592041132577691, 75.550341796999987 ], [ -94.592041132577691, 75.550341796999987 ], [ -91.249781995189664, 69.300341796999987 ], [ -91.249781995189664, 69.300341796999987 ], [ -86.487104722850148, 63.050341796999987 ], [ -86.487104722850148, 63.050341796999987 ], [ -84.546213522400336, 61.309914581810112 ], [ -84.546213522400336, 61.309914581810112 ], [ -76.25, 57.623795228034972 ], [ -76.25, 57.623795228034972 ], [ -65.0, 51.236010965480773 ], [ -65.0, 51.236010965480773 ], [ -58.75, 47.073688101303681 ], [ -58.75, 47.073688101303681 ], [ -52.5, 45.813637746683924 ], [ -52.5, 45.813637746683924 ], [ -45.0, 45.833580490456711 ], [ -45.0, 45.833580490456711 ], [ -37.5, 46.766482563148799 ], [ -37.5, 46.766482563148799 ], [ -11.25, 52.62949852698727 ], [ -11.25, 52.62949852698727 ], [ 26.25, 60.391258883000376 ], [ 26.25, 60.391258883000376 ], [ 53.611131520940489, 66.106742393341349 ], [ 53.611131520940489, 66.106742393341349 ], [ 68.883152246329075, 70.550341796999987 ], [ 68.883152246329075, 70.550341796999987 ], [ 73.716487128550639, 73.050341796999987 ], [ 73.716487128550639, 73.050341796999987 ], [ 76.830994432095153, 75.550341796999987 ], [ 76.830994432095153, 75.550341796999987 ], [ 78.112077479482565, 78.050341796999987 ], [ 78.112077479482565, 78.050341796999987 ], [ 77.489467517776347, 80.550341796999987 ], [ 77.489467517776347, 80.550341796999987 ], [ 76.777836134453764, 82.425341796999987 ], [ 76.777836134453764, 83.050341796999987 ] ] } },
{ "type": "Feature", "properties": { "fid": 8, "ID": 7, "ELEV": 102000.0 }, "geometry": { "type": "LineString", "coordinates": [ [ 21.253342245989302, 46.800341796999987 ], [ 18.751671122994651, 46.504205817270261 ], [ 14.750905797101439, 46.504205817270261 ], [ 14.750905797101439, 46.504205817270261 ], [ 14.750905797101439, 46.861784888211758 ], [ 14.750905797101439, 46.861784888211758 ], [ 18.751671122994651, 46.861784888211758 ], [ 21.253342245989302, 46.800341796999987 ] ] } },
{ "type": "Feature", "properties": { "fid": 9, "ID": 8, "ELEV": 100200.0 }, "geometry": { "type": "LineString", "coordinates": [ [ 180.0, 55.434019901474848 ], [ 175.625, 55.079634358889699 ], [ 168.75, 54.275700250722778 ], [ 168.75, 54.275700250722778 ], [ 163.783658922914469, 52.813246741070493 ], [ 163.783658922914469, 52.813246741070493 ], [ 160.770626116867561, 50.550341796999987 ], [ 160.770626116867561, 50.550341796999987 ], [ 160.815210029548894, 48.050341796999987 ], [ 160.815210029548894, 48.050341796999987 ], [ 163.412245802588018, 45.550341796999987 ], [ 163.412245802588018, 45.550341796999987 ], [ 168.334002966992216, 43.556686645458633 ], [ 168.334002966992216, 43.556686645458633 ], [ 175.625, 42.380160765022481 ], [ 180.0, 41.94729003612769 ] ] } },
{ "type": "Feature", "properties": { "fid": 10, "ID": 9, "ELEV": 100200.0 }, "geometry": { "type": "LineString", "coordinates": [ [ -180.0, 41.86712963992175 ], [ -174.375, 42.471512149212089 ], [ -165.0, 44.149854155927116 ], [ -165.0, 44.149854155927116 ], [ -157.424035989717225, 47.262077725175892 ], [ -157.424035989717225, 47.262077725175892 ], [ -152.202986436335692, 50.550341796999987 ], [ -152.202986436335692, 50.550341796999987 ], [ -150.336957812633216, 53.050341796999987 ], [ -150.336957812633216, 53.050341796999987 ], [ -151.808007366014749, 55.493045892470562 ], [ -151.808007366014749, 55.493045892470562 ], [ -155.0, 56.836246446931781 ], [ -155.0, 56.836246446931781 ], [ -168.125, 56.897997223606382 ], [ -180.0, 56.809251541290323 ] ] } },
{ "type": "Feature", "properties": { "fid": 11, "ID": 10, "ELEV": 103200.0 }, "geometry": { "type": "LineString", "coordinates": [ [ 110.776106354757019, 44.300341796999987 ], [ 109.763053177378509, 43.700295371744645 ], [ 106.25, 42.636105335121968 ], [ 106.25, 42.636105335121968 ], [ 98.75, 42.589500384230519 ], [ 98.75, 42.589500384230519 ], [ 91.0724765258216, 43.653690420853195 ], [ 91.0724765258216, 43.653690420853195 ], [ 86.318908163512077, 45.550341796999987 ], [ 86.318908163512077, 45.550341796999987 ], [ 84.264439754024579, 48.050341796999987 ], [ 84.264439754024579, 48.050341796999987 ], [ 86.518008116334101, 50.297763204801598 ], [ 86.518008116334101, 50.297763204801598 ], [ 91.25, 51.846024538541641 ], [ 91.25, 51.846024538541641 ], [ 96.25, 52.571321341713414 ], [ 96.25, 52.571321341713414 ], [ 101.25, 52.472037662816632 ], [ 101.25, 52.472037662816632 ], [ 105.0, 51.718916057976024 ], [ 105.0, 51.718916057976024 ], [ 107.649482648109142, 50.26993840313277 ], [ 107.649482648109142, 50.26993840313277 ], [ 109.950477063706273, 48.050341796999987 ], [ 109.950477063706273, 48.050341796999987 ], [ 110.814047592975641, 45.550341796999987 ], [ 110.776106354757019, 44.300341796999987 ] ] } },
{ "type": "Feature", "properties": { "fid": 12, "ID": 11, "ELEV": 101400.0 }, "geometry": { "type": "LineString", "coordinates": [ [ -111.641774891774887, 83.050341796999987 ], [ -111.273017917445912, 81.175341796999987 ], [ -109.394176235655451, 76.800341796999987 ], [ -109.394176235655451, 76.800341796999987 ], [ -106.697794010394716, 73.050341796999987 ], [ -106.697794010394716, 73.050341796999987 ], [ -102.115173125300942, 69.300341796999987 ], [ -102.115173125300942, 69.300341796999987 ], [ -94.917965871964952, 63.050341796999987 ], [ -94.917965871964952, 63.050341796999987 ], [ -88.761785267770932, 58.050341796999987 ], [ -88.761785267770932, 58.050341796999987 ], [ -82.856042782271857, 55.550341796999987 ], [ -82.856042782271857, 55.550341796999987 ], [ -76.784902497789176, 53.050341796999987 ], [ -76.784902497789176, 53.050341796999987 ], [ -71.982158594303954, 49.300341796999987 ], [ -71.982158594303954, 49.300341796999987 ], [ -66.725054603977469, 44.83134150035211 ], [ -66.725054603977469, 44.83134150035211 ], [ -61.968609477689384, 42.33134150035211 ], [ -61.968609477689384, 42.33134150035211 ], [ -58.218609477689384, 41.630363978502544 ], [ -58.218609477689384, 41.630363978502544 ], [ -52.5, 41.784157235760098 ], [ -52.5, 41.784157235760098 ], [ -43.75, 42.996216727564317 ], [ -43.75, 42.996216727564317 ], [ -17.5, 48.697094850023404 ], [ -17.5, 48.697094850023404 ], [ 21.25, 55.982835757361784 ], [ 21.25, 55.982835757361784 ], [ 53.75, 62.267903596049734 ], [ 53.75, 62.267903596049734 ], [ 73.673780487804891, 67.690081015404573 ], [ 73.673780487804891, 67.690081015404573 ], [ 87.257966881492251, 73.050341796999987 ], [ 87.257966881492251, 73.050341796999987 ], [ 98.367028408570036, 78.050341796999987 ], [ 98.367028408570036, 78.050341796999987 ], [ 102.293872724377906, 80.550341796999987 ], [ 102.293872724377906, 80.550341796999987 ], [ 103.772061418990461, 82.425341796999987 ], [ 103.772061418990461, 83.050341796999987 ] ] } },
{ "type": "Feature", "properties": { "fid": 13, "ID": 12, "ELEV": 100500.0 }, "geometry": { "type": "LineString", "coordinates": [ [ 180.0, 57.900136716997423 ], [ 173.023725442441929, 57.350239256998705 ], [ 162.398725442441929, 55.969105447175657 ], [ 162.398725442441929, 55.969105447175657 ], [ 157.590897143858399, 54.719105447175657 ], [ 157.590897143858399, 54.719105447175657 ], [ 155.366605271937203, 53.050341796999987 ], [ 155.366605271937203, 53.050341796999987 ], [ 154.148214882116861, 50.550341796999987 ], [ 154.148214882116861, 50.550341796999987 ], [ 154.357048076846326, 48.050341796999987 ], [ 154.357048076846326, 48.050341796999987 ], [ 155.484541322808269, 45.782853720688379 ], [ 155.484541322808269, 45.782853720688379 ], [ 158.75, 43.122255894601423 ], [ 158.75, 43.122255894601423 ], [ 165.0, 40.485262178195946 ], [ 165.0, 40.485262178195946 ], [ 174.375, 39.09412257635455 ], [ 180.0, 38.696866941143291 ] ] } },
{ "type": "Feature", "properties": { "fid": 14, "ID": 13, "ELEV": 100500.0 }, "geometry": { "type": "LineString", "coordinates": [ [ -180.0, 38.7701615255801 ], [ -173.125, 39.394277193491604 ], [ -161.25, 41.500288344659431 ], [ -161.25, 41.500288344659431 ], [ -152.419374541900822, 44.891262812457867 ], [ -152.419374541900822, 44.891262812457867 ], [ -146.723477679124414, 48.050341796999987 ], [ -146.723477679124414, 48.050341796999987 ], [ -143.601609507809684, 50.550341796999987 ], [ -143.601609507809684, 50.550341796999987 ], [ -141.869253251156522, 53.050341796999987 ], [ -141.869253251156522, 53.050341796999987 ], [ -141.944203872504175, 55.550341796999987 ], [ -141.944203872504175, 55.550341796999987 ], [ -144.372456991933745, 57.79367513033332 ], [ -144.372456991933745, 57.79367513033332 ], [ -147.5, 59.143137495924719 ], [ -147.5, 59.143137495924719 ], [ -153.75, 59.830269035926463 ], [ -153.75, 59.830269035926463 ], [ -169.375, 59.878110305991711 ], [ -180.0, 59.594949068313291 ] ] } },
{ "type": "Feature", "properties": { "fid": 15, "ID": 14, "ELEV": 102900.0 }, "geometry": { "type": "LineString", "coordinates": [ [ 113.998193641618514, 39.300341796999987 ], [ 112.624096820809257, 39.049125540057638 ], [ 108.75, 38.831318765311366 ], [ 108.75, 38.831318765311366 ], [ 98.75, 39.694371639916106 ], [ 98.75, 39.694371639916106 ], [ 87.925698977706617, 41.162178414662378 ], [ 87.925698977706617, 41.162178414662378 ], [ 81.578026298016937, 43.050341796999987 ], [ 81.578026298016937, 43.050341796999987 ], [ 76.889356165578022, 45.550341796999987 ], [ 76.889356165578022, 45.550341796999987 ], [ 75.061455963267136, 48.050341796999987 ], [ 75.061455963267136, 48.050341796999987 ], [ 76.81612868065902, 50.550341796999987 ], [ 76.81612868065902, 50.550341796999987 ], [ 79.991701562659586, 52.250034946469469 ], [ 79.991701562659586, 52.250034946469469 ], [ 87.5, 54.352122748821714 ], [ 87.5, 54.352122748821714 ], [ 98.75, 56.54544175213001 ], [ 98.75, 56.54544175213001 ], [ 106.25, 56.962095566945806 ], [ 106.25, 56.962095566945806 ], [ 110.0, 56.534162504841376 ], [ 110.0, 56.534162504841376 ], [ 112.714613180515755, 55.265420887673336 ], [ 112.714613180515755, 55.265420887673336 ], [ 116.129366356799522, 50.550341796999987 ], [ 116.129366356799522, 50.550341796999987 ], [ 118.398693782854934, 45.550341796999987 ], [ 118.398693782854934, 45.550341796999987 ], [ 118.242326557636659, 43.050341796999987 ], [ 118.242326557636659, 43.050341796999987 ], [ 117.008385951065492, 41.110058032632168 ], [ 117.008385951065492, 41.110058032632168 ], [ 115.124096820809257, 39.860058032632168 ], [ 113.998193641618514, 39.300341796999987 ] ] } },
{ "type": "Feature", "properties": { "fid": 16, "ID": 15, "ELEV": 100800.0 }, "geometry": { "type": "LineString", "coordinates": [ [ 180.0, 59.825020925262542 ], [ 174.375, 59.443041356216654 ], [ 161.624499332443236, 57.93070179208538 ], [ 161.624499332443236, 57.93070179208538 ], [ 152.339199343234213, 55.550341796999987 ], [ 152.339199343234213, 55.550341796999987 ], [ 149.729629540504732, 53.050341796999987 ], [ 149.729629540504732, 53.050341796999987 ], [ 149.258406364866232, 50.550341796999987 ], [ 149.258406364866232, 50.550341796999987 ], [ 149.428927905863532, 48.050341796999987 ], [ 149.428927905863532, 48.050341796999987 ], [ 150.435451070711053, 45.175087325573493 ], [ 150.435451070711053, 45.175087325573493 ], [ 152.5, 42.303136788420403 ], [ 152.5, 42.303136788420403 ], [ 156.25, 39.665021638056473 ], [ 156.25, 39.665021638056473 ], [ 162.5, 37.396196706380366 ], [ 162.5, 37.396196706380366 ], [ 173.125, 36.138396150770447 ], [ 180.0, 35.758001442199301 ] ] } },
{ "type": "Feature", "properties": { "fid": 17, "ID": 16, "ELEV": 100800.0 }, "geometry": { "type": "LineString", "coordinates": [ [ -180.0, 35.995633134675046 ], [ -173.125, 36.516880023314876 ], [ -162.5, 37.851207583485724 ], [ -162.5, 37.851207583485724 ], [ -156.25, 39.52922066217107 ], [ -156.25, 39.52922066217107 ], [ -149.595342205323192, 42.347247433162693 ], [ -149.595342205323192, 42.347247433162693 ], [ -142.095342205323192, 46.472532195254217 ], [ -142.095342205323192, 46.472532195254217 ], [ -137.466262384694232, 50.222532195254217 ], [ -137.466262384694232, 50.222532195254217 ], [ -135.939782845538758, 53.050341796999987 ], [ -135.939782845538758, 53.050341796999987 ], [ -136.155433142757204, 55.550341796999987 ], [ -136.155433142757204, 55.550341796999987 ], [ -138.053998654153617, 58.050341796999987 ], [ -138.053998654153617, 58.050341796999987 ], [ -141.622085972240939, 60.111206384114958 ], [ -141.622085972240939, 60.111206384114958 ], [ -145.721323529411762, 61.361206384114958 ], [ -145.721323529411762, 61.361206384114958 ], [ -153.221323529411762, 62.217751446144824 ], [ -153.221323529411762, 62.217751446144824 ], [ -169.375, 62.276830698388764 ], [ -180.0, 61.918500301487875 ] ] } },
{ "type": "Feature", "properties": { "fid": 18, "ID": 17, "ELEV": 101700.0 }, "geometry": { "type": "LineString", "coordinates": [ [ -144.613066538090663, 83.050341796999987 ], [ -144.613066538090663, 82.425341796999987 ], [ -137.685294014031001, 79.300341796999987 ], [ -137.685294014031001, 79.300341796999987 ], [ -128.977661843886779, 75.550341796999987 ], [ -128.977661843886779, 75.550341796999987 ], [ -125.473901098901095, 72.327441683492609 ], [ -125.473901098901095, 72.327441683492609 ], [ -122.5, 69.65265931134897 ], [ -122.5, 69.65265931134897 ], [ -115.0, 66.656050594834284 ], [ -115.0, 66.656050594834284 ], [ -107.5, 63.622521414442623 ], [ -107.5, 63.622521414442623 ], [ -102.043094865595222, 59.842030244464702 ], [ -102.043094865595222, 59.842030244464702 ], [ -93.309530544344341, 54.300341796999987 ], [ -93.309530544344341, 54.300341796999987 ], [ -87.327913298738338, 50.550341796999987 ], [ -87.327913298738338, 50.550341796999987 ], [ -84.853214629931074, 48.050341796999987 ], [ -84.853214629931074, 48.050341796999987 ], [ -77.820092116830224, 43.050341796999987 ], [ -77.820092116830224, 43.050341796999987 ], [ -69.02835510688837, 38.255667829852158 ], [ -69.02835510688837, 38.255667829852158 ], [ -63.75, 36.995025461267474 ], [ -63.75, 36.995025461267474 ], [ -55.0, 37.59887051441946 ], [ -55.0, 37.59887051441946 ], [ -37.059582383295336, 41.359512883004143 ], [ -37.059582383295336, 41.359512883004143 ], [ -12.059582383295336, 47.210472408709094 ], [ -12.059582383295336, 47.210472408709094 ], [ 6.940600742490716, 50.960472408709094 ], [ 6.940600742490716, 50.960472408709094 ], [ 21.940600742490716, 52.533866901602501 ], [ 21.940600742490716, 52.533866901602501 ], [ 36.25, 54.141207268301784 ], [ 36.25, 54.141207268301784 ], [ 57.5, 59.45423780336619 ], [ 57.5, 59.45423780336619 ], [ 83.75, 67.366457435092656 ], [ 83.75, 67.366457435092656 ], [ 109.307055749128921, 73.81990179542575 ], [ 109.307055749128921, 73.81990179542575 ], [ 130.129660223590719, 78.050341796999987 ], [ 130.129660223590719, 78.050341796999987 ], [ 139.838193389011451, 80.550341796999987 ], [ 139.838193389011451, 80.550341796999987 ], [ 144.281177829099306, 82.425341796999987 ], [ 144.281177829099306, 83.050341796999987 ] ] } },
{ "type": "Feature", "properties": { "fid": 19, "ID": 18, "ELEV": 101100.0 }, "geometry": { "type": "LineString", "coordinates": [ [ 180.0, 61.478910149140567 ], [ 171.875, 60.820918106036103 ], [ 157.5, 59.054877276295699 ], [ 157.5, 59.054877276295699 ], [ 149.612545876511234, 57.373585143329876 ], [ 149.612545876511234, 57.373585143329876 ], [ 147.112545876511234, 55.986591096862504 ], [ 147.112545876511234, 55.986591096862504 ], [ 145.877872127872138, 54.736591096862504 ], [ 145.877872127872138, 54.736591096862504 ], [ 145.265161157408016, 53.050341796999987 ], [ 145.265161157408016, 53.050341796999987 ], [ 145.131092920518995, 49.300341796999987 ], [ 145.131092920518995, 49.300341796999987 ], [ 145.517936551134142, 45.550341796999987 ], [ 145.517936551134142, 45.550341796999987 ], [ 146.416387709391557, 43.050341796999987 ], [ 146.416387709391557, 43.050341796999987 ], [ 149.142255049240532, 39.5675762597538 ], [ 149.142255049240532, 39.5675762597538 ], [ 152.5, 36.596564566558513 ], [ 152.5, 36.596564566558513 ], [ 156.154030710172719, 35.079330103804708 ], [ 156.154030710172719, 35.079330103804708 ], [ 161.154030710172719, 33.873893268966988 ], [ 161.154030710172719, 33.873893268966988 ], [ 171.875, 33.079066486045761 ], [ 180.0, 32.710688231157526 ] ] } },
{ "type": "Feature", "properties": { "fid": 20, "ID": 19, "ELEV": 101100.0 }, "geometry": { "type": "LineString", "coordinates": [ [ -180.0, 33.079812474086744 ], [ -174.375, 33.406807206742585 ], [ -165.0, 34.325186547397692 ], [ -165.0, 34.325186547397692 ], [ -158.75, 35.567195625044548 ], [ -158.75, 35.567195625044548 ], [ -152.5, 37.633413767371252 ], [ -152.5, 37.633413767371252 ], [ -143.75, 41.561602390651316 ], [ -143.75, 41.561602390651316 ], [ -136.696537351715278, 45.43726956912613 ], [ -136.696537351715278, 45.43726956912613 ], [ -133.381729071310701, 48.050341796999987 ], [ -133.381729071310701, 48.050341796999987 ], [ -131.440750442514457, 50.550341796999987 ], [ -131.440750442514457, 50.550341796999987 ], [ -130.619266018243138, 53.050341796999987 ], [ -130.619266018243138, 53.050341796999987 ], [ -130.946675190944234, 55.550341796999987 ], [ -130.946675190944234, 55.550341796999987 ], [ -132.582967895620158, 58.090086219785348 ], [ -132.582967895620158, 58.090086219785348 ], [ -135.89369432723862, 60.590086219785348 ], [ -135.89369432723862, 60.590086219785348 ], [ -140.89369432723862, 62.63373968477854 ], [ -140.89369432723862, 62.63373968477854 ], [ -147.5, 64.042176973105484 ], [ -147.5, 64.042176973105484 ], [ -155.0, 64.871198538720989 ], [ -155.0, 64.871198538720989 ], [ -169.375, 64.60163264265104 ], [ -180.0, 64.078084581513963 ] ] } },
{ "type": "Feature", "properties": { "fid": 21, "ID": 20, "ELEV": 102600.0 }, "geometry": { "type": "LineString", "coordinates": [ [ 117.955500381970978, 34.300341796999987 ], [ 115.852750190985489, 34.060430226443259 ], [ 106.701640499194866, 35.310430226443259 ], [ 106.701640499194866, 35.310430226443259 ], [ 92.951640499194866, 37.601044151525258 ], [ 92.951640499194866, 37.601044151525258 ], [ 82.5, 39.16190157596678 ], [ 82.5, 39.16190157596678 ], [ 76.25, 40.810078658706352 ], [ 76.25, 40.810078658706352 ], [ 71.239751431546068, 42.99922123426483 ], [ 71.239751431546068, 42.99922123426483 ], [ 67.006956487725844, 45.550341796999987 ], [ 67.006956487725844, 45.550341796999987 ], [ 65.255901443249286, 48.050341796999987 ], [ 65.255901443249286, 48.050341796999987 ], [ 66.995329798234863, 50.550341796999987 ], [ 66.995329798234863, 50.550341796999987 ], [ 72.140706759734286, 53.050341796999987 ], [ 72.140706759734286, 53.050341796999987 ], [ 85.884073348568933, 57.277414468443183 ], [ 85.884073348568933, 57.277414468443183 ], [ 98.75, 60.622881217720341 ], [ 98.75, 60.622881217720341 ], [ 105.0, 61.068055816296997 ], [ 105.0, 61.068055816296997 ], [ 112.5, 60.883219206537532 ], [ 112.5, 60.883219206537532 ], [ 118.75, 60.168507997748179 ], [ 118.75, 60.168507997748179 ], [ 121.781033443808383, 59.507877858230486 ], [ 121.781033443808383, 59.507877858230486 ], [ 123.157259697311957, 58.050341796999987 ], [ 123.157259697311957, 58.050341796999987 ], [ 123.128349049062052, 54.300341796999987 ], [ 123.128349049062052, 54.300341796999987 ], [ 123.26495045869288, 48.050341796999987 ], [ 123.26495045869288, 48.050341796999987 ], [ 124.012827663134402, 42.798559265805693 ], [ 124.012827663134402, 42.798559265805693 ], [ 122.545575008030852, 39.048559265805693 ], [ 122.545575008030852, 39.048559265805693 ], [ 119.648325199016341, 35.550341796999987 ], [ 117.955500381970978, 34.300341796999987 ] ] } },
{ "type": "Feature", "properties": { "fid": 22, "ID": 21, "ELEV": 101400.0 }, "geometry": { "type": "LineString", "coordinates": [ [ -180.0, 29.302093877595695 ], [ -175.625, 29.484819678494624 ], [ -167.5, 30.125173271597994 ], [ -167.5, 30.125173271597994 ], [ -160.0, 31.547296080525708 ], [ -160.0, 31.547296080525708 ], [ -152.5, 33.952131432021204 ], [ -152.5, 33.952131432021204 ], [ -143.75, 37.770688497546672 ], [ -143.75, 37.770688497546672 ], [ -135.0, 42.439301866534954 ], [ -135.0, 42.439301866534954 ], [ -128.792977945731622, 47.015020150884993 ], [ -128.792977945731622, 47.015020150884993 ], [ -125.662725155186649, 50.550341796999987 ], [ -125.662725155186649, 50.550341796999987 ], [ -124.862679490848848, 53.050341796999987 ], [ -124.862679490848848, 53.050341796999987 ], [ -125.18683317531935, 55.550341796999987 ], [ -125.18683317531935, 55.550341796999987 ], [ -126.603045153421903, 58.050341796999987 ], [ -126.603045153421903, 58.050341796999987 ], [ -129.080929047380238, 60.550341796999987 ], [ -129.080929047380238, 60.550341796999987 ], [ -132.171784787883865, 62.650178702871372 ], [ -132.171784787883865, 62.650178702871372 ], [ -137.5, 64.674539545137307 ], [ -137.5, 64.674539545137307 ], [ -146.25, 66.666544985737048 ], [ -146.25, 66.666544985737048 ], [ -155.0, 67.723375922508311 ], [ -155.0, 67.723375922508311 ], [ -169.375, 67.199834367462984 ], [ -180.0, 66.436943379851598 ] ] } },
{ "type": "Feature", "properties": { "fid": 23, "ID": 22, "ELEV": 102300.0 }, "geometry": { "type": "LineString", "coordinates": [ [ -17.027598710717172, 31.800341796999987 ], [ -20.388799355358586, 31.415401329559153 ], [ -26.935081148564294, 31.415401329559153 ], [ -26.935081148564294, 31.415401329559153 ], [ -28.939200286713856, 33.050341796999987 ], [ -28.939200286713856, 33.050341796999987 ], [ -23.254119138149562, 35.460732313039045 ], [ -23.254119138149562, 35.460732313039045 ], [ -17.5, 36.643402102266208 ], [ -17.5, 36.643402102266208 ], [ -15.0, 36.101249607865483 ], [ -15.0, 36.101249607865483 ], [ -13.120078740157481, 34.918579818638321 ], [ -13.120078740157481, 34.918579818638321 ], [ -14.758878095516067, 33.050341796999987 ], [ -17.027598710717172, 31.800341796999987 ] ] } },
{ "type": "Feature", "properties": { "fid": 24, "ID": 23, "ELEV": 101400.0 }, "geometry": { "type": "LineString", "coordinates": [ [ 180.0, 63.235427335278828 ], [ 173.125, 62.678063447593871 ], [ 157.5, 60.709473824674461 ], [ 157.5, 60.709473824674461 ], [ 145.991975254282067, 58.049294943219998 ], [ 145.991975254282067, 58.049294943219998 ], [ 142.356581995855095, 55.550341796999987 ], [ 142.356581995855095, 55.550341796999987 ], [ 141.26096928009224, 51.800341796999987 ], [ 141.26096928009224, 51.800341796999987 ], [ 141.253518007752007, 46.800341796999987 ], [ 141.253518007752007, 46.800341796999987 ], [ 142.35590363229818, 41.800341796999987 ], [ 142.35590363229818, 41.800341796999987 ], [ 144.748748163065386, 37.017245982712993 ], [ 144.748748163065386, 37.017245982712993 ], [ 147.5, 33.78625231266156 ], [ 147.5, 33.78625231266156 ], [ 151.25, 31.879748978110278 ], [ 151.25, 31.879748978110278 ], [ 156.25, 30.41159767623725 ], [ 156.25, 30.41159767623725 ], [ 163.75, 29.38631923562167 ], [ 163.75, 29.38631923562167 ], [ 174.375, 28.702457344520674 ], [ 180.0, 28.534328070949087 ] ] } },
{ "type": "Feature", "properties": { "fid": 25, "ID": 24, "ELEV": 102000.0 }, "geometry": { "type": "LineString", "coordinates": [ [ -84.471052631578942, 29.300341796999987 ], [ -87.860526315789471, 29.326476960674754 ], [ -93.75, 30.092308434846711 ], [ -93.75, 30.092308434846711 ], [ -98.75, 31.956544061940011 ], [ -98.75, 31.956544061940011 ], [ -103.541517537580532, 33.690712587768054 ], [ -103.541517537580532, 33.690712587768054 ], [ -112.291517537580532, 34.755199725505946 ], [ -112.291517537580532, 34.755199725505946 ], [ -120.0, 35.622546664281458 ], [ -120.0, 35.622546664281458 ], [ -121.579912023460409, 36.417688735775499 ], [ -121.579912023460409, 36.417688735775499 ], [ -121.897395683591128, 38.050341796999987 ], [ -121.897395683591128, 38.050341796999987 ], [ -120.908439937609955, 40.550341796999987 ], [ -120.908439937609955, 40.550341796999987 ], [ -116.840956277479236, 43.415509279122681 ], [ -116.840956277479236, 43.415509279122681 ], [ -111.25, 45.516328951253826 ], [ -111.25, 45.516328951253826 ], [ -106.25, 45.70970149860068 ], [ -106.25, 45.70970149860068 ], [ -102.440446339017058, 44.858881826469542 ], [ -102.440446339017058, 44.858881826469542 ], [ -97.440446339017058, 42.037363996966604 ], [ -97.440446339017058, 42.037363996966604 ], [ -89.704249920710438, 38.287363996966604 ], [ -89.704249920710438, 38.287363996966604 ], [ -84.190480420551253, 35.550341796999987 ], [ -84.190480420551253, 35.550341796999987 ], [ -81.777689041299354, 33.050341796999987 ], [ -81.777689041299354, 33.050341796999987 ], [ -81.041458541458539, 31.419758387701901 ], [ -81.041458541458539, 31.419758387701901 ], [ -82.860526315789471, 30.169758387701901 ], [ -84.471052631578942, 29.300341796999987 ] ] } },
{ "type": "Feature", "properties": { "fid": 26, "ID": 25, "ELEV": 102000.0 }, "geometry": { "type": "LineString", "coordinates": [ [ -126.138959390862937, 29.300341796999987 ], [ -127.444479695431468, 28.494628413161607 ], [ -130.0, 27.536676565077514 ], [ -130.0, 27.536676565077514 ], [ -132.722189950624454, 28.342389948915894 ], [ -132.722189950624454, 28.342389948915894 ], [ -132.722189950624454, 30.217251891125272 ], [ -132.722189950624454, 30.217251891125272 ], [ -130.0, 31.44264795449541 ], [ -130.0, 31.44264795449541 ], [ -127.444479695431468, 30.525737860370125 ], [ -126.138959390862937, 29.300341796999987 ] ] } },
{ "type": "Feature", "properties": { "fid": 27, "ID": 26, "ELEV": 102300.0 }, "geometry": { "type": "LineString", "coordinates": [ [ 122.36, 29.300341796999987 ], [ 120.555, 28.808302501607034 ], [ 116.25, 28.374113375212985 ], [ 116.25, 28.374113375212985 ], [ 107.5, 30.096533064768241 ], [ 107.5, 30.096533064768241 ], [ 93.75, 32.223855590047904 ], [ 93.75, 32.223855590047904 ], [ 83.75, 33.191812122279188 ], [ 83.75, 33.191812122279188 ], [ 73.75, 36.086522433886628 ], [ 73.75, 36.086522433886628 ], [ 62.04756526104417, 40.138185507493034 ], [ 62.04756526104417, 40.138185507493034 ], [ 56.010818170010651, 43.050341796999987 ], [ 56.010818170010651, 43.050341796999987 ], [ 53.74420009062338, 45.550341796999987 ], [ 53.74420009062338, 45.550341796999987 ], [ 53.992099401530041, 48.050341796999987 ], [ 53.992099401530041, 48.050341796999987 ], [ 56.50886772741309, 50.550341796999987 ], [ 56.50886772741309, 50.550341796999987 ], [ 59.797715507539948, 52.398732773761061 ], [ 59.797715507539948, 52.398732773761061 ], [ 78.75, 58.588666578362051 ], [ 78.75, 58.588666578362051 ], [ 100.0, 64.667911202073697 ], [ 100.0, 64.667911202073697 ], [ 116.25, 65.682151910969253 ], [ 116.25, 65.682151910969253 ], [ 131.25, 66.028800471424404 ], [ 131.25, 66.028800471424404 ], [ 134.429252782193942, 65.074625957927864 ], [ 134.429252782193942, 65.074625957927864 ], [ 134.429252782193942, 63.872235584575137 ], [ 134.429252782193942, 63.872235584575137 ], [ 133.23734375, 62.622235584575137 ], [ 133.23734375, 62.622235584575137 ], [ 130.373076741586345, 56.800341796999987 ], [ 130.373076741586345, 56.800341796999987 ], [ 128.479014051475474, 48.050341796999987 ], [ 128.479014051475474, 48.050341796999987 ], [ 128.707184597573161, 41.800341796999987 ], [ 128.707184597573161, 41.800341796999987 ], [ 127.886517197077382, 36.800341796999987 ], [ 127.886517197077382, 36.800341796999987 ], [ 126.523294618887235, 33.050341796999987 ], [ 126.523294618887235, 33.050341796999987 ], [ 124.055680959493884, 30.550341796999987 ], [ 122.36, 29.300341796999987 ] ] } },
{ "type": "Feature", "properties": { "fid": 28, "ID": 27, "ELEV": 102000.0 }, "geometry": { "type": "LineString", "coordinates": [ [ 120.252463054187217, 24.300341796999987 ], [ 118.251231527093609, 24.20428779907683 ], [ 113.75, 24.399972290825009 ], [ 113.75, 24.399972290825009 ], [ 106.25, 26.318672918689842 ], [ 106.25, 26.318672918689842 ], [ 98.75, 28.392652117112384 ], [ 98.75, 28.392652117112384 ], [ 90.0, 29.114461804353574 ], [ 90.0, 29.114461804353574 ], [ 75.0, 30.602494407769782 ], [ 75.0, 30.602494407769782 ], [ 60.0, 31.757537437561229 ], [ 60.0, 31.757537437561229 ], [ 50.0, 32.071077395120042 ], [ 50.0, 32.071077395120042 ], [ 41.25, 34.282193782373625 ], [ 41.25, 34.282193782373625 ], [ 33.339148639218422, 37.710957531227891 ], [ 33.339148639218422, 37.710957531227891 ], [ 29.506280530355895, 40.550341796999987 ], [ 29.506280530355895, 40.550341796999987 ], [ 28.130172337441536, 43.050341796999987 ], [ 28.130172337441536, 43.050341796999987 ], [ 31.963040446304063, 45.690077569357712 ], [ 31.963040446304063, 45.690077569357712 ], [ 41.339121841027819, 49.440077569357712 ], [ 41.339121841027819, 49.440077569357712 ], [ 49.729121841027819, 53.050341796999987 ], [ 49.729121841027819, 53.050341796999987 ], [ 64.64, 57.761121274059683 ], [ 64.64, 57.761121274059683 ], [ 83.75, 63.854053950084214 ], [ 83.75, 63.854053950084214 ], [ 93.75, 67.149589210440467 ], [ 93.75, 67.149589210440467 ], [ 113.75, 70.045660578905327 ], [ 113.75, 70.045660578905327 ], [ 137.5, 72.784384104414784 ], [ 137.5, 72.784384104414784 ], [ 152.5, 73.36354996029246 ], [ 152.5, 73.36354996029246 ], [ 167.614460562103346, 72.618511697367055 ], [ 167.614460562103346, 72.618511697367055 ], [ 174.213908801724983, 70.550341796999987 ], [ 174.213908801724983, 70.550341796999987 ], [ 171.599448239621637, 68.750213085038965 ], [ 171.599448239621637, 68.750213085038965 ], [ 166.929347826086996, 67.500213085038965 ], [ 166.929347826086996, 67.500213085038965 ], [ 159.710815251766945, 65.550341796999987 ], [ 159.710815251766945, 65.550341796999987 ], [ 150.281467425679949, 63.591787059967203 ], [ 150.281467425679949, 63.591787059967203 ], [ 143.75, 62.115782837751404 ], [ 143.75, 62.115782837751404 ], [ 139.269947033301406, 60.324337574784195 ], [ 139.269947033301406, 60.324337574784195 ], [ 136.119394793166038, 58.050341796999987 ], [ 136.119394793166038, 58.050341796999987 ], [ 133.901054507261307, 54.300341796999987 ], [ 133.901054507261307, 54.300341796999987 ], [ 133.182706830109652, 44.300341796999987 ], [ 133.182706830109652, 44.300341796999987 ], [ 133.211054557033663, 34.300341796999987 ], [ 133.211054557033663, 34.300341796999987 ], [ 132.470244540908311, 30.550341796999987 ], [ 132.470244540908311, 30.550341796999987 ], [ 130.390290066587625, 27.89090226897639 ], [ 130.390290066587625, 27.89090226897639 ], [ 126.25, 25.67180955862711 ], [ 126.25, 25.67180955862711 ], [ 122.001231527093609, 24.581249086650708 ], [ 120.252463054187217, 24.300341796999987 ] ] } },
{ "type": "Feature", "properties": { "fid": 29, "ID": 28, "ELEV": 102000.0 }, "geometry": { "type": "LineString", "coordinates": [ [ 21.632953181272512, 24.300341796999987 ], [ 18.941476590636256, 23.900316054134443 ], [ 8.75, 24.039245300102774 ], [ 8.75, 24.039245300102774 ], [ -2.5, 24.60765765668015 ], [ -2.5, 24.60765765668015 ], [ -20.0, 23.627688127675384 ], [ -20.0, 23.627688127675384 ], [ -38.75, 22.69084013198756 ], [ -38.75, 22.69084013198756 ], [ -51.25, 23.751736134707951 ], [ -51.25, 23.751736134707951 ], [ -62.572619688004295, 25.770197516683943 ], [ -62.572619688004295, 25.770197516683943 ], [ -67.329002004318113, 28.050341796999987 ], [ -67.329002004318113, 28.050341796999987 ], [ -64.058082524502595, 30.550341796999987 ], [ -64.058082524502595, 30.550341796999987 ], [ -51.801700208188763, 33.739939690493443 ], [ -51.801700208188763, 33.739939690493443 ], [ -33.202270129021713, 38.739939690493443 ], [ -33.202270129021713, 38.739939690493443 ], [ -15.702270129021713, 43.028481236667766 ], [ -15.702270129021713, 43.028481236667766 ], [ -3.75, 44.478979468747482 ], [ -3.75, 44.478979468747482 ], [ 3.172782874617738, 44.500840029079704 ], [ 3.172782874617738, 44.500840029079704 ], [ 4.85797528231403, 43.050341796999987 ], [ 4.85797528231403, 43.050341796999987 ], [ 5.199542306834388, 40.550341796999987 ], [ 5.199542306834388, 40.550341796999987 ], [ 7.349487590960678, 38.050341796999987 ], [ 7.349487590960678, 38.050341796999987 ], [ 16.656930092703632, 33.050341796999987 ], [ 16.656930092703632, 33.050341796999987 ], [ 24.739260174531907, 28.050341796999987 ], [ 24.739260174531907, 28.050341796999987 ], [ 23.358944364287112, 25.550341796999987 ], [ 21.632953181272512, 24.300341796999987 ] ] } },
{ "type": "Feature", "properties": { "fid": 30, "ID": 29, "ELEV": 101700.0 }, "geometry": { "type": "LineString", "coordinates": [ [ 180.0, 65.384883063363262 ], [ 171.875, 64.522186389966606 ], [ 156.25, 62.391133595875921 ], [ 156.25, 62.391133595875921 ], [ 145.721107038543039, 60.211559636090932 ], [ 145.721107038543039, 60.211559636090932 ], [ 140.891771049729954, 58.050341796999987 ], [ 140.891771049729954, 58.050341796999987 ], [ 138.361901041345561, 55.550341796999987 ], [ 138.361901041345561, 55.550341796999987 ], [ 137.36277178727758, 53.050341796999987 ], [ 137.36277178727758, 53.050341796999987 ], [ 137.387539843866165, 46.800341796999987 ], [ 137.387539843866165, 46.800341796999987 ], [ 138.981441930200987, 36.800341796999987 ], [ 138.981441930200987, 36.800341796999987 ], [ 141.79841825475134, 29.300341796999987 ], [ 141.79841825475134, 29.300341796999987 ], [ 142.160567618194108, 25.550341796999987 ], [ 142.160567618194108, 25.550341796999987 ], [ 137.377586206896524, 23.29432856789596 ], [ 137.377586206896524, 23.29432856789596 ], [ 127.5, 21.385416696634689 ], [ 127.5, 21.385416696634689 ], [ 117.5, 20.341401141751469 ], [ 117.5, 20.341401141751469 ], [ 110.0, 20.807780274088248 ], [ 110.0, 20.807780274088248 ], [ 102.466492602262861, 22.857809058075496 ], [ 102.466492602262861, 22.857809058075496 ], [ 96.216492602262861, 24.889204934350559 ], [ 96.216492602262861, 24.889204934350559 ], [ 85.0, 25.767698994448395 ], [ 85.0, 25.767698994448395 ], [ 71.25, 25.480051583947283 ], [ 71.25, 25.480051583947283 ], [ 61.25, 23.207320521386077 ], [ 61.25, 23.207320521386077 ], [ 53.75, 21.559441963696571 ], [ 53.75, 21.559441963696571 ], [ 47.5, 22.25649901987525 ], [ 47.5, 22.25649901987525 ], [ 41.25, 22.860946981116228 ], [ 41.25, 22.860946981116228 ], [ 32.115424754748489, 21.05812692740092 ], [ 32.115424754748489, 21.05812692740092 ], [ 22.115424754748489, 18.808078512597895 ], [ 22.115424754748489, 18.808078512597895 ], [ 5.0, 18.890446674253884 ], [ 5.0, 18.890446674253884 ], [ -13.75, 19.181091130286067 ], [ -13.75, 19.181091130286067 ], [ -26.25, 18.021516475195533 ], [ -26.25, 18.021516475195533 ], [ -37.5, 17.060132417807509 ], [ -37.5, 17.060132417807509 ], [ -47.5, 17.316884098690636 ], [ -47.5, 17.316884098690636 ], [ -63.75, 18.806720401787281 ], [ -63.75, 18.806720401787281 ], [ -82.5, 20.278032337912975 ], [ -82.5, 20.278032337912975 ], [ -98.75, 21.718351617595463 ], [ -98.75, 21.718351617595463 ], [ -108.75, 22.769518141133513 ], [ -108.75, 22.769518141133513 ], [ -117.5, 21.43411404847032 ], [ -117.5, 21.43411404847032 ], [ -126.25, 19.94607417348691 ], [ -126.25, 19.94607417348691 ], [ -133.75, 19.979116467037883 ], [ -133.75, 19.979116467037883 ], [ -142.881419939577029, 21.015132694908967 ], [ -142.881419939577029, 21.015132694908967 ], [ -149.612019029566909, 23.050341796999987 ], [ -149.612019029566909, 23.050341796999987 ], [ -152.369944163199222, 25.550341796999987 ], [ -152.369944163199222, 25.550341796999987 ], [ -151.251261337299525, 28.050341796999987 ], [ -151.251261337299525, 28.050341796999987 ], [ -148.103986621644964, 30.550341796999987 ], [ -148.103986621644964, 30.550341796999987 ], [ -138.74207035755478, 35.795838682696633 ], [ -138.74207035755478, 35.795838682696633 ], [ -126.603183683130823, 43.295838682696633 ], [ -126.603183683130823, 43.295838682696633 ], [ -120.512408020437348, 48.050341796999987 ], [ -120.512408020437348, 48.050341796999987 ], [ -118.131217703452478, 50.550341796999987 ], [ -118.131217703452478, 50.550341796999987 ], [ -116.866525490614265, 53.050341796999987 ], [ -116.866525490614265, 53.050341796999987 ], [ -116.716703775963779, 55.550341796999987 ], [ -116.716703775963779, 55.550341796999987 ], [ -118.255670127105205, 59.300341796999987 ], [ -118.255670127105205, 59.300341796999987 ], [ -120.544201916905294, 63.050341796999987 ], [ -120.544201916905294, 63.050341796999987 ], [ -123.860703441295541, 66.346822790601792 ], [ -123.860703441295541, 66.346822790601792 ], [ -131.25, 69.554505175581014 ], [ -131.25, 69.554505175581014 ], [ -141.25, 71.122272450699683 ], [ -141.25, 71.122272450699683 ], [ -151.25, 71.61202255797366 ], [ -151.25, 71.61202255797366 ], [ -168.125, 70.712358309475206 ], [ -180.0, 69.729509837443999 ] ] } },
{ "type": "Feature", "properties": { "fid": 31, "ID": 30, "ELEV": 101400.0 }, "geometry": { "type": "LineString", "coordinates": [ [ 180.0, 18.854728304813705 ], [ 165.625, 18.884636809375941 ], [ 132.5, 17.115147043841183 ], [ 132.5, 17.115147043841183 ], [ 110.0, 15.491781872071563 ], [ 110.0, 15.491781872071563 ], [ 100.0, 16.656352592510309 ], [ 100.0, 16.656352592510309 ], [ 91.25, 17.706727076414793 ], [ 91.25, 17.706727076414793 ], [ 81.25, 16.935283022416598 ], [ 81.25, 16.935283022416598 ], [ 66.25, 14.040025515445549 ], [ 66.25, 14.040025515445549 ], [ 55.0, 11.410219575292587 ], [ 55.0, 11.410219575292587 ], [ 48.75, 11.217888000736998 ], [ 48.75, 11.217888000736998 ], [ 43.75, 13.00731507878276 ], [ 43.75, 13.00731507878276 ], [ 38.75, 14.931469025347276 ], [ 38.75, 14.931469025347276 ], [ 26.25, 14.827175416779554 ], [ 26.25, 14.827175416779554 ], [ 2.5, 14.482753280529813 ], [ 2.5, 14.482753280529813 ], [ -21.25, 13.24377637114101 ], [ -21.25, 13.24377637114101 ], [ -36.25, 11.511513770123997 ], [ -36.25, 11.511513770123997 ], [ -48.75, 11.623246931136357 ], [ -48.75, 11.623246931136357 ], [ -65.196374622356501, 13.129255732761273 ], [ -65.196374622356501, 13.129255732761273 ], [ -82.696374622356501, 14.616986174577164 ], [ -82.696374622356501, 14.616986174577164 ], [ -97.5, 15.46872014447306 ], [ -97.5, 15.46872014447306 ], [ -106.25, 16.069966402670261 ], [ -106.25, 16.069966402670261 ], [ -116.25, 15.520263648784805 ], [ -116.25, 15.520263648784805 ], [ -128.75, 14.840866248899097 ], [ -128.75, 14.840866248899097 ], [ -140.0, 15.110401379969836 ], [ -140.0, 15.110401379969836 ], [ -157.5, 16.532499015198354 ], [ -157.5, 16.532499015198354 ], [ -174.375, 17.863986103231674 ], [ -180.0, 18.106448667228989 ] ] } },
{ "type": "Feature", "properties": { "fid": 32, "ID": 31, "ELEV": 101100.0 }, "geometry": { "type": "LineString", "coordinates": [ [ -180.0, -24.069769373640241 ], [ -174.375, -23.585819408556326 ], [ -163.75, -21.726338665436394 ], [ -163.75, -21.726338665436394 ], [ -148.75, -15.037098838980882 ], [ -148.75, -15.037098838980882 ], [ -129.289655172413802, -5.211523996780699 ], [ -129.289655172413802, -5.211523996780699 ], [ -117.881746467530562, 0.550341796999987 ], [ -117.881746467530562, 0.550341796999987 ], [ -115.414151977796919, 3.050341796999987 ], [ -115.414151977796919, 3.050341796999987 ], [ -118.370408295899239, 5.550341796999987 ], [ -118.370408295899239, 5.550341796999987 ], [ -124.048347613219093, 7.054445120018954 ], [ -124.048347613219093, 7.054445120018954 ], [ -145.0, 9.113916485657725 ], [ -145.0, 9.113916485657725 ], [ -171.875, 11.272773425125088 ], [ -180.0, 11.626262321972646 ] ] } },
{ "type": "Feature", "properties": { "fid": 33, "ID": 32, "ELEV": 100800.0 }, "geometry": { "type": "LineString", "coordinates": [ [ 180.0, 0.864059645791883 ], [ 174.375, 1.086338519702323 ], [ 165.0, 0.983947024883832 ], [ 165.0, 0.983947024883832 ], [ 159.270833333333314, -0.020190773422556 ], [ 159.270833333333314, -0.020190773422556 ], [ 154.783333333333303, -3.199658203000013 ], [ 154.783333333333303, -3.199658203000013 ], [ 150.5125, -6.226652700936732 ], [ 150.5125, -6.226652700936732 ], [ 140.0, -7.286467082696454 ], [ 140.0, -7.286467082696454 ], [ 127.5, -8.542499643072574 ], [ 127.5, -8.542499643072574 ], [ 121.25, -10.288314452019236 ], [ 121.25, -10.288314452019236 ], [ 117.255693702068328, -12.255287393706396 ], [ 117.255693702068328, -12.255287393706396 ], [ 114.772570974008801, -14.449658203000013 ], [ 114.772570974008801, -14.449658203000013 ], [ 113.601620474357389, -16.949658203000013 ], [ 113.601620474357389, -16.949658203000013 ], [ 113.836366579040316, -19.449658203000013 ], [ 113.836366579040316, -19.449658203000013 ], [ 115.486019810093893, -21.949658203000013 ], [ 115.486019810093893, -21.949658203000013 ], [ 118.984396433470494, -24.089174645257913 ], [ 118.984396433470494, -24.089174645257913 ], [ 125.0, -25.348251801082419 ], [ 125.0, -25.348251801082419 ], [ 131.25, -25.552617784281033 ], [ 131.25, -25.552617784281033 ], [ 136.25, -24.877082991890191 ], [ 136.25, -24.877082991890191 ], [ 143.75, -22.003638333562286 ], [ 143.75, -22.003638333562286 ], [ 152.5, -18.740147384010371 ], [ 152.5, -18.740147384010371 ], [ 168.125, -17.715474006642758 ], [ 180.0, -17.591186982522004 ] ] } },
{ "type": "Feature", "properties": { "fid": 34, "ID": 33, "ELEV": 101100.0 }, "geometry": { "type": "LineString", "coordinates": [ [ -56.25, -28.98653222490924 ], [ -55.0, -28.309476140823094 ], [ -52.79865506329115, -26.66603912986848 ], [ -52.79865506329115, -26.66603912986848 ], [ -51.291866924670217, -24.449658203000013 ], [ -51.291866924670217, -24.449658203000013 ], [ -50.717473062522998, -21.949658203000013 ], [ -50.717473062522998, -21.949658203000013 ], [ -51.216861268416054, -18.199658203000013 ], [ -51.216861268416054, -18.199658203000013 ], [ -51.714579688815064, -14.449658203000013 ], [ -51.714579688815064, -14.449658203000013 ], [ -51.281676710449318, -11.949658203000013 ], [ -51.281676710449318, -11.949658203000013 ], [ -49.599409867335453, -9.449658203000013 ], [ -49.599409867335453, -9.449658203000013 ], [ -43.290096803006648, -5.699658203000013 ], [ -43.290096803006648, -5.699658203000013 ], [ -37.731469550893351, -1.949658203000013 ], [ -37.731469550893351, -1.949658203000013 ], [ -39.23108552631578, -0.013394004430388 ], [ -39.23108552631578, -0.013394004430388 ], [ -42.5, 0.844896718725195 ], [ -42.5, 0.844896718725195 ], [ -57.5, 1.8821365769507 ], [ -57.5, 1.8821365769507 ], [ -78.75, 4.708805203388614 ], [ -78.75, 4.708805203388614 ], [ -87.5, 6.512920967876994 ], [ -87.5, 6.512920967876994 ], [ -91.315891472868216, 5.327961618283496 ], [ -91.315891472868216, 5.327961618283496 ], [ -92.565891472868216, 3.697263075254078 ], [ -92.565891472868216, 3.697263075254078 ], [ -87.5, 2.043354280465806 ], [ -87.5, 2.043354280465806 ], [ -73.991414618777569, -6.103566997788285 ], [ -73.991414618777569, -6.103566997788285 ], [ -63.13259898631933, -14.449658203000013 ], [ -63.13259898631933, -14.449658203000013 ], [ -61.682120040056382, -16.949658203000013 ], [ -61.682120040056382, -16.949658203000013 ], [ -61.429521009291896, -21.949658203000013 ], [ -61.429521009291896, -21.949658203000013 ], [ -61.217700757780115, -26.949658203000013 ], [ -61.217700757780115, -26.949658203000013 ], [ -59.82911542100284, -28.779981276009423 ], [ -59.82911542100284, -28.779981276009423 ], [ -57.5, -29.173418286964036 ], [ -56.25, -28.98653222490924 ] ] } },
{ "type": "Feature", "properties": { "fid": 35, "ID": 34, "ELEV": 101100.0 }, "geometry": { "type": "LineString", "coordinates": [ [ 180.0, 12.137890304961985 ], [ 168.125, 12.36399603413652 ], [ 148.75, 12.350198845945897 ], [ 148.75, 12.350198845945897 ], [ 135.0, 11.358278693657169 ], [ 135.0, 11.358278693657169 ], [ 120.0, 9.03036421239895 ], [ 120.0, 9.03036421239895 ], [ 102.5, 7.120265744273382 ], [ 102.5, 7.120265744273382 ], [ 90.0, 6.376998429512099 ], [ 90.0, 6.376998429512099 ], [ 82.622655122655118, 5.134137066770862 ], [ 82.622655122655118, 5.134137066770862 ], [ 67.622655122655118, -0.735773772823443 ], [ 67.622655122655118, -0.735773772823443 ], [ 48.75, -8.060409014125348 ], [ 48.75, -8.060409014125348 ], [ 38.75, -10.731057638971677 ], [ 38.75, -10.731057638971677 ], [ 30.051703163017024, -10.906422397669772 ], [ 30.051703163017024, -10.906422397669772 ], [ 23.556753668067529, -9.449658203000013 ], [ 23.556753668067529, -9.449658203000013 ], [ 27.475638740344621, -3.199658203000013 ], [ 27.475638740344621, -3.199658203000013 ], [ 30.971024535468615, 3.050341796999987 ], [ 30.971024535468615, 3.050341796999987 ], [ 27.917379821769174, 5.550341796999987 ], [ 27.917379821769174, 5.550341796999987 ], [ 23.416943521594675, 7.118850530303966 ], [ 23.416943521594675, 7.118850530303966 ], [ 8.75, 7.19127451679045 ], [ 8.75, 7.19127451679045 ], [ -5.0, 6.537235019456723 ], [ -5.0, 6.537235019456723 ], [ -7.51994122586062, 5.214811032970239 ], [ -7.51994122586062, 5.214811032970239 ], [ -7.611742030689598, 3.050341796999987 ], [ -7.611742030689598, 3.050341796999987 ], [ -0.376239580339174, -1.949658203000013 ], [ -0.376239580339174, -1.949658203000013 ], [ 10.901012044161931, -8.199658203000013 ], [ 10.901012044161931, -8.199658203000013 ], [ 15.566621058054011, -13.199658203000013 ], [ 15.566621058054011, -13.199658203000013 ], [ 15.32112034529564, -16.949658203000013 ], [ 15.32112034529564, -16.949658203000013 ], [ 17.189950106913756, -19.648048707598576 ], [ 17.189950106913756, -19.648048707598576 ], [ 21.25, -21.963902366135159 ], [ 21.25, -21.963902366135159 ], [ 26.25, -22.911758320460109 ], [ 26.25, -22.911758320460109 ], [ 35.0, -22.18085475330551 ], [ 35.0, -22.18085475330551 ], [ 42.784487051792837, -21.034608294381997 ], [ 42.784487051792837, -21.034608294381997 ], [ 49.034487051792837, -18.590925162678971 ], [ 49.034487051792837, -18.590925162678971 ], [ 57.5, -15.808361739733108 ], [ 57.5, -15.808361739733108 ], [ 67.5, -14.517089235587527 ], [ 67.5, -14.517089235587527 ], [ 78.75, -13.71786903815962 ], [ 78.75, -13.71786903815962 ], [ 87.5, -13.773506029517797 ], [ 87.5, -13.773506029517797 ], [ 95.0, -15.077244371972995 ], [ 95.0, -15.077244371972995 ], [ 101.25, -17.708899477909618 ], [ 101.25, -17.708899477909618 ], [ 105.843032338697071, -21.236944755828191 ], [ 105.843032338697071, -21.236944755828191 ], [ 110.843032338697071, -25.170758227336833 ], [ 110.843032338697071, -25.170758227336833 ], [ 116.25, -28.068829450148172 ], [ 116.25, -28.068829450148172 ], [ 121.25, -29.421175402537237 ], [ 121.25, -29.421175402537237 ], [ 131.25, -30.438922016987533 ], [ 131.25, -30.438922016987533 ], [ 141.25, -30.953275065928771 ], [ 141.25, -30.953275065928771 ], [ 145.0, -30.60309759197019 ], [ 145.0, -30.60309759197019 ], [ 150.0, -28.648369812898871 ], [ 150.0, -28.648369812898871 ], [ 156.25, -26.15197335029999 ], [ 156.25, -26.15197335029999 ], [ 162.5, -25.026704583396359 ], [ 162.5, -25.026704583396359 ], [ 173.125, -24.738610000248272 ], [ 180.0, -24.761956838112184 ] ] } },
{ "type": "Feature", "properties": { "fid": 36, "ID": 35, "ELEV": 102000.0 }, "geometry": { "type": "LineString", "coordinates": [ [ -4.811334936861101, -30.699658203000013 ], [ -5.530667468430551, -31.231324869666679 ], [ -7.5, -31.656472604400754 ], [ -7.5, -31.656472604400754 ], [ -9.762509773260348, -31.124805937734088 ], [ -9.762509773260348, -31.124805937734088 ], [ -9.762509773260348, -30.326136426247778 ], [ -9.762509773260348, -30.326136426247778 ], [ -6.780667468430551, -30.326136426247778 ], [ -4.811334936861101, -30.699658203000013 ] ] } },
{ "type": "Feature", "properties": { "fid": 37, "ID": 36, "ELEV": 102000.0 }, "geometry": { "type": "LineString", "coordinates": [ [ 88.797841020608473, -35.699658203000013 ], [ 86.273920510304237, -35.851906565120323 ], [ 80.983942065491192, -35.851906565120323 ], [ 80.983942065491192, -35.851906565120323 ], [ 77.653633535545623, -34.449658203000013 ], [ 77.653633535545623, -34.449658203000013 ], [ 79.169691470054431, -32.660673839005085 ], [ 79.169691470054431, -32.660673839005085 ], [ 83.75, -31.882524323545923 ], [ 83.75, -31.882524323545923 ], [ 87.5, -31.792975396083563 ], [ 87.5, -31.792975396083563 ], [ 90.510333863275036, -32.571124911542725 ], [ 90.510333863275036, -32.571124911542725 ], [ 90.534254373579273, -34.449658203000013 ], [ 88.797841020608473, -35.699658203000013 ] ] } },
{ "type": "Feature", "properties": { "fid": 38, "ID": 37, "ELEV": 101700.0 }, "geometry": { "type": "LineString", "coordinates": [ [ 5.3125, -38.199658203000013 ], [ 2.03125, -38.466331010663978 ], [ -6.25, -38.620148014935715 ], [ -6.25, -38.620148014935715 ], [ -13.75, -38.259785652146029 ], [ -13.75, -38.259785652146029 ], [ -20.0, -37.210669366658081 ], [ -20.0, -37.210669366658081 ], [ -24.890804009819973, -36.054358921783802 ], [ -24.890804009819973, -36.054358921783802 ], [ -27.590619564692403, -34.449658203000013 ], [ -27.590619564692403, -34.449658203000013 ], [ -29.430939550128727, -31.949658203000013 ], [ -29.430939550128727, -31.949658203000013 ], [ -29.52813720257484, -29.449658203000013 ], [ -29.52813720257484, -29.449658203000013 ], [ -28.907258565408739, -26.949658203000013 ], [ -28.907258565408739, -26.949658203000013 ], [ -27.650145607466754, -24.449658203000013 ], [ -27.650145607466754, -24.449658203000013 ], [ -25.289900249376558, -22.091012774984449 ], [ -25.289900249376558, -22.091012774984449 ], [ -22.5, -20.545373454954884 ], [ -22.5, -20.545373454954884 ], [ -17.5, -19.809566580597355 ], [ -17.5, -19.809566580597355 ], [ -10.0, -20.185161511163962 ], [ -10.0, -20.185161511163962 ], [ -2.5, -22.554020378304251 ], [ -2.5, -22.554020378304251 ], [ 3.75, -26.079790983096771 ], [ 3.75, -26.079790983096771 ], [ 7.605924715030483, -29.305384418329574 ], [ 7.605924715030483, -29.305384418329574 ], [ 9.786813831024361, -31.949658203000013 ], [ 9.786813831024361, -31.949658203000013 ], [ 10.711427280373798, -34.449658203000013 ], [ 10.711427280373798, -34.449658203000013 ], [ 9.780538164379919, -36.338859227539373 ], [ 9.780538164379919, -36.338859227539373 ], [ 7.03125, -37.588859227539373 ], [ 5.3125, -38.199658203000013 ] ] } },
{ "type": "Feature", "properties": { "fid": 39, "ID": 38, "ELEV": 102000.0 }, "geometry": { "type": "LineString", "coordinates": [ [ -91.471893491124263, -38.199658203000013 ], [ -95.110946745562131, -38.431057621234714 ], [ -103.75, -38.425393471967723 ], [ -103.75, -38.425393471967723 ], [ -113.628134796238243, -36.943994053733022 ], [ -113.628134796238243, -36.943994053733022 ], [ -119.162081496745856, -34.449658203000013 ], [ -119.162081496745856, -34.449658203000013 ], [ -118.930213012735749, -31.949658203000013 ], [ -118.930213012735749, -31.949658203000013 ], [ -115.985645912648749, -29.449658203000013 ], [ -115.985645912648749, -29.449658203000013 ], [ -112.589379600420614, -27.756189868674028 ], [ -112.589379600420614, -27.756189868674028 ], [ -107.5, -26.660018492192719 ], [ -107.5, -26.660018492192719 ], [ -100.0, -26.263226307194003 ], [ -100.0, -26.263226307194003 ], [ -93.669420811518336, -27.359397683675311 ], [ -93.669420811518336, -27.359397683675311 ], [ -89.475683163296992, -29.449658203000013 ], [ -89.475683163296992, -29.449658203000013 ], [ -87.178178860317558, -31.949658203000013 ], [ -87.178178860317558, -31.949658203000013 ], [ -86.667621121319257, -34.449658203000013 ], [ -86.667621121319257, -34.449658203000013 ], [ -87.795704612780355, -36.400694472430061 ], [ -87.795704612780355, -36.400694472430061 ], [ -90.110946745562131, -37.650694472430061 ], [ -91.471893491124263, -38.199658203000013 ] ] } },
{ "type": "Feature", "properties": { "fid": 40, "ID": 39, "ELEV": 101400.0 }, "geometry": { "type": "LineString", "coordinates": [ [ 180.0, -41.169394556509104 ], [ 174.375, -41.07371566322626 ], [ 166.25, -40.685305107596314 ], [ 166.25, -40.685305107596314 ], [ 160.531648451730433, -39.296115824124612 ], [ 160.531648451730433, -39.296115824124612 ], [ 157.293312437021171, -36.949658203000013 ], [ 157.293312437021171, -36.949658203000013 ], [ 158.713667227532511, -34.449658203000013 ], [ 158.713667227532511, -34.449658203000013 ], [ 161.952003242241773, -32.511578767686061 ], [ 161.952003242241773, -32.511578767686061 ], [ 166.25, -31.389081507002722 ], [ 166.25, -31.389081507002722 ], [ 174.375, -30.79548598377604 ], [ 180.0, -30.636308285918744 ] ] } },
{ "type": "Feature", "properties": { "fid": 41, "ID": 40, "ELEV": 101700.0 }, "geometry": { "type": "LineString", "coordinates": [ [ -82.432585685483858, -40.699658203000013 ], [ -85.591292842741922, -41.285620933913336 ], [ -93.75, -42.066718308760713 ], [ -93.75, -42.066718308760713 ], [ -108.75, -42.096277982881887 ], [ -108.75, -42.096277982881887 ], [ -126.25, -41.520907738605274 ], [ -126.25, -41.520907738605274 ], [ -137.5, -40.675528879253932 ], [ -137.5, -40.675528879253932 ], [ -145.448064113238956, -39.219801748683167 ], [ -145.448064113238956, -39.219801748683167 ], [ -149.98314708582194, -36.949658203000013 ], [ -149.98314708582194, -36.949658203000013 ], [ -148.286275341422396, -34.449658203000013 ], [ -148.286275341422396, -34.449658203000013 ], [ -133.75119236883944, -27.563949975688729 ], [ -133.75119236883944, -27.563949975688729 ], [ -118.75, -21.201925411504888 ], [ -118.75, -21.201925411504888 ], [ -112.5, -19.827662821695554 ], [ -112.5, -19.827662821695554 ], [ -103.75, -19.136181043847031 ], [ -103.75, -19.136181043847031 ], [ -96.25, -19.497018891388457 ], [ -96.25, -19.497018891388457 ], [ -91.25, -20.697503255398836 ], [ -91.25, -20.697503255398836 ], [ -86.25, -22.873822376225917 ], [ -86.25, -22.873822376225917 ], [ -82.5, -25.405637886586206 ], [ -82.5, -25.405637886586206 ], [ -80.137153982573835, -28.628451735338317 ], [ -80.137153982573835, -28.628451735338317 ], [ -78.573286567171266, -33.199658203000013 ], [ -78.573286567171266, -33.199658203000013 ], [ -78.503555902826776, -36.949658203000013 ], [ -78.503555902826776, -36.949658203000013 ], [ -80.658716160971267, -39.449658203000013 ], [ -82.432585685483858, -40.699658203000013 ] ] } },
{ "type": "Feature", "properties": { "fid": 42, "ID": 41, "ELEV": 101700.0 }, "geometry": { "type": "LineString", "coordinates": [ [ 84.931619256017484, -40.699658203000013 ], [ 79.340809628008742, -40.787403029984091 ], [ 68.75, -40.530929589736871 ], [ 68.75, -40.530929589736871 ], [ 58.712476547842414, -39.193184762752793 ], [ 58.712476547842414, -39.193184762752793 ], [ 52.321851547842414, -36.949658203000013 ], [ 52.321851547842414, -36.949658203000013 ], [ 52.171594730941706, -34.449658203000013 ], [ 52.171594730941706, -34.449658203000013 ], [ 56.053574871128617, -31.949658203000013 ], [ 56.053574871128617, -31.949658203000013 ], [ 62.252678639044191, -29.449658203000013 ], [ 62.252678639044191, -29.449658203000013 ], [ 71.01132349885728, -26.995070992663969 ], [ 71.01132349885728, -26.995070992663969 ], [ 81.25, -25.395937521375814 ], [ 81.25, -25.395937521375814 ], [ 90.0, -25.471791814553086 ], [ 90.0, -25.471791814553086 ], [ 96.25, -26.893475537097522 ], [ 96.25, -26.893475537097522 ], [ 102.58580116340562, -30.522208454256294 ], [ 102.58580116340562, -30.522208454256294 ], [ 107.315327025474573, -34.449658203000013 ], [ 107.315327025474573, -34.449658203000013 ], [ 106.392117549110537, -36.949658203000013 ], [ 106.392117549110537, -36.949658203000013 ], [ 94.753401315050326, -39.449658203000013 ], [ 84.931619256017484, -40.699658203000013 ] ] } },
{ "type": "Feature", "properties": { "fid": 43, "ID": 42, "ELEV": 101400.0 }, "geometry": { "type": "LineString", "coordinates": [ [ -180.0, -30.553585576903131 ], [ -174.375, -30.243753201585001 ], [ -163.75, -29.032862536644146 ], [ -163.75, -29.032862536644146 ], [ -153.75, -26.59883727278303 ], [ -153.75, -26.59883727278303 ], [ -140.0, -21.142142750212415 ], [ -140.0, -21.142142750212415 ], [ -126.25, -15.460160803159525 ], [ -126.25, -15.460160803159525 ], [ -116.25, -12.657983330540716 ], [ -116.25, -12.657983330540716 ], [ -106.25, -11.426951176015749 ], [ -106.25, -11.426951176015749 ], [ -97.5, -11.681719226855748 ], [ -97.5, -11.681719226855748 ], [ -90.0, -13.031979483153201 ], [ -90.0, -13.031979483153201 ], [ -83.75, -14.872791906832397 ], [ -83.75, -14.872791906832397 ], [ -79.242411025819962, -17.002439704340489 ], [ -79.242411025819962, -17.002439704340489 ], [ -76.053608942486619, -19.449658203000013 ], [ -76.053608942486619, -19.449658203000013 ], [ -74.210627633066167, -21.949658203000013 ], [ -74.210627633066167, -21.949658203000013 ], [ -72.197320147505295, -29.449658203000013 ], [ -72.197320147505295, -29.449658203000013 ], [ -70.96884720623936, -36.949658203000013 ], [ -70.96884720623936, -36.949658203000013 ], [ -72.090963284339438, -39.449658203000013 ], [ -72.090963284339438, -39.449658203000013 ], [ -75.76414580705412, -41.949658203000013 ], [ -75.76414580705412, -41.949658203000013 ], [ -82.344139297848244, -43.783400383792355 ], [ -82.344139297848244, -43.783400383792355 ], [ -112.5, -44.633200852865059 ], [ -112.5, -44.633200852865059 ], [ -159.375, -43.757571242141054 ], [ -180.0, -42.615883343136687 ] ] } },
{ "type": "Feature", "properties": { "fid": 44, "ID": 43, "ELEV": 101400.0 }, "geometry": { "type": "LineString", "coordinates": [ [ 85.062451209992162, -43.199658203000013 ], [ 78.156225604996081, -43.378197848812945 ], [ 65.0, -43.362873410991206 ], [ 65.0, -43.362873410991206 ], [ 43.75, -40.985596607644034 ], [ 43.75, -40.985596607644034 ], [ 26.25, -38.933749566782559 ], [ 26.25, -38.933749566782559 ], [ 19.133920505871714, -39.882486724316799 ], [ 19.133920505871714, -39.882486724316799 ], [ 9.133920505871714, -41.092248981966407 ], [ 9.133920505871714, -41.092248981966407 ], [ -2.5, -41.539633086247193 ], [ -2.5, -41.539633086247193 ], [ -15.0, -41.340819521156632 ], [ -15.0, -41.340819521156632 ], [ -26.25, -40.593039343590135 ], [ -26.25, -40.593039343590135 ], [ -36.1673632218845, -39.149262129714302 ], [ -36.1673632218845, -39.149262129714302 ], [ -42.716854651532273, -36.949658203000013 ], [ -42.716854651532273, -36.949658203000013 ], [ -44.008952956341972, -34.449658203000013 ], [ -44.008952956341972, -34.449658203000013 ], [ -42.090639903821184, -30.699658203000013 ], [ -42.090639903821184, -30.699658203000013 ], [ -38.590194186840705, -23.199658203000013 ], [ -38.590194186840705, -23.199658203000013 ], [ -35.365036030301951, -16.949658203000013 ], [ -35.365036030301951, -16.949658203000013 ], [ -32.656020220588232, -14.950716964249352 ], [ -32.656020220588232, -14.950716964249352 ], [ -28.75, -13.396650712782609 ], [ -28.75, -13.396650712782609 ], [ -23.75, -12.208754118313855 ], [ -23.75, -12.208754118313855 ], [ -18.75, -11.755043435030977 ], [ -18.75, -11.755043435030977 ], [ -12.5, -12.162541687705989 ], [ -12.5, -12.162541687705989 ], [ -5.0, -14.016169284995513 ], [ -5.0, -14.016169284995513 ], [ 1.25, -17.035224598964852 ], [ 1.25, -17.035224598964852 ], [ 11.25, -24.728050290715181 ], [ 11.25, -24.728050290715181 ], [ 20.0, -31.475526773334721 ], [ 20.0, -31.475526773334721 ], [ 23.75, -32.875185777489207 ], [ 23.75, -32.875185777489207 ], [ 28.75, -33.190761916844664 ], [ 28.75, -33.190761916844664 ], [ 34.196224256292908, -31.752426558399947 ], [ 34.196224256292908, -31.752426558399947 ], [ 42.946224256292908, -29.260213006788916 ], [ 42.946224256292908, -29.260213006788916 ], [ 57.5, -25.03271362621409 ], [ 57.5, -25.03271362621409 ], [ 71.25, -21.428888759539355 ], [ 71.25, -21.428888759539355 ], [ 81.25, -20.33299762876905 ], [ 81.25, -20.33299762876905 ], [ 88.75, -20.254681849960335 ], [ 88.75, -20.254681849960335 ], [ 93.75, -21.041922062878989 ], [ 93.75, -21.041922062878989 ], [ 98.75, -22.813502460619048 ], [ 98.75, -22.813502460619048 ], [ 105.0, -26.49730529370099 ], [ 105.0, -26.49730529370099 ], [ 111.25, -30.309394569393902 ], [ 111.25, -30.309394569393902 ], [ 117.5, -32.708059361149864 ], [ 117.5, -32.708059361149864 ], [ 126.296670381721924, -34.745975529411439 ], [ 126.296670381721924, -34.745975529411439 ], [ 132.970642329442683, -36.949658203000013 ], [ 132.970642329442683, -36.949658203000013 ], [ 130.423971947720759, -39.035954443260245 ], [ 130.423971947720759, -39.035954443260245 ], [ 105.656225604996081, -41.535954443260245 ], [ 85.062451209992162, -43.199658203000013 ] ] } },
{ "type": "Feature", "properties": { "fid": 45, "ID": 44, "ELEV": 101100.0 }, "geometry": { "type": "LineString", "coordinates": [ [ 180.0, -46.409907481219847 ], [ 171.875, -46.087810892018979 ], [ 155.0, -44.894846200467228 ], [ 155.0, -44.894846200467228 ], [ 133.75, -43.739165806280376 ], [ 133.75, -43.739165806280376 ], [ 113.75, -43.618220224147798 ], [ 113.75, -43.618220224147798 ], [ 92.5, -44.6367147070562 ], [ 92.5, -44.6367147070562 ], [ 71.25, -45.569645501418194 ], [ 71.25, -45.569645501418194 ], [ 46.25, -44.439744941407859 ], [ 46.25, -44.439744941407859 ], [ 11.25, -43.551154255341856 ], [ 11.25, -43.551154255341856 ], [ -18.75, -43.64136646386423 ], [ -18.75, -43.64136646386423 ], [ -37.5, -43.051851371180803 ], [ -37.5, -43.051851371180803 ], [ -51.25, -41.91096909002146 ], [ -51.25, -41.91096909002146 ], [ -61.25, -41.479528030326236 ], [ -61.25, -41.479528030326236 ], [ -70.0, -43.693910370496795 ], [ -70.0, -43.693910370496795 ], [ -80.0, -45.987041640990597 ], [ -80.0, -45.987041640990597 ], [ -112.5, -47.044689338838054 ], [ -112.5, -47.044689338838054 ], [ -160.625, -47.287411025624081 ], [ -180.0, -46.900560760245526 ] ] } },
{ "type": "Feature", "properties": { "fid": 46, "ID": 45, "ELEV": 100800.0 }, "geometry": { "type": "LineString", "coordinates": [ [ 180.0, -49.380816675803345 ], [ 171.875, -49.034111988182772 ], [ 151.25, -47.55980322493852 ], [ 151.25, -47.55980322493852 ], [ 128.75, -45.998369289943398 ], [ 128.75, -45.998369289943398 ], [ 92.5, -46.517470157538099 ], [ 92.5, -46.517470157538099 ], [ 46.25, -46.509879549874327 ], [ 46.25, -46.509879549874327 ], [ 2.5, -45.716281178443467 ], [ 2.5, -45.716281178443467 ], [ -38.75, -45.644768593810099 ], [ -38.75, -45.644768593810099 ], [ -60.0, -45.69188451337773 ], [ -60.0, -45.69188451337773 ], [ -70.0, -46.914215358630869 ], [ -70.0, -46.914215358630869 ], [ -80.0, -48.100945471915793 ], [ -80.0, -48.100945471915793 ], [ -113.75, -49.188329399801063 ], [ -113.75, -49.188329399801063 ], [ -161.875, -49.861701038111747 ], [ -180.0, -49.697639483968999 ] ] } },
{ "type": "Feature", "properties": { "fid": 47, "ID": 46, "ELEV": 100500.0 }, "geometry": { "type": "LineString", "coordinates": [ [ 180.0, -51.695669131961751 ], [ 171.875, -51.353546961698925 ], [ 150.0, -49.681617697119094 ], [ 150.0, -49.681617697119094 ], [ 127.5, -47.852208237169421 ], [ 127.5, -47.852208237169421 ], [ 112.5, -47.383269242522374 ], [ 112.5, -47.383269242522374 ], [ 86.25, -48.269812893573857 ], [ 86.25, -48.269812893573857 ], [ 60.0, -49.013726909591639 ], [ 60.0, -49.013726909591639 ], [ 41.25, -48.223994694725064 ], [ 41.25, -48.223994694725064 ], [ 20.0, -47.426966843642845 ], [ 20.0, -47.426966843642845 ], [ -22.5, -47.799865089226927 ], [ -22.5, -47.799865089226927 ], [ -67.5, -49.102161943756485 ], [ -67.5, -49.102161943756485 ], [ -91.25, -50.11807784312974 ], [ -91.25, -50.11807784312974 ], [ -123.75, -51.248267722179065 ], [ -123.75, -51.248267722179065 ], [ -161.875, -52.090306198764381 ], [ -180.0, -52.007933986991873 ] ] } },
{ "type": "Feature", "properties": { "fid": 48, "ID": 47, "ELEV": 100200.0 }, "geometry": { "type": "LineString", "coordinates": [ [ 180.0, -53.74783882995294 ], [ 171.875, -53.403741049013277 ], [ 148.75, -51.501572626786256 ], [ 148.75, -51.501572626786256 ], [ 126.25, -49.495237029670406 ], [ 126.25, -49.495237029670406 ], [ 112.5, -49.048594016609627 ], [ 112.5, -49.048594016609627 ], [ 85.0, -49.878877494063119 ], [ 85.0, -49.878877494063119 ], [ 36.25, -49.8451807023919 ], [ 36.25, -49.8451807023919 ], [ -33.75, -50.275179263657833 ], [ -33.75, -50.275179263657833 ], [ -88.75, -51.726911323697834 ], [ -88.75, -51.726911323697834 ], [ -123.75, -53.104078774869421 ], [ -123.75, -53.104078774869421 ], [ -163.125, -54.218102278323585 ], [ -180.0, -54.114333503023232 ] ] } },
{ "type": "Feature", "properties": { "fid": 49, "ID": 48, "ELEV": 99900.0 }, "geometry": { "type": "LineString", "coordinates": [ [ 180.0, -55.683127611325773 ], [ 171.875, -55.342217813492212 ], [ 148.75, -53.347601070590429 ], [ 148.75, -53.347601070590429 ], [ 126.25, -51.184668651241822 ], [ 126.25, -51.184668651241822 ], [ 112.5, -50.65844044814817 ], [ 112.5, -50.65844044814817 ], [ 83.75, -51.454912138126232 ], [ 83.75, -51.454912138126232 ], [ 35.0, -51.438929440636215 ], [ 35.0, -51.438929440636215 ], [ -20.0, -51.748479188331714 ], [ -20.0, -51.748479188331714 ], [ -73.75, -53.166084756888921 ], [ -73.75, -53.166084756888921 ], [ -122.5, -54.930125251726096 ], [ -122.5, -54.930125251726096 ], [ -163.125, -56.275551953035404 ], [ -180.0, -56.135536864087896 ] ] } },
{ "type": "Feature", "properties": { "fid": 50, "ID": 49, "ELEV": 99600.0 }, "geometry": { "type": "LineString", "coordinates": [ [ 180.0, -57.61864850522386 ], [ 170.625, -57.185594714249689 ], [ 146.439433212372563, -54.976099563137765 ], [ 146.439433212372563, -54.976099563137765 ], [ 125.189433212372563, -52.756384297003251 ], [ 125.189433212372563, -52.756384297003251 ], [ 112.5, -52.288532832285028 ], [ 112.5, -52.288532832285028 ], [ 82.5, -53.087071093546143 ], [ 82.5, -53.087071093546143 ], [ 33.75, -53.111088098804899 ], [ 33.75, -53.111088098804899 ], [ 0.0, -52.575581100966588 ], [ 0.0, -52.575581100966588 ], [ -28.75, -54.065751821721435 ], [ -28.75, -54.065751821721435 ], [ -73.75, -55.237615714001166 ], [ -73.75, -55.237615714001166 ], [ -122.5, -56.876710153580092 ], [ -122.5, -56.876710153580092 ], [ -163.125, -58.357212334836674 ], [ -180.0, -58.143905064924724 ] ] } },
{ "type": "Feature", "properties": { "fid": 51, "ID": 50, "ELEV": 99300.0 }, "geometry": { "type": "LineString", "coordinates": [ [ 180.0, -59.664701707808433 ], [ 171.875, -59.349965035004374 ], [ 146.25, -56.884175003849208 ], [ 146.25, -56.884175003849208 ], [ 120.0, -54.316096836551125 ], [ 120.0, -54.316096836551125 ], [ 83.75, -54.782351578143974 ], [ 83.75, -54.782351578143974 ], [ 31.25, -54.91630364667563 ], [ 31.25, -54.91630364667563 ], [ 0.0, -54.46309049874101 ], [ 0.0, -54.46309049874101 ], [ -20.0, -56.021736847101437 ], [ -20.0, -56.021736847101437 ], [ -40.0, -57.634512400583219 ], [ -40.0, -57.634512400583219 ], [ -68.75, -57.425393279718079 ], [ -68.75, -57.425393279718079 ], [ -97.5, -57.162090386554539 ], [ -97.5, -57.162090386554539 ], [ -116.25, -58.677439489708377 ], [ -116.25, -58.677439489708377 ], [ -136.25, -60.351664224261171 ], [ -136.25, -60.351664224261171 ], [ -161.875, -60.53222611662413 ], [ -180.0, -60.257852610691629 ] ] } },
{ "type": "Feature", "properties": { "fid": 52, "ID": 51, "ELEV": 99000.0 }, "geometry": { "type": "LineString", "coordinates": [ [ 180.0, -61.957399244121461 ], [ 170.625, -61.581821884995719 ], [ 143.75, -58.851633999165529 ], [ 143.75, -58.851633999165529 ], [ 118.75, -56.115544233854223 ], [ 118.75, -56.115544233854223 ], [ 82.5, -56.819135130408327 ], [ 82.5, -56.819135130408327 ], [ 36.25, -57.14879250201399 ], [ 36.25, -57.14879250201399 ], [ 12.5, -56.339944631772582 ], [ 12.5, -56.339944631772582 ], [ -1.25, -56.938148203105598 ], [ -1.25, -56.938148203105598 ], [ -20.0, -59.371741846543514 ], [ -20.0, -59.371741846543514 ], [ -36.25, -61.477412472828803 ], [ -36.25, -61.477412472828803 ], [ -46.25, -61.71815686516257 ], [ -46.25, -61.71815686516257 ], [ -62.5, -60.507901190928365 ], [ -62.5, -60.507901190928365 ], [ -80.0, -59.173354771740037 ], [ -80.0, -59.173354771740037 ], [ -93.75, -59.323103787328776 ], [ -93.75, -59.323103787328776 ], [ -112.5, -60.977244825686469 ], [ -112.5, -60.977244825686469 ], [ -132.5, -62.877015072904982 ], [ -132.5, -62.877015072904982 ], [ -147.5, -63.51822818549212 ], [ -147.5, -63.51822818549212 ], [ -166.875, -63.080792705253529 ], [ -180.0, -62.604784350364213 ] ] } },
{ "type": "Feature", "properties": { "fid": 53, "ID": 52, "ELEV": 98700.0 }, "geometry": { "type": "LineString", "coordinates": [ [ 18.75, -68.275469204410456 ], [ 22.5, -67.960193362586722 ], [ 32.572897682895089, -66.6722878618815 ], [ 32.572897682895089, -66.6722878618815 ], [ 41.322897682895089, -64.878461936031698 ], [ 41.322897682895089, -64.878461936031698 ], [ 46.25, -63.755177678689478 ], [ 46.25, -63.755177678689478 ], [ 53.75, -63.648580714317973 ], [ 53.75, -63.648580714317973 ], [ 65.0, -64.773332019508516 ], [ 65.0, -64.773332019508516 ], [ 81.25, -65.572059777194028 ], [ 81.25, -65.572059777194028 ], [ 101.25, -65.758914088197756 ], [ 101.25, -65.758914088197756 ], [ 116.791679923639833, -65.887979561852063 ], [ 116.791679923639833, -65.887979561852063 ], [ 133.247681958227815, -64.449658203000013 ], [ 133.247681958227815, -64.449658203000013 ], [ 141.456002034587982, -62.627882650308436 ], [ 141.456002034587982, -62.627882650308436 ], [ 137.245255309534571, -61.377882650308436 ], [ 137.245255309534571, -61.377882650308436 ], [ 129.745255309534571, -59.768933718600223 ], [ 129.745255309534571, -59.768933718600223 ], [ 120.0, -58.503040364240022 ], [ 120.0, -58.503040364240022 ], [ 111.23043964232491, -58.183764848639811 ], [ 111.23043964232491, -58.183764848639811 ], [ 85.995154094539373, -59.449658203000013 ], [ 85.995154094539373, -59.449658203000013 ], [ 61.014714452214463, -61.564725440163826 ], [ 61.014714452214463, -61.564725440163826 ], [ 53.75, -62.635842096433322 ], [ 53.75, -62.635842096433322 ], [ 48.75, -62.694357239410664 ], [ 48.75, -62.694357239410664 ], [ 42.045678768745063, -61.623240583141168 ], [ 42.045678768745063, -61.623240583141168 ], [ 33.295678768745063, -60.239738252939418 ], [ 33.295678768745063, -60.239738252939418 ], [ 20.0, -59.359623126984786 ], [ 20.0, -59.359623126984786 ], [ 7.5, -59.173110723864639 ], [ 7.5, -59.173110723864639 ], [ -0.352844638949676, -60.05322584981927 ], [ -0.352844638949676, -60.05322584981927 ], [ -7.554691745505295, -61.949658203000013 ], [ -7.554691745505295, -61.949658203000013 ], [ -11.213258996152206, -64.449658203000013 ], [ -11.213258996152206, -64.449658203000013 ], [ -9.011411889596587, -66.602176859716423 ], [ -9.011411889596587, -66.602176859716423 ], [ -3.75, -67.850669497441729 ], [ -3.75, -67.850669497441729 ], [ 8.75, -68.23605634143054 ], [ 18.75, -68.275469204410456 ] ] } },
{ "type": "Feature", "properties": { "fid": 54, "ID": 53, "ELEV": 98700.0 }, "geometry": { "type": "LineString", "coordinates": [ [ 180.0, -64.975225335195375 ], [ 170.625, -65.048489119175812 ], [ 157.841109154929569, -65.410705553078131 ], [ 157.841109154929569, -65.410705553078131 ], [ 156.591109154929569, -66.084451095581073 ], [ 156.591109154929569, -66.084451095581073 ], [ 160.233918128654977, -67.334451095581073 ], [ 160.233918128654977, -67.334451095581073 ], [ 166.839407546644395, -69.449658203000013 ], [ 166.839407546644395, -69.449658203000013 ], [ 175.980489417989418, -71.214462806212666 ], [ 180.0, -71.729267409425319 ] ] } },
{ "type": "Feature", "properties": { "fid": 55, "ID": 54, "ELEV": 98700.0 }, "geometry": { "type": "LineString", "coordinates": [ [ -180.0, -75.564164986493495 ], [ -169.375, -76.548515587636132 ], [ -152.5, -77.587599246941622 ], [ -152.5, -77.587599246941622 ], [ -142.5, -77.28227331120911 ], [ -142.5, -77.28227331120911 ], [ -128.75, -75.354295653892791 ], [ -128.75, -75.354295653892791 ], [ -97.5, -72.659186039678474 ], [ -97.5, -72.659186039678474 ], [ -73.094328238133542, -71.115826645942562 ], [ -73.094328238133542, -71.115826645942562 ], [ -66.530286492402993, -69.449658203000013 ], [ -66.530286492402993, -69.449658203000013 ], [ -63.78060703745529, -66.949658203000013 ], [ -63.78060703745529, -66.949658203000013 ], [ -68.002348226599565, -64.449658203000013 ], [ -68.002348226599565, -64.449658203000013 ], [ -77.657699443413719, -62.58409484558463 ], [ -77.657699443413719, -62.58409484558463 ], [ -91.25, -62.371229618421367 ], [ -91.25, -62.371229618421367 ], [ -110.0, -64.577247171371766 ], [ -110.0, -64.577247171371766 ], [ -127.5, -66.863510204539651 ], [ -127.5, -66.863510204539651 ], [ -142.5, -67.30914397415944 ], [ -142.5, -67.30914397415944 ], [ -165.625, -66.407145105014678 ], [ -180.0, -65.542456076719731 ] ] } },
{ "type": "Feature", "properties": { "fid": 56, "ID": 55, "ELEV": 99000.0 }, "geometry": { "type": "LineString", "coordinates": [ [ -180.0, -81.220254187050131 ], [ -168.125, -81.555327375479365 ], [ -148.75, -81.730967757882325 ], [ -148.75, -81.730967757882325 ], [ -136.553968477343091, -81.135596577428032 ], [ -136.553968477343091, -81.135596577428032 ], [ -122.803968477343091, -78.989335562194341 ], [ -122.803968477343091, -78.989335562194341 ], [ -101.25, -76.568200339812705 ], [ -101.25, -76.568200339812705 ], [ -82.5, -75.8788128627953 ], [ -82.5, -75.8788128627953 ], [ -65.0, -76.880653288456159 ], [ -65.0, -76.880653288456159 ], [ -50.0, -77.833752679066336 ], [ -50.0, -77.833752679066336 ], [ -41.25, -77.17906490767237 ], [ -41.25, -77.17906490767237 ], [ -27.5, -74.697284308611955 ], [ -27.5, -74.697284308611955 ], [ -15.0, -72.30040021680972 ], [ -15.0, -72.30040021680972 ], [ 7.5, -70.71342083783891 ], [ 7.5, -70.71342083783891 ], [ 40.0, -68.454498469251519 ], [ 40.0, -68.454498469251519 ], [ 63.75, -67.892803250633051 ], [ 63.75, -67.892803250633051 ], [ 82.5, -68.032910170318502 ], [ 82.5, -68.032910170318502 ], [ 101.25, -67.764306026359236 ], [ 101.25, -67.764306026359236 ], [ 121.25, -67.499204232748085 ], [ 121.25, -67.499204232748085 ], [ 135.0, -67.042020760399978 ], [ 135.0, -67.042020760399978 ], [ 146.25, -68.264922996697081 ], [ 146.25, -68.264922996697081 ], [ 165.0, -72.957111704628446 ], [ 165.0, -72.957111704628446 ], [ 178.125, -76.830764497221708 ], [ 180.0, -77.183200455920598 ] ] } },
{ "type": "Feature", "properties": { "fid": 57, "ID": 56, "ELEV": 99300.0 }, "geometry": { "type": "LineString", "coordinates": [ [ -180.0, -84.14199056451605 ], [ -165.625, -84.288453012095431 ], [ -142.5, -84.206468729062465 ], [ -142.5, -84.206468729062465 ], [ -128.353586247777116, -83.588840100725065 ], [ -128.353586247777116, -83.588840100725065 ], [ -113.353586247777116, -81.739029671926559 ], [ -113.353586247777116, -81.739029671926559 ], [ -98.75, -79.9983152485717 ], [ -98.75, -79.9983152485717 ], [ -88.75, -79.860862587130086 ], [ -88.75, -79.860862587130086 ], [ -72.5, -81.024767634072063 ], [ -72.5, -81.024767634072063 ], [ -53.75, -82.075649493337664 ], [ -53.75, -82.075649493337664 ], [ -38.763823064770932, -81.402458869750546 ], [ -38.763823064770932, -81.402458869750546 ], [ -21.263823064770932, -77.72261627640782 ], [ -21.263823064770932, -77.72261627640782 ], [ -7.5, -74.046899827945197 ], [ -7.5, -74.046899827945197 ], [ 1.25, -72.79973850986967 ], [ 1.25, -72.79973850986967 ], [ 17.5, -71.650210107310244 ], [ 17.5, -71.650210107310244 ], [ 40.0, -70.105783367353027 ], [ 40.0, -70.105783367353027 ], [ 62.5, -69.866876956452231 ], [ 62.5, -69.866876956452231 ], [ 82.5, -69.842535091880848 ], [ 82.5, -69.842535091880848 ], [ 101.25, -69.251152868347049 ], [ 101.25, -69.251152868347049 ], [ 121.25, -68.996020620357427 ], [ 121.25, -68.996020620357427 ], [ 137.5, -69.012704733429146 ], [ 137.5, -69.012704733429146 ], [ 148.75, -70.585656760345714 ], [ 148.75, -70.585656760345714 ], [ 155.928173678846974, -72.474506132730639 ], [ 155.928173678846974, -72.474506132730639 ], [ 160.113477877647313, -74.449658203000013 ], [ 160.113477877647313, -74.449658203000013 ], [ 162.935304198800338, -78.22981693315873 ], [ 162.935304198800338, -78.22981693315873 ], [ 167.5, -81.76558896226139 ], [ 167.5, -81.76558896226139 ], [ 175.625, -83.074353587408353 ], [ 180.0, -83.377504913611375 ] ] } },
{ "type": "Feature", "properties": { "fid": 58, "ID": 57, "ELEV": 99600.0 }, "geometry": { "type": "LineString", "coordinates": [ [ -180.0, -86.517135398142415 ], [ -159.375, -86.549916655157332 ], [ -116.25, -85.333525523977031 ], [ -116.25, -85.333525523977031 ], [ -76.25, -84.417900611952518 ], [ -76.25, -84.417900611952518 ], [ -50.0, -84.563358107577656 ], [ -50.0, -84.563358107577656 ], [ -36.25, -83.988830573078104 ], [ -36.25, -83.988830573078104 ], [ -27.5, -83.019338607704015 ], [ -27.5, -83.019338607704015 ], [ -20.511123470522804, -81.56797119964196 ], [ -20.511123470522804, -81.56797119964196 ], [ -11.189003064103659, -78.199658203000013 ], [ -11.189003064103659, -78.199658203000013 ], [ -1.927879593580855, -75.094672137774182 ], [ -1.927879593580855, -75.094672137774182 ], [ 6.25, -73.928508122397744 ], [ 6.25, -73.928508122397744 ], [ 30.0, -72.079089631683559 ], [ 30.0, -72.079089631683559 ], [ 52.5, -70.845695370259563 ], [ 52.5, -70.845695370259563 ], [ 63.75, -71.750122426521017 ], [ 63.75, -71.750122426521017 ], [ 73.75, -72.49497611911039 ], [ 73.75, -72.49497611911039 ], [ 83.75, -71.457221110193842 ], [ 83.75, -71.457221110193842 ], [ 101.25, -70.61676711362125 ], [ 101.25, -70.61676711362125 ], [ 121.25, -70.299301459855826 ], [ 121.25, -70.299301459855826 ], [ 136.25, -70.24341242756627 ], [ 136.25, -70.24341242756627 ], [ 146.354905042129189, -71.898610589926804 ], [ 146.354905042129189, -71.898610589926804 ], [ 153.208596756434559, -74.449658203000013 ], [ 153.208596756434559, -74.449658203000013 ], [ 154.794013260292047, -76.949658203000013 ], [ 154.794013260292047, -76.949658203000013 ], [ 153.677767224402913, -79.449658203000013 ], [ 153.677767224402913, -79.449658203000013 ], [ 153.373988854662485, -81.949658203000013 ], [ 153.373988854662485, -81.949658203000013 ], [ 158.886543176246249, -84.098863204317695 ], [ 158.886543176246249, -84.098863204317695 ], [ 171.875, -85.439888353381988 ], [ 180.0, -85.8817085011286 ] ] } },
{ "type": "Feature", "properties": { "fid": 59, "ID": 58, "ELEV": 99900.0 }, "geometry": { "type": "LineString", "coordinates": [ [ -106.310358255451703, -89.449658203000013 ], [ -106.310358255451703, -88.824658203000013 ], [ -97.530179127725859, -87.893056323632905 ], [ -97.530179127725859, -87.893056323632905 ], [ -68.75, -87.425207374665334 ], [ -68.75, -87.425207374665334 ], [ -42.5, -86.913760740263683 ], [ -42.5, -86.913760740263683 ], [ -30.0, -85.879451160309685 ], [ -30.0, -85.879451160309685 ], [ -18.535964353914693, -84.197499674078443 ], [ -18.535964353914693, -84.197499674078443 ], [ -11.035964353914693, -82.239578627403205 ], [ -11.035964353914693, -82.239578627403205 ], [ -6.253399048266488, -79.739578627403205 ], [ -6.253399048266488, -79.739578627403205 ], [ -0.003399048266488, -77.044436611439409 ], [ -0.003399048266488, -77.044436611439409 ], [ 10.0, -75.167810549329474 ], [ 10.0, -75.167810549329474 ], [ 32.5, -73.387562609940446 ], [ 32.5, -73.387562609940446 ], [ 52.5, -72.534487817349529 ], [ 52.5, -72.534487817349529 ], [ 61.25, -73.671556418735733 ], [ 61.25, -73.671556418735733 ], [ 68.75, -74.768326432410419 ], [ 68.75, -74.768326432410419 ], [ 73.75, -74.766455793666879 ], [ 73.75, -74.766455793666879 ], [ 81.25, -73.671103154311439 ], [ 81.25, -73.671103154311439 ], [ 90.0, -72.376964757960181 ], [ 90.0, -72.376964757960181 ], [ 102.5, -72.106718163212292 ], [ 102.5, -72.106718163212292 ], [ 121.25, -71.743090225029448 ], [ 121.25, -71.743090225029448 ], [ 135.0, -71.594992341248712 ], [ 135.0, -71.594992341248712 ], [ 141.25, -72.40585363215547 ], [ 141.25, -72.40585363215547 ], [ 144.313321167883231, -73.0524815910657 ], [ 144.313321167883231, -73.0524815910657 ], [ 146.655548220684551, -74.449658203000013 ], [ 146.655548220684551, -74.449658203000013 ], [ 147.780235905856387, -76.949658203000013 ], [ 147.780235905856387, -76.949658203000013 ], [ 145.396300685724384, -79.449658203000013 ], [ 145.396300685724384, -79.449658203000013 ], [ 143.066064221170421, -81.949658203000013 ], [ 143.066064221170421, -81.949658203000013 ], [ 143.107772388501104, -83.550126246899296 ], [ 143.107772388501104, -83.550126246899296 ], [ 147.5, -85.121750334490528 ], [ 147.5, -85.121750334490528 ], [ 158.669371196754554, -87.271282290591245 ], [ 158.669371196754554, -87.271282290591245 ], [ 166.088742393509108, -88.824658203000013 ], [ 166.088742393509108, -89.449658203000013 ] ] } },
{ "type": "Feature", "properties": { "fid": 60, "ID": 59, "ELEV": 100200.0 }, "geometry": { "type": "LineString", "coordinates": [ [ -18.202411994784882, -89.449658203000013 ], [ -18.202411994784882, -88.824658203000013 ], [ -14.726205997392441, -87.503141586492347 ], [ -14.726205997392441, -87.503141586492347 ], [ -6.25, -85.071424552539298 ], [ -6.25, -85.071424552539298 ], [ 2.102946062686897, -80.767941169046964 ], [ 2.102946062686897, -80.767941169046964 ], [ 12.094612729353557, -76.949658203000013 ], [ 12.094612729353557, -76.949658203000013 ], [ 29.99166666666666, -74.988218387822641 ], [ 29.99166666666666, -74.988218387822641 ], [ 45.0, -74.264080456788164 ], [ 45.0, -74.264080456788164 ], [ 51.25, -74.557822792484771 ], [ 51.25, -74.557822792484771 ], [ 58.75, -76.037452373439564 ], [ 58.75, -76.037452373439564 ], [ 67.5, -77.457573570401493 ], [ 67.5, -77.457573570401493 ], [ 75.0, -77.389478822152256 ], [ 75.0, -77.389478822152256 ], [ 86.25, -75.629955731676034 ], [ 86.25, -75.629955731676034 ], [ 101.25, -74.283835653298965 ], [ 101.25, -74.283835653298965 ], [ 118.75, -73.605685190817866 ], [ 118.75, -73.605685190817866 ], [ 132.258173809927143, -73.014408367523856 ], [ 132.258173809927143, -73.014408367523856 ], [ 138.439698793079145, -74.449658203000013 ], [ 138.439698793079145, -74.449658203000013 ], [ 139.769712685417375, -76.949658203000013 ], [ 139.769712685417375, -76.949658203000013 ], [ 135.294763384647496, -79.449658203000013 ], [ 135.294763384647496, -79.449658203000013 ], [ 130.584253147420185, -81.949658203000013 ], [ 130.584253147420185, -81.949658203000013 ], [ 130.195886539593346, -84.449658203000013 ], [ 130.195886539593346, -84.449658203000013 ], [ 134.050594473536592, -86.949658203000013 ], [ 134.050594473536592, -86.949658203000013 ], [ 136.714770797962615, -88.824658203000013 ], [ 136.714770797962615, -89.449658203000013 ] ] } },
{ "type": "Feature", "properties": { "fid": 61, "ID": 60, "ELEV": 100500.0 }, "geometry": { "type": "LineString", "coordinates": [ [ 16.440232056125154, -89.449658203000013 ], [ 16.440232056125154, -88.824658203000013 ], [ 15.793532779850111, -86.949658203000013 ], [ 15.793532779850111, -86.949658203000013 ], [ 16.083934195352469, -84.449658203000013 ], [ 16.083934195352469, -84.449658203000013 ], [ 17.464013485781294, -81.949658203000013 ], [ 17.464013485781294, -81.949658203000013 ], [ 19.985621682469457, -79.449658203000013 ], [ 19.985621682469457, -79.449658203000013 ], [ 31.657125640253099, -77.524024122724214 ], [ 31.657125640253099, -77.524024122724214 ], [ 43.75, -77.093420269989224 ], [ 43.75, -77.093420269989224 ], [ 51.25, -78.677177042681961 ], [ 51.25, -78.677177042681961 ], [ 60.0, -80.562652374061642 ], [ 60.0, -80.562652374061642 ], [ 77.5, -81.578845568998588 ], [ 77.5, -81.578845568998588 ], [ 93.977627471383983, -82.623974090353897 ], [ 93.977627471383983, -82.623974090353897 ], [ 97.845525198656702, -84.449658203000013 ], [ 97.845525198656702, -84.449658203000013 ], [ 95.364727437417656, -86.949658203000013 ], [ 95.364727437417656, -86.949658203000013 ], [ 91.743659420289873, -88.824658203000013 ], [ 91.743659420289873, -89.449658203000013 ] ] } }
]
}
