{
"type": "FeatureCollection",
"name": "pressure7_contour",
"crs": { "type": "name", "properties": { "name": "urn:ogc:def:crs:OGC:1.3:CRS84" } },
"features": [
{ "type": "Feature", "properties": { "fid": 1, "ID": 0, "pressure": 1011.0 }, "geometry": { "type": "LineString", "coordinates": [ [ 23.75, 64.678658536585374 ], [ 24.173361182519272, 64.839329268292687 ], [ 23.185265944424032, 66.25 ], [ 21.511904761904759, 67.548557975279579 ], [ 19.430917327293301, 67.548557975279579 ], [ 15.828084361877558, 66.25 ], [ 15.147167034584257, 64.218179447052677 ], [ 17.5, 63.513555351425126 ], [ 21.25, 64.134705172665136 ], [ 23.75, 64.678658536585374 ] ] } },
{ "type": "Feature", "properties": { "fid": 2, "ID": 1, "pressure": 1011.0 }, "geometry": { "type": "LineString", "coordinates": [ [ -180.0, 64.703994293865904 ], [ -178.85934393638172, 64.851997146932945 ], [ -176.226396297298038, 66.25 ], [ -175.952716696580637, 68.75 ], [ -177.960664335664319, 70.50278396436525 ], [ -179.375, 71.005567928730514 ], [ -180.0, 71.005567928730514 ] ] } },
{ "type": "Feature", "properties": { "fid": 3, "ID": 2, "pressure": 1011.0 }, "geometry": { "type": "LineString", "coordinates": [ [ 360.0, 66.226015171798309 ], [ 359.375, 66.226015171798309 ], [ 355.0, 66.959214673385304 ], [ 348.75, 67.6833163010931 ], [ 340.0, 66.656136880129836 ], [ 326.25, 63.973823448243678 ], [ 317.5, 62.269666954237593 ], [ 315.0, 62.763795903699602 ], [ 313.08218022274724, 64.148924731182802 ], [ 312.649072368557086, 66.25 ], [ 310.854486130772216, 68.75 ], [ 307.537593984962427, 70.476640011846584 ], [ 302.390013495276662, 72.976640011846584 ], [ 296.958828826287117, 76.25 ], [ 296.085164399871417, 78.75 ], [ 297.766349068861018, 80.572535921351147 ], [ 300.0, 81.547140778714294 ], [ 303.75, 82.291764770992003 ], [ 310.0, 82.745854268837661 ], [ 320.0, 82.72057065904977 ], [ 333.75, 82.640474646821332 ], [ 350.625, 82.401387923619566 ], [ 360.0, 82.105579161278399 ] ] } },
{ "type": "Feature", "properties": { "fid": 4, "ID": 3, "pressure": 1023.0 }, "geometry": { "type": "LineString", "coordinates": [ [ -138.558907703315043, 32.5 ], [ -139.904453851657536, 31.959631728045327 ], [ -143.75, 30.947433105772078 ], [ -150.0, 30.48147330409099 ], [ -157.5, 30.973284419134629 ], [ -163.556201550387584, 31.979612492770389 ], [ -167.890569996911211, 33.75 ], [ -169.732642263890853, 36.25 ], [ -168.050470664829078, 38.75 ], [ -163.73365306573595, 41.25 ], [ -155.452423960209615, 43.75 ], [ -148.120967741935488, 45.186886018032567 ], [ -143.75, 45.316887574937439 ], [ -140.0, 44.967956922838574 ], [ -137.5, 43.90699672501956 ], [ -135.974189177375649, 42.819041359085858 ], [ -135.33643770229213, 41.25 ], [ -135.013932952554853, 38.75 ], [ -135.466634466070332, 36.25 ], [ -137.219403890089495, 33.75 ], [ -138.558907703315043, 32.5 ] ] } },
{ "type": "Feature", "properties": { "fid": 5, "ID": 4, "pressure": 1023.0 }, "geometry": { "type": "LineString", "coordinates": [ [ 222.722137510396465, 32.5 ], [ 220.736068755198232, 31.77451670133366 ], [ 217.5, 30.820442519090665 ], [ 213.75, 30.449652869294276 ], [ 208.75, 30.446064656970503 ], [ 203.75, 30.908687577072481 ], [ 198.310528756957325, 31.866349971639249 ], [ 193.343616992251413, 33.75 ], [ 191.504687487730337, 36.25 ], [ 193.189428014292218, 38.75 ], [ 197.500447137987777, 41.25 ], [ 205.68552771307364, 43.75 ], [ 214.902909336941832, 45.202675916749257 ], [ 220.198391276182264, 45.202675916749257 ], [ 222.698391276182264, 44.564556509298995 ], [ 224.70612930310665, 43.314556509298995 ], [ 225.95612930310665, 41.711711711711715 ], [ 226.309236048940591, 39.211711711711715 ], [ 225.898502691874029, 36.25 ], [ 224.075335398131671, 33.75 ], [ 222.722137510396465, 32.5 ] ] } },
{ "type": "Feature", "properties": { "fid": 7, "ID": 6, "pressure": 999.0 }, "geometry": { "type": "LineString", "coordinates": [ [ 71.25, 26.373785703929244 ], [ 72.009304899491525, 26.462065097628191 ], [ 72.332427536231876, 26.936892851964622 ], [ 71.98059894566407, 27.825597904432566 ], [ 71.082427536231876, 28.513856873428331 ], [ 67.5, 29.328245920186276 ], [ 66.196349249430796, 29.289601549633058 ] ] } },
{ "type": "Feature", "properties": { "fid": 8, "ID": 7, "pressure": 1020.0 }, "geometry": { "type": "LineString", "coordinates": [ [ -180.0, 40.750090046824347 ], [ -179.375, 40.750090046824347 ], [ -177.5, 41.085653260960072 ], [ -171.403572788424924, 43.210608237547895 ], [ -162.653572788424924, 46.095757841807007 ], [ -155.0, 47.942400742523795 ], [ -147.5, 49.191134038271919 ], [ -141.25, 49.763047566742969 ], [ -136.25, 49.439942904672378 ], [ -132.264157555368655, 48.271386475484533 ], [ -130.011626130787647, 46.25 ], [ -129.766183504197443, 38.75 ], [ -131.009608270851686, 31.25 ], [ -132.740893342073235, 29.233716134537438 ], [ -135.0, 27.880754216342797 ], [ -138.75, 26.702734669945084 ], [ -145.0, 25.927397299638464 ], [ -155.0, 26.162791075721877 ], [ -170.625, 27.650627603038675 ], [ -180.0, 28.719074477631075 ] ] } },
{ "type": "Feature", "properties": { "fid": 9, "ID": 8, "pressure": 1020.0 }, "geometry": { "type": "LineString", "coordinates": [ [ 225.594569288389494, 27.5 ], [ 223.422284644194747, 26.898758828417115 ], [ 217.5, 26.002587269594954 ], [ 207.5, 26.088724487763528 ], [ 196.25, 27.043789272122353 ], [ 185.27533740769033, 28.808893225536664 ], [ 177.585943468296392, 31.25 ], [ 176.018681396003359, 33.75 ], [ 177.479842392205711, 36.25 ], [ 180.955479688103878, 38.75 ], [ 187.183712631295464, 41.857893249163794 ], [ 195.0, 44.974823673739834 ], [ 202.5, 47.119242850521069 ], [ 211.25, 48.796302449871391 ], [ 218.75, 49.733972614296079 ], [ 223.75, 49.65243586933677 ], [ 227.5, 49.012702312324407 ], [ 229.643503245716715, 48.05024903335736 ], [ 231.2944138312738, 46.25 ], [ 231.548403556503672, 38.75 ], [ 230.302169229939409, 31.25 ], [ 227.576960903187569, 28.75 ], [ 225.594569288389494, 27.5 ] ] } },
{ "type": "Feature", "properties": { "fid": 10, "ID": 9, "pressure": 1023.0 }, "geometry": { "type": "LineString", "coordinates": [ [ -37.184295480440568, 27.5 ], [ -40.467147740220284, 27.247266061886421 ], [ -46.711653386454174, 27.247266061886421 ], [ -50.461653386454174, 27.735593523038457 ], [ -53.100189507281073, 28.985593523038457 ], [ -54.801418385929296, 31.25 ], [ -53.175737323316739, 33.75 ], [ -49.444420851675957, 36.25 ], [ -44.219912407007442, 38.733571823374078 ], [ -40.0, 40.311471928225856 ], [ -36.25, 41.14240428518832 ], [ -31.25, 41.811437665414942 ], [ -27.5, 41.90236286761921 ], [ -25.0, 41.503820572978015 ], [ -22.644121652292327, 40.598391190437205 ], [ -21.267070603978752, 38.75 ], [ -21.708126601547477, 36.25 ], [ -23.797315219262657, 33.75 ], [ -26.962137569401605, 31.3816573556797 ], [ -30.0, 29.706324263499077 ], [ -34.217147740220284, 28.324666907819378 ], [ -37.184295480440568, 27.5 ] ] } },
{ "type": "Feature", "properties": { "fid": 11, "ID": 10, "pressure": 1023.0 }, "geometry": { "type": "LineString", "coordinates": [ [ 324.261704681872743, 27.5 ], [ 321.505852340936372, 27.243833161188405 ], [ 315.0, 27.260005367300383 ], [ 310.0, 28.002957190790223 ], [ 307.49265402843605, 29.236784984678245 ], [ 306.399302625374844, 31.25 ], [ 308.048754204048976, 33.75 ], [ 311.76694596470918, 36.25 ], [ 317.041185025296045, 38.75 ], [ 321.916344667697047, 40.484422768962006 ], [ 326.25, 41.39052193526301 ], [ 331.25, 41.89638167481634 ], [ 335.0, 41.799484567717386 ], [ 337.5, 41.159469438881203 ], [ 339.253072196620565, 40.350267379679146 ], [ 340.022502248434023, 38.75 ], [ 339.609088668119966, 36.25 ], [ 337.557501997992802, 33.75 ], [ 333.717843381686293, 31.05502829521339 ], [ 327.755852340936372, 28.55502829521339 ], [ 324.261704681872743, 27.5 ] ] } },
{ "type": "Feature", "properties": { "fid": 12, "ID": 11, "pressure": 999.0 }, "geometry": { "type": "LineString", "coordinates": [ [ 66.196349249430796, 29.289601549633058 ], [ 64.491642538457697, 28.896720774685679 ], [ 61.574690683209653, 27.969127673569872 ], [ 59.881039407389473, 27.88300981208749 ], [ 57.125267839953274, 27.911715765914952 ], [ 54.340790318689592, 27.567244319985424 ], [ 51.986902104837831, 26.792183566643992 ], [ 50.339127097269454, 25.712371355060036 ], [ 49.894788438528977, 23.75 ], [ 50.805661341259523, 22.214896596936654 ], [ 52.5, 21.728351001454676 ], [ 55.0, 21.801172165008879 ], [ 56.25, 22.075435520981713 ] ] } },
{ "type": "Feature", "properties": { "fid": 13, "ID": 12, "pressure": 1017.0 }, "geometry": { "type": "LineString", "coordinates": [ [ -180.0, 45.878173828125 ], [ -179.375, 45.878173828125 ], [ -176.25, 46.387431937672275 ], [ -166.25, 48.987152522385209 ], [ -147.5, 53.251029358747722 ], [ -135.0, 55.38855984717415 ], [ -132.5, 55.059749360965171 ], [ -130.0, 54.156379894993179 ], [ -127.5, 52.683319520967927 ], [ -125.35558033799434, 50.910350999738057 ], [ -123.87921430536629, 48.75 ], [ -123.380109482835877, 46.25 ], [ -124.576214323123139, 42.5 ], [ -125.744705444669904, 38.75 ], [ -125.369094040732236, 35.0 ], [ -124.894244927071583, 31.25 ], [ -125.23475778841788, 28.75 ], [ -126.881026013611859, 26.25 ], [ -129.696385748544003, 24.256324337378494 ], [ -135.0, 22.585713860615677 ], [ -142.5, 21.374209434204403 ], [ -163.125, 22.202026030129865 ], [ -180.0, 23.314412238325289 ] ] } },
{ "type": "Feature", "properties": { "fid": 14, "ID": 13, "pressure": 1017.0 }, "geometry": { "type": "LineString", "coordinates": [ [ 226.802801942140434, 22.5 ], [ 222.776400971070217, 21.863174924665316 ], [ 215.0, 21.19530059240742 ], [ 193.75, 22.700170936451002 ], [ 173.75, 24.819266602839022 ], [ 168.955666562597571, 26.451221334130125 ], [ 165.565885947823176, 28.75 ], [ 164.373007390958151, 31.25 ], [ 164.876601834973286, 33.75 ], [ 166.595222581663478, 36.25 ], [ 169.273706868898159, 38.75 ], [ 173.069666393843704, 41.25 ], [ 177.027368277368282, 43.174321008309633 ], [ 185.0, 45.925884721043047 ], [ 196.25, 49.398535900704374 ], [ 212.5, 53.058779956466346 ], [ 225.0, 55.419234660031833 ], [ 227.5, 55.361872250663836 ], [ 230.0, 54.756021203734754 ], [ 232.736023602360234, 53.401575844607365 ], [ 235.522766706652732, 51.25 ], [ 237.38148722600755, 48.75 ], [ 237.851910719139255, 46.25 ], [ 236.642390622306493, 42.5 ], [ 235.471005580910116, 38.75 ], [ 235.872115779528258, 35.0 ], [ 236.383327218038545, 31.25 ], [ 236.05406642866339, 28.75 ], [ 234.404852290782628, 26.25 ], [ 232.197778856657351, 24.506244072083462 ], [ 229.026400971070217, 23.256244072083462 ], [ 226.802801942140434, 22.5 ] ] } },
{ "type": "Feature", "properties": { "fid": 15, "ID": 14, "pressure": 1020.0 }, "geometry": { "type": "LineString", "coordinates": [ [ -36.684782608695656, 22.5 ], [ -38.967391304347828, 22.161928228455899 ], [ -43.75, 21.71203598707659 ], [ -50.0, 21.833481220364938 ], [ -56.25, 22.485243053833244 ], [ -62.5, 24.009894873584642 ], [ -67.93437945791726, 26.308025281495645 ], [ -69.529298300542536, 28.75 ], [ -68.210042332414659, 31.25 ], [ -64.847405069016801, 33.75 ], [ -54.550909030207805, 38.75 ], [ -42.568627450980387, 43.645092318759495 ], [ -33.75, 45.45617882545713 ], [ -25.0, 46.068007492114134 ], [ -18.492356578495361, 45.506920985416492 ], [ -14.742356578495361, 44.107997529720549 ], [ -13.546903740036782, 42.857997529720549 ], [ -13.666798116982875, 40.0 ], [ -14.552989293449045, 36.25 ], [ -16.222495807071027, 33.75 ], [ -19.289400890568075, 30.949284785435633 ], [ -23.75, 27.812229078424682 ], [ -28.75, 25.093147237676675 ], [ -33.967391304347828, 23.230202944687626 ], [ -36.684782608695656, 22.5 ] ] } },
{ "type": "Feature", "properties": { "fid": 16, "ID": 15, "pressure": 1020.0 }, "geometry": { "type": "LineString", "coordinates": [ [ 324.627435650709685, 22.5 ], [ 321.688717825354843, 22.103422543762015 ], [ 316.25, 21.654243104220292 ], [ 310.0, 21.911067747823054 ], [ 303.75, 22.701177638492595 ], [ 298.226285502134772, 24.090930451127818 ], [ 294.476285502134772, 25.435641910700369 ], [ 292.679015961341292, 26.685641910700369 ], [ 291.703624729708281, 28.75 ], [ 293.027738871796487, 31.25 ], [ 296.389601248178792, 33.75 ], [ 306.136471144749294, 38.521508430668547 ], [ 317.5, 43.275150032973556 ], [ 325.0, 45.163806959742516 ], [ 332.5, 46.017870442567173 ], [ 338.75, 46.054833022466489 ], [ 343.396311697703823, 45.447127937336816 ], [ 345.896311697703823, 44.784696235967424 ], [ 347.07969287794549, 43.534696235967424 ], [ 347.592996805094003, 40.0 ], [ 346.738677789307133, 36.25 ], [ 345.094033225086889, 33.75 ], [ 341.36865936292827, 30.51119798568778 ], [ 336.25, 27.026984068162008 ], [ 331.25, 24.525822850833563 ], [ 326.688717825354843, 23.010036768359335 ], [ 324.627435650709685, 22.5 ] ] } },
{ "type": "Feature", "properties": { "fid": 17, "ID": 16, "pressure": 1005.0 }, "geometry": { "type": "LineString", "coordinates": [ [ 108.75, 19.27768557634279 ], [ 109.271855243078249, 19.638842788171395 ], [ 110.094290878550254, 22.5 ], [ 110.822435635472004, 25.180450155225941 ], [ 113.75, 27.307648647688254 ], [ 117.382009196576831, 30.877198492462313 ], [ 118.68066147260862, 33.75 ], [ 118.71944382713059, 36.25 ], [ 118.80551581195013, 38.75 ], [ 123.216971817854585, 42.5 ], [ 128.598090134298531, 46.25 ], [ 129.927143717469647, 48.75 ], [ 128.808415615103399, 51.25 ], [ 125.647114474929026, 53.280740338044879 ], [ 122.5, 54.269345580611386 ], [ 120.0, 54.466017263127995 ], [ 117.5, 54.241250045046158 ], [ 114.31360567970205, 53.26383802448467 ], [ 110.56360567970205, 50.668770664262098 ], [ 107.5, 48.014997477078296 ], [ 103.75, 46.575867944631234 ], [ 97.5, 45.751104577379685 ], [ 92.5, 45.320461218393149 ], [ 89.821349249430781, 43.929638001637869 ], [ 88.730523003987287, 43.183283202123889 ], [ 86.460415921799353, 42.193762247552357 ] ] } },
{ "type": "Feature", "properties": { "fid": 18, "ID": 17, "pressure": 1002.0 }, "geometry": { "type": "LineString", "coordinates": [ [ 53.75, 17.388415576582346 ], [ 56.25, 17.969414710789295 ], [ 62.5, 19.81309742315748 ], [ 68.75, 21.462561298490499 ], [ 73.75, 21.623671252170084 ], [ 78.75, 20.585727694136096 ], [ 82.5, 19.535347628086058 ], [ 85.293849156383772, 19.648620388288904 ], [ 88.003222737863553, 21.25 ], [ 87.677047109978787, 23.75 ], [ 85.400632360001865, 26.36159425923206 ], [ 83.907922760973918, 27.911715765914927 ], [ 80.922503562918024, 29.059953919013346 ], [ 79.774265409819606, 29.978544441492083 ], [ 76.272139042869412, 31.873137394104475 ], [ 73.631191290743061, 32.447256470653699 ], [ 66.25, 32.275298218614992 ], [ 60.0, 31.754299186881745 ], [ 55.0, 30.958982511922979 ], [ 52.5, 30.987664127304484 ], [ 48.75, 31.892716882286859 ], [ 45.0, 32.846657739658454 ], [ 43.028802880288026, 32.760103879240383 ], [ 42.30706912066006, 31.25 ], [ 42.751581461157741, 27.5 ], [ 43.599080750094544, 23.75 ], [ 44.785843480311058, 21.25 ], [ 47.160077951002222, 18.95982231486996 ], [ 50.0, 17.624808804165326 ], [ 52.5, 17.359194277586539 ], [ 53.75, 17.388415576582346 ] ] } },
{ "type": "Feature", "properties": { "fid": 19, "ID": 18, "pressure": 1014.0 }, "geometry": { "type": "LineString", "coordinates": [ [ -180.0, 51.330150068212824 ], [ -176.268741403026127, 51.915075034106408 ], [ -169.364419628421331, 53.75 ], [ -164.970678225395204, 55.639270930698359 ], [ -160.0, 57.334853474405818 ], [ -152.5, 59.838724322230945 ], [ -147.5, 61.507658810068563 ], [ -143.75, 61.712335078882354 ], [ -138.75, 61.39393806055277 ], [ -133.790899795501019, 60.5461200132155 ], [ -128.510243313254932, 58.75 ], [ -122.113751744730308, 55.0 ], [ -117.579095011752187, 51.25 ], [ -116.028890075531365, 48.75 ], [ -115.175141683896243, 46.25 ], [ -116.830938393140684, 43.39124428859845 ], [ -119.538892024078251, 40.89124428859845 ], [ -120.574272064312652, 38.75 ], [ -119.668218256165943, 32.5 ], [ -118.537193490017899, 26.25 ], [ -119.327126985615081, 23.75 ], [ -122.258700722756515, 21.25 ], [ -126.585929011227819, 19.300312083383837 ], [ -132.5, 17.827960125821711 ], [ -141.25, 16.554970741295385 ], [ -151.25, 16.081196955905334 ], [ -163.75, 16.830306288965758 ], [ -175.625, 17.732253570737903 ], [ -180.0, 17.911643077639937 ] ] } },
{ "type": "Feature", "properties": { "fid": 20, "ID": 19, "pressure": 1014.0 }, "geometry": { "type": "LineString", "coordinates": [ [ 227.45156203063982, 17.5 ], [ 223.10078101531991, 16.894335511982568 ], [ 213.75, 16.118960079830451 ], [ 192.5, 17.226791315894758 ], [ 173.75, 18.836315476031224 ], [ 167.5, 20.036496534440822 ], [ 161.25, 21.843630371586734 ], [ 156.894376507061679, 23.891282565130261 ], [ 153.840837117076376, 26.25 ], [ 152.381676084342644, 28.75 ], [ 152.739223502548327, 31.25 ], [ 157.30400802822038, 36.579544282915762 ], [ 163.75, 42.564228161579706 ], [ 168.75, 45.681671955746978 ], [ 173.75, 47.799388217237208 ], [ 182.599055517161958, 50.602400140154167 ], [ 193.849055517161958, 54.649716624685141 ], [ 202.5, 57.782406484676649 ], [ 207.504279775006125, 59.382689859991515 ], [ 211.254279775006125, 60.793727709722432 ], [ 216.25, 61.696992040932628 ], [ 222.5, 61.352204776953712 ], [ 228.089471166985504, 60.448940445743517 ], [ 231.839471166985504, 59.256129964572068 ], [ 238.224601593625493, 55.506129964572068 ], [ 243.655382481484281, 51.25 ], [ 245.174509367937475, 48.75 ], [ 245.947057237800038, 46.25 ], [ 243.703328757721351, 42.896374458874462 ], [ 240.968072078376508, 40.396374458874462 ], [ 240.506133614793299, 38.75 ], [ 241.516750478689488, 32.5 ], [ 242.690337738359972, 26.25 ], [ 241.961648796087275, 23.819249375780274 ], [ 240.0, 21.771170038597248 ], [ 237.5, 20.336609527445795 ], [ 231.85078101531991, 18.634688864628821 ], [ 227.45156203063982, 17.5 ] ] } },
{ "type": "Feature", "properties": { "fid": 21, "ID": 20, "pressure": 1017.0 }, "geometry": { "type": "LineString", "coordinates": [ [ 360.0, 42.034249563699824 ], [ 359.375, 42.034249563699824 ], [ 357.5, 41.629133812813208 ], [ 355.318838604143934, 40.6120090309633 ], [ 353.126550819464853, 37.5 ], [ 350.789604402641146, 33.75 ], [ 346.731892187320227, 29.935857963875204 ], [ 341.25, 25.496085295048378 ], [ 337.5, 22.771475516949664 ], [ 333.75, 20.670160428978008 ], [ 327.5, 18.343766700448334 ], [ 321.25, 16.931032801195855 ], [ 315.0, 16.561719403043433 ], [ 307.5, 16.87002740900504 ], [ 301.25, 17.653606451507159 ], [ 290.0, 20.698797955236287 ], [ 279.233774755428271, 24.149677853639773 ], [ 276.350148233100811, 26.25 ], [ 276.539450400749502, 28.75 ], [ 282.638515951217755, 32.5 ], [ 299.272091834793628, 40.0 ], [ 314.806652806652778, 46.252686854212229 ], [ 322.5, 48.20629700051262 ], [ 330.0, 49.216996238235062 ], [ 338.75, 49.545461781331227 ], [ 351.875, 49.247751724337689 ], [ 360.0, 48.931352069882266 ] ] } },
{ "type": "Feature", "properties": { "fid": 22, "ID": 21, "pressure": 1017.0 }, "geometry": { "type": "LineString", "coordinates": [ [ -36.55175015087508, 17.5 ], [ -38.90087507543754, 17.111979475619883 ], [ -45.0, 16.607686368115772 ], [ -52.5, 16.773537138657233 ], [ -58.75, 17.452162369681304 ], [ -69.58743398943831, 20.17433212351996 ], [ -79.58743398943831, 23.143554392673849 ], [ -82.640572990965296, 24.393554392673849 ], [ -84.911695230307856, 26.25 ], [ -84.729733556367535, 28.75 ], [ -78.628917882407492, 32.5 ], [ -61.980376488043831, 40.0 ], [ -45.810069922661299, 46.396068252018907 ], [ -36.25, 48.54270442637123 ], [ -26.25, 49.45534434720841 ], [ -13.75, 49.284029388775856 ], [ -3.262107408295378, 48.22532121591977 ], [ -0.245723148387796, 46.25 ], [ -1.668110458679834, 43.75 ], [ -4.971361890928222, 41.25 ], [ -8.112187782563865, 37.5 ], [ -10.472008668898283, 33.75 ], [ -13.896688058675224, 30.460516980418127 ], [ -21.25, 24.813933792142535 ], [ -28.75, 20.081177858808445 ], [ -33.90087507543754, 18.227761047084037 ], [ -36.55175015087508, 17.5 ] ] } },
{ "type": "Feature", "properties": { "fid": 23, "ID": 22, "pressure": 1005.0 }, "geometry": { "type": "LineString", "coordinates": [ [ 86.460415921799353, 42.193762247552357 ], [ 82.013329808361519, 41.518337880131185 ], [ 74.664605628531646, 42.609164125574686 ], [ 70.301300646757653, 41.92022123371563 ], [ 66.856586187462398, 40.54233544999753 ], [ 56.25, 35.610139245553505 ], [ 52.5, 35.017853992338644 ], [ 47.5, 35.852206134816655 ], [ 42.5, 36.71619206014168 ], [ 40.0, 36.681803962712912 ], [ 37.121184593023258, 35.775309326586495 ], [ 36.122888518868393, 32.5 ], [ 36.564708858997349, 28.75 ], [ 35.894477063663004, 26.25 ], [ 35.256821799815768, 23.75 ], [ 35.34532477412678, 21.25 ], [ 37.378432964953319, 18.75 ], [ 42.708457860131517, 15.75353742101985 ], [ 47.5, 13.702161092984021 ], [ 50.0, 13.365516240151678 ], [ 52.5, 13.511341698604824 ], [ 60.0, 15.291654810673847 ], [ 68.75, 17.238410713767678 ], [ 72.5, 17.401096083650899 ], [ 77.5, 15.589716149863591 ], [ 82.5, 13.799857197768773 ], [ 85.0, 13.806316710329774 ], [ 87.5, 14.375914691120499 ], [ 88.75, 14.779260157671317 ] ] } },
{ "type": "Feature", "properties": { "fid": 24, "ID": 23, "pressure": 1011.0 }, "geometry": { "type": "LineString", "coordinates": [ [ 360.0, 28.181492640521583 ], [ 359.375, 28.181492640521583 ], [ 357.547079337401897, 27.840746320260791 ], [ 355.047079337401897, 26.777487853158178 ], [ 351.774538129730615, 24.277487853158178 ], [ 349.170124873051577, 21.25 ], [ 348.94370168260366, 18.75 ], [ 350.298114939282698, 16.806455761316869 ], [ 352.67488308651599, 15.556455761316869 ], [ 357.04988308651599, 14.617235507514621 ], [ 360.0, 14.234471015029243 ] ] } },
{ "type": "Feature", "properties": { "fid": 25, "ID": 24, "pressure": 1011.0 }, "geometry": { "type": "LineString", "coordinates": [ [ -93.75, 8.216698841698843 ], [ -92.635705669481311, 9.108349420849422 ], [ -93.885705669481311, 10.421368124118473 ], [ -97.5, 11.215563959297917 ], [ -99.571029529130087, 12.044195835179444 ], [ -102.071029529130087, 12.846865592349921 ], [ -106.25, 13.977554593614144 ], [ -110.0, 14.748454274576119 ], [ -115.489543726235752, 13.617765273311896 ], [ -120.489543726235752, 11.858151476251606 ], [ -123.011278195488728, 10.608151476251606 ], [ -124.261278195488728, 9.70044052863436 ], [ -122.5, 9.171406469449551 ], [ -107.5, 8.579315361664612 ], [ -93.75, 8.216698841698843 ] ] } },
{ "type": "Feature", "properties": { "fid": 26, "ID": 25, "pressure": 1011.0 }, "geometry": { "type": "LineString", "coordinates": [ [ 268.75, 8.466569767441854 ], [ 269.265640273704776, 9.233284883720927 ], [ 266.765640273704776, 10.593205265030235 ], [ 262.324414715719058, 11.843205265030235 ], [ 259.824414715719058, 12.692365269461078 ], [ 256.25, 13.728832886811048 ], [ 252.5, 14.773811525551118 ], [ 246.34567901234567, 13.737343908201147 ], [ 240.09567901234567, 11.593479307025987 ], [ 237.554438860971516, 10.343479307025987 ], [ 237.554438860971516, 9.527317880794698 ], [ 240.0, 8.957216529443343 ], [ 253.75, 8.476615820365815 ], [ 267.5, 8.280002055438096 ], [ 268.75, 8.466569767441854 ] ] } },
{ "type": "Feature", "properties": { "fid": 27, "ID": 26, "pressure": 1011.0 }, "geometry": { "type": "LineString", "coordinates": [ ] } },
{ "type": "Feature", "properties": { "fid": 28, "ID": 27, "pressure": 1014.0 }, "geometry": { "type": "LineString", "coordinates": [ [ 360.0, 33.061676387988769 ], [ 359.375, 33.061676387988769 ], [ 357.5, 32.579102836076814 ], [ 355.0, 31.494805143528907 ], [ 352.5, 30.039092716273188 ], [ 347.354626549742989, 25.842552214826711 ], [ 341.104626549742989, 19.395360131500297 ], [ 337.5, 15.236877232753258 ], [ 333.75, 12.992207947539661 ], [ 330.0, 11.413692732570723 ], [ 323.75, 10.087719557669423 ], [ 315.0, 9.127739295329263 ], [ 306.25, 9.867921777553697 ], [ 295.367881740299026, 12.814900153609834 ], [ 287.867881740299026, 15.460116940242457 ], [ 281.25, 16.524756366571772 ], [ 272.5, 17.967146992261 ], [ 265.0, 19.300931970893132 ], [ 260.0, 20.58898612932461 ], [ 258.167029676014181, 21.940561724363164 ], [ 257.836926025721255, 23.75 ], [ 259.165566530429942, 26.25 ], [ 261.655658894041153, 30.0 ], [ 265.909988713318285, 36.098333333333336 ], [ 270.0, 40.648602698505151 ], [ 272.5, 42.041502928102304 ], [ 276.25, 42.730028383647621 ], [ 283.75, 42.777877822891533 ], [ 291.25, 42.928173965032215 ], [ 296.25, 43.935417042166257 ], [ 307.5, 47.617100471764005 ], [ 320.0, 51.386999174089638 ], [ 341.875, 53.191834334997694 ], [ 360.0, 54.251219106727248 ] ] } },
{ "type": "Feature", "properties": { "fid": 29, "ID": 28, "pressure": 1014.0 }, "geometry": { "type": "LineString", "coordinates": [ [ -38.108230601885424, 10.0 ], [ -39.679115300942712, 9.668662089752175 ], [ -43.75, 9.153442165487675 ], [ -50.0, 9.234079589081617 ], [ -56.25, 9.938300084992463 ], [ -60.0, 10.685888941930287 ], [ -67.5, 13.290632914151246 ], [ -76.25, 16.053863756509386 ], [ -82.5, 16.937502572709029 ], [ -88.75, 17.952680324431221 ], [ -95.0, 19.053465017835833 ], [ -100.0, 20.025837433723659 ], [ -102.451408561536027, 21.497669380252098 ], [ -103.382510283992971, 23.75 ], [ -102.064233286050865, 26.25 ], [ -99.620350244483745, 30.0 ], [ -95.987218680889811, 35.259789980310657 ], [ -92.5, 39.395162233508429 ], [ -90.0, 41.422634943382235 ], [ -87.931347150259057, 42.287262690184463 ], [ -85.431347150259057, 42.711402701043582 ], [ -78.75, 42.737672749238257 ], [ -71.25, 42.811698190407995 ], [ -65.0, 44.047500135189608 ], [ -52.5, 47.995907488907676 ], [ -41.25, 51.459887960915168 ], [ -36.25, 52.220840354758977 ], [ -26.25, 52.7941049040965 ], [ -7.5, 53.947625817993995 ], [ 7.5, 54.442332092646083 ], [ 13.75, 53.619424035569779 ], [ 17.5, 52.689923529270317 ], [ 20.059350270720529, 51.114522782673916 ], [ 21.685576393590935, 48.75 ], [ 21.429452717834948, 46.25 ], [ 17.69125861370722, 43.75 ], [ 14.138032018742678, 42.135454878943506 ], [ 13.322484945093876, 40.885454878943506 ], [ 13.68456204443342, 37.5 ], [ 14.164778695737411, 33.75 ], [ 12.552701596397867, 32.392456738971482 ], [ 8.75, 32.929480527202571 ], [ 3.75, 33.791296985588168 ], [ 0.0, 33.874673997528546 ], [ -2.5, 33.31811956816226 ], [ -6.25, 31.483785817426369 ], [ -11.886134834002604, 27.536067049435577 ], [ -16.404711813118681, 23.75 ], [ -19.518576979116077, 20.230547550432277 ], [ -22.5, 16.597028986680449 ], [ -25.0, 14.325519979840834 ], [ -28.75, 12.391940450949612 ], [ -34.679115300942712, 10.68290190735695 ], [ -38.108230601885424, 10.0 ] ] } },
{ "type": "Feature", "properties": { "fid": 30, "ID": 29, "pressure": 1008.0 }, "geometry": { "type": "LineString", "coordinates": [ [ 86.25, 7.482096354166657 ], [ 91.25, 8.629634217321609 ], [ 98.75, 9.939789317248007 ], [ 105.0, 10.039191449980031 ], [ 110.0, 10.12235965706563 ], [ 112.5, 10.594491600844307 ], [ 115.54751791876825, 11.710120116748982 ], [ 119.735985125842689, 13.75 ], [ 122.938467207074439, 15.642315543890348 ], [ 124.307599678886817, 16.892315543890348 ], [ 125.151699787307479, 18.75 ], [ 125.37225339058358, 22.5 ], [ 125.554426502784935, 26.25 ], [ 126.416037000149601, 28.75 ], [ 127.889763779527584, 31.461732355637029 ], [ 129.684612211221122, 33.961732355637025 ], [ 132.153971262858647, 36.25 ], [ 134.861607921988565, 38.75 ], [ 136.793439180806274, 41.25 ], [ 138.040415022079031, 43.75 ], [ 139.102213154111411, 47.5 ], [ 139.668357963656433, 51.25 ], [ 139.012438486686051, 53.75 ], [ 138.271593482604885, 56.25 ], [ 139.714524517087654, 58.642368756518714 ], [ 142.5, 60.298485577777171 ], [ 147.916797858942061, 61.656116821258465 ], [ 154.851216163808317, 63.75 ], [ 156.934418304866256, 65.391402506450419 ], [ 153.75, 66.403843849992029 ], [ 145.0, 67.956079057981697 ], [ 136.25, 69.080837010352468 ], [ 127.5, 69.214448703962887 ], [ 115.0, 68.508196318196838 ], [ 97.5, 67.190079330237666 ], [ 84.15890570430733, 65.759132420091333 ], [ 80.40890570430733, 63.485527475756683 ], [ 76.25, 60.023492033964899 ], [ 72.505305352511186, 56.537964558208216 ], [ 70.813845463327866, 53.75 ], [ 69.558540110816679, 51.734606613454957 ], [ 68.080708661417333, 50.484606613454957 ], [ 65.580708661417333, 49.283200816589662 ], [ 62.5, 47.800449701125515 ], [ 58.393846458250891, 44.76724888453586 ], [ 53.618115372810166, 41.25 ], [ 50.224268914559275, 39.542642676624794 ], [ 43.75, 39.141871522492991 ], [ 36.25, 38.801145282332286 ], [ 32.305022715800092, 37.951916436464089 ], [ 29.796806159891389, 36.25 ], [ 29.302970185730842, 33.75 ], [ 30.066535954396898, 31.25 ], [ 29.505349212757352, 28.676525998492842 ], [ 27.618933255367153, 23.676525998492842 ], [ 26.49648734190562, 18.75 ], [ 27.627554086538467, 16.902778665984528 ], [ 33.75, 15.049435321058823 ], [ 42.5, 12.120019951944649 ], [ 47.5, 10.159166130400465 ], [ 51.25, 9.849068361886239 ], [ 58.75, 10.710756276911603 ], [ 66.25, 11.781792225109101 ], [ 70.0, 11.761095652481941 ], [ 75.0, 9.833862869028906 ], [ 81.25, 7.693509227697106 ], [ 85.0, 7.377488711679845 ], [ 86.25, 7.482096354166657 ] ] } },
{ "type": "Feature", "properties": { "fid": 31, "ID": 30, "pressure": 1011.0 }, "geometry": { "type": "LineString", "coordinates": [ ] } },
{ "type": "Feature", "properties": { "fid": 32, "ID": 31, "pressure": 1011.0 }, "geometry": { "type": "LineString", "coordinates": [ ] } },
{ "type": "Feature", "properties": { "fid": 33, "ID": 32, "pressure": 1011.0 }, "geometry": { "type": "LineString", "coordinates": [ [ -180.0, 75.203023963484213 ], [ -178.125, 75.413840498295968 ], [ -172.300783801436978, 76.562328516553862 ], [ -164.800783801436978, 78.021219025918541 ], [ -151.25, 79.498459356622703 ], [ -133.75, 80.645040309781479 ], [ -122.5, 80.599286664478086 ], [ -116.25, 79.966300480502937 ], [ -111.25, 78.75410715221318 ], [ -107.5, 77.151266146226661 ], [ -105.511564525633474, 75.681972789115648 ], [ -103.783707564574684, 73.75 ], [ -102.102983494781668, 71.25 ], [ -101.43325009439468, 68.75 ], [ -102.308061129919992, 66.25 ], [ -103.455651491365785, 64.844009983361062 ], [ -105.0, 64.602110130636476 ], [ -111.25, 64.835998011009451 ], [ -118.75, 64.915629675431617 ], [ -122.064419225634182, 63.587731811697573 ], [ -122.064419225634182, 61.966223311165564 ], [ -120.566092914438499, 60.716223311165564 ], [ -117.404780065276483, 58.75 ], [ -109.338687150837984, 55.722671473109898 ], [ -88.75, 51.745045618541852 ], [ -71.25, 49.3317470607088 ], [ -67.5, 49.154767024316868 ], [ -63.748991325398435, 49.595394109040015 ], [ -57.700728446740214, 51.25 ], [ -52.701737121341779, 53.281796328671327 ], [ -48.75, 55.067027477947882 ], [ -45.0, 56.337855316021461 ], [ -41.25, 56.7460625564688 ], [ -31.25, 56.866220040063006 ], [ -20.0, 57.26618533352034 ], [ -12.449626865671647, 58.843403683181222 ], [ -6.89806533196726, 61.25 ], [ -4.735305342136044, 63.75 ], [ -5.286866875840431, 65.821073748567059 ], [ -7.468783930510313, 67.071073748567059 ], [ -11.218783930510313, 67.615875503806535 ], [ -20.0, 66.798438094005448 ], [ -33.75, 64.254338662557416 ], [ -42.5, 62.457698402455591 ], [ -45.0, 62.419873969712853 ], [ -47.543280767912236, 63.783951639615765 ], [ -48.619975683166487, 66.25 ], [ -50.400908880137877, 68.75 ], [ -54.324213964883626, 70.790730337078656 ], [ -59.495440126883423, 73.290730337078656 ], [ -64.304511199202636, 76.25 ], [ -65.167682063232235, 78.75 ], [ -64.108610990913036, 80.246578399285923 ], [ -62.5, 81.047048139290297 ], [ -60.0, 81.897888593595525 ], [ -53.75, 82.522773893424898 ], [ -35.0, 82.778647943937116 ], [ -12.5, 82.453192226819823 ], [ 7.5, 82.657181993988758 ], [ 25.0, 83.132497098367082 ], [ 37.5, 82.868047937670241 ], [ 50.0, 82.06890881633332 ], [ 62.5, 80.928344129118869 ], [ 71.25, 79.859819445463955 ], [ 76.809284116331099, 78.457550622102957 ], [ 78.759566023045608, 76.25 ], [ 75.700281906714508, 74.272095003785012 ], [ 68.888561320754718, 70.522095003785012 ], [ 60.914301800303377, 66.25 ], [ 56.206304694012488, 63.75 ], [ 53.628573428020914, 61.25 ], [ 51.5813199326887, 57.5 ], [ 48.383310719131615, 52.362002567394093 ], [ 45.0, 48.572650715542238 ], [ 42.5, 46.771315646588576 ], [ 40.0, 45.809070954488512 ], [ 37.5, 44.756328528094187 ], [ 35.52925459029872, 43.257925072046106 ], [ 30.52925459029872, 41.213143739416282 ], [ 25.0, 39.313757256263649 ], [ 23.049625255507607, 38.100613516847375 ], [ 22.325863645600492, 36.25 ], [ 22.688197524708272, 33.75 ], [ 22.848925197786485, 31.25 ], [ 21.403984532828076, 27.5 ], [ 19.467018469656978, 24.04245947850599 ], [ 17.5, 22.540723367394875 ], [ 15.0, 21.822155586059296 ], [ 12.5, 21.625742460977698 ], [ 10.0, 21.800132203354394 ], [ 7.5, 22.688606756381752 ], [ 5.0, 24.597599654860041 ], [ 2.5, 26.653858488483522 ], [ 0.0, 27.77620025327008 ], [ -2.5, 27.986063374649486 ], [ -5.0, 27.436277027574022 ], [ -7.5, 26.102143619844661 ], [ -10.095900439238648, 23.872313864108172 ], [ -12.009590915429129, 21.25 ], [ -12.206055466879491, 18.75 ], [ -10.292364990689009, 16.502647837599298 ], [ -7.5, 15.074899318836955 ], [ -3.75, 14.16164552628333 ], [ 1.25, 13.401576269979572 ], [ 8.75, 12.072160051984895 ], [ 20.0, 10.990602227982116 ], [ 30.0, 11.388267713033031 ], [ 35.0, 11.652312460858049 ], [ 38.412540657752061, 10.744669148756138 ], [ 44.662540657752061, 8.033172902758366 ], [ 51.25, 5.280590591589871 ], [ 55.336503067484671, 3.497417688831504 ], [ 57.836503067484671, 1.132228490832155 ], [ 59.80597211260195, -1.367771509167845 ], [ 62.30597211260195, -3.182312510875242 ], [ 65.535239361702139, -4.432312510875242 ], [ 74.285239361702139, -6.461000673854443 ], [ 86.25, -8.454114341915812 ], [ 95.0, -8.889830524796935 ], [ 106.25, -7.853694933823974 ], [ 117.5, -6.123057342948236 ], [ 123.75, -5.157762565926362 ], [ 133.75, -5.352355767571098 ], [ 143.75, -6.289286533056988 ], [ 151.25, -8.605980729851836 ], [ 158.75, -10.761376948991611 ], [ 165.0, -11.424141258956908 ], [ 175.0, -11.569103924391513 ], [ 188.524513473053901, -10.728972950126803 ], [ 202.389848105932401, -8.75 ], [ 212.615334632878501, -6.534215471343572 ], [ 217.230021598272145, -5.284215471343572 ], [ 220.937142180392726, -3.75 ], [ 225.099534189032028, -1.25 ], [ 227.354193055532988, 1.25 ], [ 228.616219603061722, 3.75 ], [ 228.34116854950193, 6.25 ], [ 225.686728395061749, 7.803701772679887 ], [ 210.0, 9.487698507500681 ], [ 183.75, 11.658124889059522 ], [ 167.5, 12.883515377185269 ], [ 160.0, 14.008509194807324 ], [ 153.75, 15.415803682342556 ], [ 148.75, 17.276000120944552 ], [ 143.130291839308228, 20.459318410462778 ], [ 138.809523431120027, 23.75 ], [ 137.356215175943134, 26.25 ], [ 137.893019725576977, 28.75 ], [ 141.845095045399177, 32.5 ], [ 147.197979580156357, 37.5 ], [ 150.130434204951428, 41.25 ], [ 151.265006657020848, 43.75 ], [ 152.016029234569203, 47.5 ], [ 153.06253610629696, 50.629962943356276 ], [ 157.5, 52.627428336220376 ], [ 162.195871559633019, 54.4974653928641 ], [ 164.180419530112744, 56.25 ], [ 167.533890075742875, 58.75 ], [ 174.29934210526315, 61.160809687759709 ], [ 182.103136225476646, 63.660809687759709 ], [ 186.383124348992084, 66.25 ], [ 186.463592203606112, 68.75 ], [ 184.258247329267419, 71.25 ], [ 183.403814990955055, 73.75 ], [ 188.82917174177831, 76.317332641411525 ], [ 200.0, 78.464899224217106 ], [ 212.5, 79.834893683826294 ], [ 223.75, 80.605076331197751 ], [ 232.5, 80.821399257015486 ], [ 240.0, 80.507179271181684 ], [ 246.25, 79.746753063645102 ], [ 251.018407362945197, 78.393223819301852 ], [ 254.768407362945197, 76.370131909547737 ], [ 257.365756467206666, 73.870131909547737 ], [ 259.166085414575093, 71.25 ], [ 259.838535210132193, 68.75 ], [ 259.288206262763765, 66.323474702380949 ], [ 257.5, 64.78280689416178 ], [ 252.5, 64.770362260253592 ], [ 245.0, 65.05217997081651 ], [ 240.0, 64.412446198640055 ], [ 238.510273972602761, 63.171296296296298 ], [ 239.69790283858211, 61.25 ], [ 243.687628865979349, 58.697326977100538 ], [ 251.25, 55.796336382743924 ], [ 273.75, 51.670792256574217 ], [ 293.75, 49.212586560358957 ], [ 298.126180916391093, 49.640803709428127 ], [ 303.558763351911807, 51.25 ], [ 309.182582435520771, 53.537019888879939 ], [ 313.75, 55.493239758928155 ], [ 318.75, 56.647663720315592 ], [ 328.75, 56.833771631182117 ], [ 340.0, 57.100130367246898 ], [ 348.296699438202268, 58.707802586332157 ], [ 354.546699438202268, 60.899023684686313 ], [ 357.5, 62.208599074634321 ], [ 359.375, 62.619150779896017 ], [ 360.0, 62.619150779896017 ] ] } },
{ "type": "Feature", "properties": { "fid": 34, "ID": 33, "pressure": 1011.0 }, "geometry": { "type": "LineString", "coordinates": [ [ -180.0, -11.232351403172402 ], [ -176.875, -11.08154318488242 ], [ -169.607247976453266, -10.46536748329622 ], [ -158.872872976453266, -8.75 ], [ -147.674066558441552, -6.25 ], [ -140.331419404912424, -3.75 ], [ -136.157242632146392, -1.25 ], [ -133.88971350362425, 1.25 ], [ -132.606420040797929, 3.75 ], [ -132.872023954428158, 6.25 ], [ -134.921052631578959, 7.724618149146458 ], [ -150.0, 9.355375234790323 ], [ -171.875, 11.151181511075833 ], [ -180.0, 11.540848850863938 ] ] } },
{ "type": "Feature", "properties": { "fid": 35, "ID": 34, "pressure": 1014.0 }, "geometry": { "type": "LineString", "coordinates": [ [ -180.0, -17.641118994274336 ], [ -173.125, -17.565502180886327 ], [ -158.75, -16.93802304089202 ], [ -145.0, -15.235015587452558 ], [ -126.25, -11.294475302132412 ], [ -106.25, -7.692718379378626 ], [ -96.25, -6.921944960846439 ], [ -88.75, -8.007752487900014 ], [ -82.5, -9.17626704325528 ], [ -77.5, -9.112593321819979 ], [ -68.75, -10.340440218694106 ], [ -62.5, -11.883772231349148 ], [ -60.0, -11.844800892658945 ], [ -56.25, -10.940483026776676 ], [ -48.75, -8.201182268324651 ], [ -37.13771976558337, -4.349856008377692 ], [ -24.63771976558337, 0.592209856915737 ], [ -16.25, 4.460544615969063 ], [ -12.5, 5.409885480024741 ], [ -8.351113172541744, 5.291550720971415 ], [ -0.851113172541744, 3.73758278145695 ], [ 5.0, 1.90795983721307 ], [ 8.633417182662541, -1.82962294424388 ], [ 12.383417182662541, -5.840870971606563 ], [ 15.0, -6.975761908906918 ], [ 18.75, -7.172215222322166 ], [ 22.5, -6.702957663037907 ], [ 25.0, -5.668852625728739 ], [ 28.227085781433615, -2.503219247712643 ], [ 32.262508819150227, 1.25 ], [ 35.285423037716612, 3.785377358490564 ], [ 36.8886462882096, 5.035377358490564 ], [ 38.1386462882096, 4.943548387096769 ], [ 39.691176470588232, 3.693548387096769 ], [ 42.191176470588232, 1.243722198306791 ], [ 45.802376760563391, -2.506277801693209 ], [ 49.269907609373064, -6.25 ], [ 53.135142561741276, -8.75 ], [ 59.667611712931603, -10.949490662139219 ], [ 73.75, -12.974996439186306 ], [ 91.25, -14.514229916840748 ], [ 107.5, -14.985421255904178 ], [ 123.75, -14.265774383032614 ], [ 136.25, -13.538477300346415 ], [ 143.75, -13.752087420139318 ], [ 151.25, -14.972692704321112 ], [ 158.75, -16.326531498959874 ], [ 168.75, -17.160222849249983 ], [ 185.0, -17.599266558931724 ], [ 201.25, -17.058192604020107 ], [ 215.0, -15.456108157516475 ], [ 233.75, -11.533578200715617 ], [ 253.75, -7.823062106730703 ], [ 265.0, -6.997858374566412 ], [ 273.75, -8.184247733163019 ], [ 282.5, -9.03715443252846 ], [ 287.5, -8.920439463309663 ], [ 292.5, -10.292914898511455 ], [ 297.5, -11.782268750640462 ], [ 300.0, -12.008930191778667 ], [ 304.70695652173913, -10.986932599724895 ], [ 313.45695652173913, -7.915761306937064 ], [ 324.730276907001098, -4.165761306937064 ], [ 335.980276907001098, 0.327431379193484 ], [ 343.75, 4.0470555668171 ], [ 347.5, 5.225135891488613 ], [ 350.0, 5.582357420855061 ], [ 355.625, 5.32384451650988 ], [ 360.0, 4.993997599039631 ] ] } },
{ "type": "Feature", "properties": { "fid": 36, "ID": 35, "pressure": 1017.0 }, "geometry": { "type": "LineString", "coordinates": [ [ -180.0, -26.118059792556437 ], [ -178.125, -26.263962415558424 ], [ -173.847891566265048, -26.954932519280206 ], [ -175.097891566265048, -28.495604395604389 ], [ -179.375, -29.491208791208777 ], [ -180.0, -29.491208791208777 ] ] } },
{ "type": "Feature", "properties": { "fid": 37, "ID": 36, "pressure": 1023.0 }, "geometry": { "type": "LineString", "coordinates": [ [ 360.0, -33.64247915730617 ], [ 354.375, -33.184952924244875 ], [ 345.0, -31.969788253090094 ], [ 338.700561197220736, -30.606074907498304 ], [ 334.278575381617884, -28.75 ], [ 332.755181588718983, -26.25 ], [ 334.677167404321835, -24.35937113146818 ], [ 338.598209652309322, -23.10937113146818 ], [ 344.848209652309322, -22.213700721821212 ], [ 354.375, -22.216951056704204 ], [ 360.0, -22.506500669765984 ] ] } },
{ "type": "Feature", "properties": { "fid": 38, "ID": 37, "pressure": 1023.0 }, "geometry": { "type": "LineString", "coordinates": [ [ 7.630681818181813, -32.5 ], [ 5.690340909090907, -33.05830592680708 ], [ 2.5, -33.723698399259717 ], [ -1.25, -33.758994368187238 ], [ -8.75, -33.121060496613275 ], [ -19.387791358726545, -31.277458600878674 ], [ -26.930634643917315, -28.75 ], [ -28.460845574830159, -26.25 ], [ -25.918002289639389, -24.174249728817649 ], [ -21.976176808266359, -22.924249728817649 ], [ -18.226176808266359, -22.291905136643294 ], [ -12.5, -22.108114021010877 ], [ -7.5, -22.320766123288429 ], [ -3.75, -23.297636537872144 ], [ 0.0, -24.633533054325916 ], [ 3.169909682560771, -26.340453755374618 ], [ 6.492318452876631, -28.75 ], [ 7.762749679406767, -31.25 ], [ 7.630681818181813, -32.5 ] ] } },
{ "type": "Feature", "properties": { "fid": 39, "ID": 38, "pressure": 1020.0 }, "geometry": { "type": "LineString", "coordinates": [ [ 277.120406189555126, -35.0 ], [ 275.435203094777535, -35.263580216894425 ], [ 271.25, -35.607732589878196 ], [ 264.927833686440692, -35.344152372983771 ], [ 256.56065122351356, -33.75 ], [ 249.268457563063748, -31.25 ], [ 245.44261553184819, -28.75 ], [ 244.868796158031216, -26.25 ], [ 247.540481576214603, -23.75 ], [ 251.728660924040696, -21.880433873934123 ], [ 257.5, -20.557241663379827 ], [ 263.75, -19.771498315486006 ], [ 268.75, -19.902503603247546 ], [ 272.5, -20.402524405389187 ], [ 275.884862134862146, -21.594711328181944 ], [ 279.490069091030136, -23.75 ], [ 281.834903059514033, -26.25 ], [ 283.004689870486402, -28.75 ], [ 282.645082721921654, -31.25 ], [ 280.370088954781295, -33.459807973822436 ], [ 277.935203094777535, -34.709807973822436 ], [ 277.120406189555126, -35.0 ] ] } },
{ "type": "Feature", "properties": { "fid": 40, "ID": 39, "pressure": 1020.0 }, "geometry": { "type": "LineString", "coordinates": [ [ 360.0, -37.371527538429717 ], [ 353.125, -36.919633600869432 ], [ 340.0, -35.791440898890031 ], [ 331.25, -34.67927639143155 ], [ 325.445053887605809, -33.371705324196093 ], [ 319.787854060056816, -31.25 ], [ 316.295427123429249, -28.75 ], [ 315.40016489661889, -26.25 ], [ 317.197537945640647, -23.021526001705027 ], [ 320.0, -20.096551434054973 ], [ 322.5, -18.695979083260383 ], [ 325.996815286624155, -17.870953650910437 ], [ 335.996815286624155, -16.755754400423854 ], [ 347.5, -15.899187254968169 ], [ 355.625, -15.949910697070393 ], [ 360.0, -16.112955685052157 ] ] } },
{ "type": "Feature", "properties": { "fid": 41, "ID": 40, "pressure": 1020.0 }, "geometry": { "type": "LineString", "coordinates": [ [ -84.196530147895331, -35.0 ], [ -87.723265073947658, -35.341886333894188 ], [ -93.75, -35.574772998408243 ], [ -98.75, -35.097290691795635 ], [ -105.243829833297241, -33.61440402728158 ], [ -111.981740023279968, -31.25 ], [ -115.811232700805235, -28.75 ], [ -116.38633248362396, -26.25 ], [ -113.705940039161845, -23.75 ], [ -108.892930066360378, -21.726033330583292 ], [ -103.75, -20.473519588794844 ], [ -98.75, -19.846015863042858 ], [ -93.75, -19.827851824192784 ], [ -90.0, -20.181586107231148 ], [ -87.5, -20.770101179431073 ], [ -84.780471632841326, -21.817837291561403 ], [ -81.820995080982982, -23.75 ], [ -79.422010922671205, -26.25 ], [ -78.187308349391117, -28.75 ], [ -78.557394352613329, -31.25 ], [ -80.251573477751762, -33.153940178314642 ], [ -82.723265073947658, -34.403940178314642 ], [ -84.196530147895331, -35.0 ] ] } },
{ "type": "Feature", "properties": { "fid": 42, "ID": 41, "pressure": 1023.0 }, "geometry": { "type": "LineString", "coordinates": [ [ 70.572822434737645, -35.0 ], [ 64.661411217368823, -35.458491952180594 ], [ 52.5, -35.719379869406453 ], [ 43.75, -35.086585591644464 ], [ 38.57217961405243, -33.575697674418606 ], [ 34.82217961405243, -31.693870907738095 ], [ 28.75, -31.001313015585247 ], [ 22.184035942223716, -30.557442107847152 ], [ 20.934035942223716, -28.688643926788686 ], [ 22.5, -26.236793603498 ], [ 25.0, -24.660886528134853 ], [ 27.5, -24.158061822919265 ], [ 30.0, -24.426517632044181 ], [ 32.5, -25.724361294277195 ], [ 35.0, -27.214524209320366 ], [ 38.75, -27.46753173122454 ], [ 46.25, -25.727794221289713 ], [ 53.75, -24.0847674467053 ], [ 62.5, -24.143726191728511 ], [ 73.75, -24.981308602190467 ], [ 82.880568461328266, -26.540731791508456 ], [ 87.792381908297955, -28.75 ], [ 85.888123368931758, -31.25 ], [ 76.887721139330893, -33.75 ], [ 70.572822434737645, -35.0 ] ] } },
{ "type": "Feature", "properties": { "fid": 43, "ID": 42, "pressure": 1020.0 }, "geometry": { "type": "LineString", "coordinates": [ [ 72.573777403035422, -37.5 ], [ 65.661888701517711, -38.093766036998119 ], [ 53.75, -38.902859010953293 ], [ 45.0, -38.945846959908636 ], [ 35.0, -37.894503934629299 ], [ 26.25, -36.80701316739875 ], [ 21.25, -36.65077889557665 ], [ 15.0, -37.172392392816334 ], [ 8.75, -37.777359308999806 ], [ 1.209976571651694, -37.706482593037208 ], [ -15.040023428348306, -36.381596085144388 ], [ -30.0, -34.615050374572462 ], [ -36.435148514851491, -33.233454289428074 ], [ -41.470768725579461, -31.25 ], [ -44.959601232940614, -28.75 ], [ -45.836741679160411, -26.25 ], [ -44.698233143262954, -23.75 ], [ -42.61973369606541, -21.25 ], [ -40.084261209750224, -19.336544962812717 ], [ -36.25, -18.131038103056625 ], [ -25.0, -16.764438009530764 ], [ -13.75, -15.864421271835262 ], [ -8.75, -15.990232300795412 ], [ -3.75, -16.9399823703816 ], [ 3.75, -20.335944320636358 ], [ 10.0, -23.3473328217638 ], [ 12.5, -23.6690647646804 ], [ 15.0, -23.070103083262445 ], [ 18.75, -20.884681926205317 ], [ 25.0, -17.685166297957942 ], [ 30.0, -15.783873932321171 ], [ 32.5, -15.451429520258202 ], [ 37.5, -16.86383416449091 ], [ 46.25, -18.453601214357676 ], [ 55.0, -19.120235103029458 ], [ 71.25, -20.612282605419374 ], [ 88.75, -22.183791701642754 ], [ 99.037969757616196, -23.877283897852337 ], [ 106.537969757616196, -25.998299503347013 ], [ 109.820854386770776, -27.248299503347013 ], [ 111.070854386770776, -27.771398747390393 ], [ 112.5, -28.099429050420696 ], [ 114.059994272623129, -27.828030303030303 ], [ 116.559994272623129, -27.008241239255696 ], [ 120.990547063555908, -25.758241239255696 ], [ 127.240547063555908, -24.194287729196056 ], [ 132.5, -23.311713136762961 ], [ 136.25, -23.443556138669756 ], [ 142.5, -24.154067684056898 ], [ 147.5, -25.011132701003355 ], [ 150.28305963699222, -26.433195748049307 ], [ 152.001865875744471, -28.75 ], [ 151.488520524466537, -31.25 ], [ 149.769714285714286, -33.352929930216995 ], [ 147.5, -34.843911362577735 ], [ 145.0, -35.706090427600031 ], [ 141.25, -35.744582655107017 ], [ 127.5, -33.135487931019618 ], [ 113.75, -30.506818560696125 ], [ 110.0, -30.531824568378198 ], [ 106.50166587339362, -31.631020278833965 ], [ 97.605329401842255, -33.75 ], [ 81.765552229966346, -36.25 ], [ 72.573777403035422, -37.5 ] ] } },
{ "type": "Feature", "properties": { "fid": 44, "ID": 43, "pressure": 1017.0 }, "geometry": { "type": "LineString", "coordinates": [ [ 145.479060913705553, -40.0 ], [ 142.114530456852776, -39.753240001485381 ], [ 130.0, -37.915316082590707 ], [ 117.5, -36.05849943132462 ], [ 107.5, -36.164419146821544 ], [ 84.724680938657883, -38.26799579660225 ], [ 58.474680938657883, -40.799360583243697 ], [ 45.0, -41.547444607930061 ], [ 32.5, -40.945638665907282 ], [ 13.75, -40.472663734689377 ], [ -20.0, -38.994898058335238 ], [ -46.25, -37.590331474107927 ], [ -54.932156133828997, -38.870542509241147 ], [ -64.932156133828997, -40.524714614022528 ], [ -70.0, -41.063946330253813 ], [ -76.25, -40.316214348100431 ], [ -87.5, -39.570224509395729 ], [ -98.75, -39.069469854034864 ], [ -113.335107798775624, -36.776227976508281 ], [ -130.835107798775624, -33.123032528856236 ], [ -142.447620738636374, -30.623032528856236 ], [ -150.206879997895612, -28.75 ], [ -152.206356981522305, -26.25 ], [ -148.197097722263038, -24.606018643609829 ], [ -138.909555396199352, -22.106018643609829 ], [ -123.909555396199352, -18.075721671693245 ], [ -110.0, -15.118589061912807 ], [ -100.0, -13.890544569956539 ], [ -92.5, -14.07396398917966 ], [ -86.25, -15.241675290994237 ], [ -80.0, -17.661235059216317 ], [ -75.0, -19.561896985150426 ], [ -71.25, -19.440467317106645 ], [ -67.5, -19.30437320438849 ], [ -65.0, -20.237094153409913 ], [ -62.5, -21.862307134215762 ], [ -60.0, -23.264885669727605 ], [ -57.5, -23.237492808438212 ], [ -51.25, -18.699629145875413 ], [ -44.212369895916737, -13.571852731591449 ], [ -40.462369895916737, -11.991600790513829 ], [ -33.75, -11.345386053397398 ], [ -20.0, -10.300111809918249 ], [ -8.75, -9.402648676594104 ], [ -3.75, -9.930163932769936 ], [ 0.0, -10.986034093038661 ], [ 3.75, -13.252375869634378 ], [ 7.5, -15.591504162684188 ], [ 10.0, -16.353381363491721 ], [ 12.5, -16.075321136251546 ], [ 16.25, -14.304382111823656 ], [ 22.5, -11.79550439229871 ], [ 30.0, -8.836195754924717 ], [ 35.0, -6.834288188616419 ], [ 37.5, -7.05427424694232 ], [ 41.25, -9.21841173587336 ], [ 45.315693746752117, -11.726612558735582 ], [ 51.390259430921546, -13.75 ], [ 58.574565684169428, -15.471570118817581 ], [ 81.25, -17.651474632706474 ], [ 107.5, -20.103832591343952 ], [ 117.5, -20.6796921024714 ], [ 125.0, -19.784176307360461 ], [ 131.25, -18.806681611106804 ], [ 140.0, -18.729279297283149 ], [ 149.452794739314214, -19.451009968520466 ], [ 161.952794739314214, -22.16437421848358 ], [ 175.0, -24.98150190778226 ], [ 182.5, -26.041472137340115 ], [ 188.057381193124371, -26.974344448041435 ], [ 186.051351508523254, -28.75 ], [ 177.993970315398883, -30.240283217836691 ], [ 171.25, -30.85943888340325 ], [ 166.25, -32.081884406147829 ], [ 159.237679279829109, -35.212728740581269 ], [ 152.987679279829109, -38.212671905697434 ], [ 150.0, -39.265868756847055 ], [ 147.114530456852776, -39.803196851149622 ], [ 145.479060913705553, -40.0 ] ] } },
{ "type": "Feature", "properties": { "fid": 45, "ID": 44, "pressure": 1017.0 }, "geometry": { "type": "LineString", "coordinates": [ [ 360.0, -40.04191999613974 ], [ 355.625, -39.889651456199331 ], [ 333.75, -38.565309288553394 ], [ 315.0, -37.472274535730762 ], [ 308.75, -38.50714138625591 ], [ 297.5, -40.304820557355725 ], [ 290.0, -41.077856286153661 ], [ 285.0, -40.304503329910986 ], [ 276.25, -39.639931520963515 ], [ 267.5, -39.513157941417759 ], [ 260.0, -38.85028667702197 ], [ 247.295601726929277, -36.677077336403755 ], [ 231.045601726929277, -33.25454978309174 ], [ 224.811097123063888, -33.633849240160444 ], [ 220.792263587219423, -33.289377794230916 ], [ 212.639772700220647, -32.141139641132497 ], [ 210.687767839953324, -30.303958596175022 ], [ 209.114633239432777, -26.25 ], [ 213.728949478749001, -24.446288789488399 ], [ 218.275416997617185, -23.196288789488399 ], [ 229.801235070268035, -20.0 ], [ 245.27581807265085, -16.215286983032868 ], [ 256.25, -14.354264130778198 ], [ 265.0, -13.813522381060416 ], [ 271.25, -14.291855153441901 ], [ 276.25, -15.630393498808544 ], [ 282.5, -18.211786252761684 ], [ 287.5, -19.821290393378192 ], [ 290.0, -19.373618222183644 ], [ 292.5, -19.044079888827397 ], [ 295.023476339532351, -19.543049385941991 ], [ 298.773476339532351, -21.914265950520829 ], [ 302.5, -23.730331332130618 ], [ 305.0, -22.8151514567178 ], [ 310.355175901989412, -18.499086075108011 ], [ 316.605175901989412, -13.774992984425424 ], [ 320.0, -12.122045429220371 ], [ 322.5, -11.482700226094465 ], [ 328.75, -11.209972105623834 ], [ 342.5, -10.226362258141911 ], [ 355.625, -9.271111254418777 ], [ 360.0, -9.238146641202363 ] ] } },
{ "type": "Feature", "properties": { "fid": 46, "ID": 45, "pressure": 1014.0 }, "geometry": { "type": "LineString", "coordinates": [ [ 360.0, -42.35807517853695 ], [ 348.125, -41.973361084091067 ], [ 327.5, -41.574420744990263 ], [ 306.25, -42.852522288667529 ], [ 291.25, -44.228746859486535 ], [ 285.0, -43.747029637716281 ], [ 271.25, -42.802152621924407 ], [ 243.75, -40.268109208357245 ], [ 220.0, -37.616804221518095 ], [ 208.75, -37.264565990504011 ], [ 198.75, -37.867326432604926 ], [ 184.518621236133129, -40.412900260456567 ], [ 169.518621236133129, -42.63176686615887 ], [ 157.5, -43.259791480259821 ], [ 147.5, -43.598371386284398 ], [ 132.5, -41.416950167291375 ], [ 116.25, -39.043880499758174 ], [ 102.5, -38.99938818135098 ], [ 71.25, -41.446222409747833 ], [ 27.5, -43.216450342085196 ], [ -7.5, -42.260128065600895 ], [ -30.0, -41.581667288715693 ], [ -42.5, -41.660159021288649 ], [ -50.0, -42.315328690154857 ], [ -62.5, -43.566486220576621 ], [ -76.25, -43.715460682708382 ], [ -90.171719767043498, -42.798022363150864 ], [ -117.671719767043498, -40.238054482320138 ], [ -141.25, -37.56965457686043 ], [ -150.0, -37.192211899233413 ], [ -158.75, -37.546429682255521 ], [ -170.0, -38.941111683809083 ], [ -178.125, -40.189162200126347 ], [ -180.0, -40.367736787759327 ] ] } },
{ "type": "Feature", "properties": { "fid": 47, "ID": 46, "pressure": 1011.0 }, "geometry": { "type": "LineString", "coordinates": [ [ 360.0, -44.464114467547205 ], [ 350.625, -44.293484862458158 ], [ 331.25, -44.320411041639659 ], [ 305.0, -45.878628049288551 ], [ 283.75, -46.697546471750314 ], [ 271.25, -45.924277668161778 ], [ 245.0, -44.10749432264268 ], [ 221.25, -42.327997860099714 ], [ 212.5, -42.314707746090335 ], [ 203.75, -43.030527216815642 ], [ 192.5, -44.860056653823392 ], [ 182.5, -46.70226920846801 ], [ 172.5, -47.444290991696533 ], [ 157.5, -47.231148538792482 ], [ 145.0, -46.286492091108926 ], [ 135.0, -44.476235451520438 ], [ 123.75, -42.38070285182296 ], [ 115.0, -41.275659338442836 ], [ 107.5, -40.921616934997033 ], [ 96.25, -41.141789675011438 ], [ 71.467044002191003, -43.216641529713613 ], [ 51.467044002191003, -45.158651974145315 ], [ 36.25, -45.219115986752982 ], [ 0.0, -44.638451901969802 ], [ -33.75, -44.447493804889632 ], [ -57.5, -45.984028551116921 ], [ -76.25, -46.736707769904442 ], [ -90.0, -45.919481390669972 ], [ -117.5, -44.017090342472514 ], [ -141.25, -42.30081994306228 ], [ -153.75, -42.777928838347847 ], [ -167.5, -44.609695644745187 ], [ -176.875, -46.141136625837305 ], [ -180.0, -46.45668792499049 ] ] } },
{ "type": "Feature", "properties": { "fid": 48, "ID": 47, "pressure": 1008.0 }, "geometry": { "type": "LineString", "coordinates": [ [ 360.0, -46.410505836575879 ], [ 351.875, -46.351214569755925 ], [ 333.75, -46.655962180246775 ], [ 306.25, -48.377685967460565 ], [ 283.75, -49.396923636106663 ], [ 271.25, -48.81864116081826 ], [ 246.25, -47.463198059221995 ], [ 222.5, -46.268105343045079 ], [ 210.0, -46.621891535320259 ], [ 192.5, -48.520684479275886 ], [ 172.5, -50.149392434727574 ], [ 159.858191653786719, -50.156289243555491 ], [ 151.108191653786719, -49.447597184674194 ], [ 132.5, -46.300668287142912 ], [ 113.75, -43.282873920420101 ], [ 103.75, -42.752087338619802 ], [ 92.5, -42.951915651596678 ], [ 71.25, -44.789973914996125 ], [ 51.25, -46.605618864450889 ], [ 13.75, -46.604573683137858 ], [ -30.0, -46.781497487878326 ], [ -56.25, -48.475852383600028 ], [ -83.75, -49.175460239740133 ], [ -115.0, -47.467481928508235 ], [ -138.75, -46.227870473517385 ], [ -150.0, -46.544234868735984 ], [ -165.0, -48.090231728880681 ], [ -176.875, -49.458884024642188 ], [ -180.0, -49.661381756449487 ] ] } },
{ "type": "Feature", "properties": { "fid": 49, "ID": 48, "pressure": 1002.0 }, "geometry": { "type": "LineString", "coordinates": [ [ 360.0, -50.010262206148298 ], [ 350.625, -50.23810204886351 ], [ 323.75, -52.047797813792485 ], [ 290.0, -53.825436699988188 ], [ 255.0, -53.292050406588658 ], [ 230.0, -52.532128282725779 ], [ 216.25, -52.614344999816254 ], [ 195.0, -53.442018566366883 ], [ 172.5, -54.237325482095898 ], [ 158.75, -54.063979362075841 ], [ 150.0, -53.384784589843846 ], [ 135.0, -50.691343464199164 ], [ 118.75, -47.660200080064811 ], [ 108.75, -46.473486497283162 ], [ 100.0, -45.956237972181953 ], [ 92.5, -46.002584181392066 ], [ 75.0, -47.458868811841256 ], [ 55.0, -49.201939130420413 ], [ 37.5, -49.790988957902911 ], [ 15.0, -49.893914106496737 ], [ -6.25, -50.041503230670912 ], [ -25.0, -50.885131905093914 ], [ -42.5, -52.460617093099842 ], [ -53.75, -53.523622983671473 ], [ -72.5, -53.825804453721091 ], [ -106.25, -53.303491665150233 ], [ -130.0, -52.549500174757952 ], [ -145.0, -52.636599107720514 ], [ -166.875, -53.409242425638993 ], [ -180.0, -54.041239187286266 ] ] } },
{ "type": "Feature", "properties": { "fid": 50, "ID": 49, "pressure": 1005.0 }, "geometry": { "type": "LineString", "coordinates": [ [ 360.0, -48.249234071437741 ], [ 350.625, -48.344268078155665 ], [ 332.5, -48.955554940711835 ], [ 315.0, -50.300663719052366 ], [ 297.5, -51.488769011517547 ], [ 277.5, -51.612815623236713 ], [ 250.0, -50.542864793679811 ], [ 227.5, -49.590596822721778 ], [ 215.0, -49.676248673586485 ], [ 195.0, -51.057395464393664 ], [ 172.5, -52.369551417588667 ], [ 158.75, -52.215377890517999 ], [ 150.0, -51.469540965528225 ], [ 135.0, -48.757102422006085 ], [ 120.0, -45.929831516378357 ], [ 111.25, -44.925618439379321 ], [ 101.25, -44.387083039451539 ], [ 91.25, -44.548127271949468 ], [ 72.994658997534927, -46.157904337251722 ], [ 54.244658997534927, -47.873281508673443 ], [ 16.25, -48.272056073267919 ], [ -26.25, -48.841227206419418 ], [ -45.0, -50.214614087860937 ], [ -62.5, -51.426055340358332 ], [ -82.5, -51.612119752777929 ], [ -111.25, -50.537881343213215 ], [ -133.75, -49.564842274506688 ], [ -145.0, -49.639294335167449 ], [ -162.5, -50.797734583428195 ], [ -176.875, -51.91111492363089 ], [ -180.0, -52.034975771242159 ] ] } },
{ "type": "Feature", "properties": { "fid": 51, "ID": 50, "pressure": 999.0 }, "geometry": { "type": "LineString", "coordinates": [ [ 360.0, -51.746247739602154 ], [ 354.375, -51.867305132290795 ], [ 345.0, -52.23846628450687 ], [ 332.5, -53.425021384927462 ], [ 318.75, -55.055850331533577 ], [ 310.0, -56.000853485520324 ], [ 300.0, -56.024422114936286 ], [ 286.25, -56.055881797474129 ], [ 273.75, -56.309759137375806 ], [ 252.5, -55.729438777143116 ], [ 221.25, -55.194198812776307 ], [ 195.0, -55.562155528174273 ], [ 173.75, -55.951641469697549 ], [ 158.75, -55.786116964877607 ], [ 150.0, -55.157384935321275 ], [ 135.0, -52.519185853491081 ], [ 117.5, -49.33263908844512 ], [ 106.25, -47.975861355234954 ], [ 97.5, -47.509660126803766 ], [ 71.25, -49.225550359754791 ], [ 26.25, -51.212607158854738 ], [ -6.25, -51.812591088032804 ], [ -35.0, -54.209020477995139 ], [ -60.0, -56.014813183164947 ], [ -78.75, -56.068151980590486 ], [ -108.75, -55.739626289218918 ], [ -141.25, -55.205263061563372 ], [ -168.125, -55.563298840488585 ], [ -180.0, -55.871022379184836 ] ] } },
{ "type": "Feature", "properties": { "fid": 52, "ID": 51, "pressure": 996.0 }, "geometry": { "type": "LineString", "coordinates": [ [ 360.0, -53.586132773445314 ], [ 355.625, -53.718151200343399 ], [ 346.25, -54.265155614123202 ], [ 328.75, -56.700908911340562 ], [ 312.5, -59.004189671715793 ], [ 306.25, -59.230262146215964 ], [ 298.75, -58.752637137310955 ], [ 282.5, -58.501693535975988 ], [ 255.0, -58.130523680612711 ], [ 221.25, -57.456577732622378 ], [ 183.75, -57.483484681623437 ], [ 158.75, -57.418519763365765 ], [ 148.75, -56.628795038425224 ], [ 132.5, -53.846974555962078 ], [ 116.25, -50.880044419980464 ], [ 106.25, -49.665511201478282 ], [ 97.5, -49.115379745910985 ], [ 90.0, -49.207679962453284 ], [ 68.75, -50.823266715064349 ], [ 28.75, -52.620074649328984 ], [ -3.75, -53.537571372446862 ], [ -18.173413869420884, -54.547760804849958 ], [ -33.173413869420884, -56.768518150371747 ], [ -47.5, -58.890086674176231 ], [ -53.75, -59.234392600980073 ], [ -62.5, -58.763582185572858 ], [ -80.0, -58.477505773312615 ], [ -106.25, -58.132222448021466 ], [ -140.0, -57.468296023308696 ], [ -169.375, -57.46279176696963 ], [ -180.0, -57.59994105353411 ] ] } },
{ "type": "Feature", "properties": { "fid": 53, "ID": 52, "pressure": 981.0 }, "geometry": { "type": "LineString", "coordinates": [ [ 111.25, -62.504777725508632 ], [ 110.0, -62.00362038984791 ], [ 107.507407407407413, -60.751231527093594 ], [ 101.257407407407413, -59.82002269253924 ], [ 92.356924421144583, -59.82002269253924 ], [ 93.606924421144583, -60.791632901134534 ], [ 100.05956375838926, -62.041632901134534 ], [ 106.30956375838926, -62.502388862754316 ], [ 111.25, -62.504777725508632 ] ] } },
{ "type": "Feature", "properties": { "fid": 54, "ID": 53, "pressure": 993.0 }, "geometry": { "type": "LineString", "coordinates": [ [ 360.0, -55.658213188986622 ], [ 356.875, -55.793229142195543 ], [ 348.75, -56.449878238356831 ], [ 342.08130772970344, -57.235755690654599 ], [ 334.58130772970344, -59.034228594507269 ], [ 326.25, -61.066842985006744 ], [ 320.0, -62.086886099182948 ], [ 312.5, -62.852661482919856 ], [ 306.25, -63.040483327237396 ], [ 296.25, -62.139165584615881 ], [ 278.75, -61.176261838433362 ], [ 256.25, -60.521872385406397 ], [ 232.5, -59.916466207666332 ], [ 211.25, -59.569531375721397 ], [ 183.75, -59.317298380665932 ], [ 161.25, -59.198789288982397 ], [ 148.75, -58.195921309591398 ], [ 127.5, -54.773931424451547 ], [ 108.75, -51.629210148152481 ], [ 100.0, -50.852812169986464 ], [ 91.25, -50.801605218440372 ], [ 68.75, -52.331450245853588 ], [ 30.0, -54.150949279720095 ], [ 4.476380368098148, -54.792253460653313 ], [ -9.273619631901852, -56.080160334909152 ], [ -27.5, -59.247875173505335 ], [ -40.0, -61.899458690799406 ], [ -47.5, -62.75656941479275 ], [ -55.0, -62.953696704982605 ], [ -63.75, -62.217895532636987 ], [ -71.25, -61.415110817722706 ], [ -83.75, -61.134909102281341 ], [ -107.5, -60.458353135284952 ], [ -131.25, -59.862731637570249 ], [ -151.25, -59.55374253654648 ], [ -170.625, -59.297915026464693 ], [ -180.0, -59.314747334012111 ] ] } },
{ "type": "Feature", "properties": { "fid": 55, "ID": 54, "pressure": 984.0 }, "geometry": { "type": "LineString", "coordinates": [ [ 28.75, -67.682441843814672 ], [ 29.882433742727855, -67.591220921907336 ], [ 35.773433215996221, -66.25 ], [ 42.140999473268366, -64.42276312211041 ], [ 47.5, -63.343715822171845 ], [ 56.25, -62.850312202993905 ], [ 63.75, -63.234272567217047 ], [ 68.75, -64.36014539890796 ], [ 73.75, -65.285065647678493 ], [ 83.75, -64.986251300649869 ], [ 98.75, -64.812661997262637 ], [ 110.399422268907557, -65.056244009667878 ], [ 121.05808961636734, -63.75 ], [ 125.436964621631631, -61.25 ], [ 117.278297274171848, -58.770735873445773 ], [ 106.25, -57.042955753034406 ], [ 96.25, -56.401122889785256 ], [ 81.355693828844181, -56.878903010196623 ], [ 67.605693828844181, -58.089680335005596 ], [ 60.0, -59.048825585081588 ], [ 42.5, -59.677653126313871 ], [ 26.25, -60.114091793111598 ], [ 15.682775377969747, -61.395583916873719 ], [ 3.350251550990279, -63.75 ], [ -0.565022318228699, -66.25 ], [ 10.517501508750769, -67.698902160066851 ], [ 25.0, -67.790123081974187 ], [ 28.75, -67.682441843814672 ] ] } },
{ "type": "Feature", "properties": { "fid": 56, "ID": 55, "pressure": 987.0 }, "geometry": { "type": "LineString", "coordinates": [ [ 360.0, -61.906829040904313 ], [ 358.125, -62.065009641630681 ], [ 353.75, -62.749952488529246 ], [ 343.75, -65.699883519123645 ], [ 332.318943481965334, -69.061526151772924 ], [ 324.505407922444533, -71.25 ], [ 320.936464440479199, -73.068654646324546 ], [ 322.179810725552045, -74.318654646324546 ], [ 324.679810725552045, -75.026274226884539 ], [ 327.5, -74.896496472965708 ], [ 336.25, -73.038586961066983 ], [ 347.5, -70.968503256372472 ], [ 355.625, -70.449731894098122 ], [ 360.0, -70.299186705422926 ] ] } },
{ "type": "Feature", "properties": { "fid": 57, "ID": 56, "pressure": 987.0 }, "geometry": { "type": "LineString", "coordinates": [ [ -36.25, -75.04887545044113 ], [ -35.0, -74.990195533720311 ], [ -25.0, -73.043725189399538 ], [ -5.0, -70.28200039846115 ], [ 17.5, -69.170099355316353 ], [ 34.159118768727865, -68.216066337754995 ], [ 42.909118768727865, -66.668746190970325 ], [ 48.75, -65.548644272005617 ], [ 53.75, -65.173989315454818 ], [ 58.75, -65.217705054859906 ], [ 66.25, -66.443936784839394 ], [ 73.75, -67.606857043979744 ], [ 80.0, -67.040706174763201 ], [ 86.25, -66.162819950269338 ], [ 92.5, -65.855136685467428 ], [ 102.5, -65.973463638912747 ], [ 113.75, -65.955564408507058 ], [ 123.23275346724057, -65.378589599974873 ], [ 135.15257054041129, -63.75 ], [ 140.669817073170719, -62.060962382290583 ], [ 136.674830560690083, -60.810962382290583 ], [ 126.674830560690083, -58.35232145044715 ], [ 113.19624352331607, -55.85232145044715 ], [ 101.94624352331607, -54.589946448320688 ], [ 92.5, -54.196232491063142 ], [ 82.5, -54.538496609080184 ], [ 65.0, -55.880881164992317 ], [ 40.975244831338415, -57.198670598654587 ], [ 23.475244831338415, -57.771712255680185 ], [ 13.75, -58.504231558187357 ], [ 5.0, -59.575027643423169 ], [ -3.132274937380274, -61.342508340915998 ], [ -16.882274937380274, -65.508906095049198 ], [ -29.540073529411771, -69.258906095049198 ], [ -36.702832150101429, -71.25 ], [ -39.662758620689658, -73.590557020435071 ], [ -37.5, -74.864994745655636 ], [ -36.25, -75.04887545044113 ] ] } },
{ "type": "Feature", "properties": { "fid": 58, "ID": 57, "pressure": 990.0 }, "geometry": { "type": "LineString", "coordinates": [ [ 360.0, -58.374254920986971 ], [ 356.875, -58.619814168893555 ], [ 350.351288056206101, -59.43268670840007 ], [ 339.101288056206101, -62.161048817174887 ], [ 321.25, -66.091692993118414 ], [ 307.329713201180937, -68.930644175943527 ], [ 301.930517110386518, -71.25 ], [ 303.609075347422959, -75.0 ], [ 309.008271438217434, -78.004983388704318 ], [ 315.0, -78.685554316577395 ], [ 325.533862711641916, -78.180570927873077 ], [ 339.283862711641916, -75.480364959299635 ], [ 350.0, -72.804658515259177 ], [ 356.875, -71.928546470020436 ], [ 360.0, -71.708505828121787 ] ] } },
{ "type": "Feature", "properties": { "fid": 59, "ID": 58, "pressure": 984.0 }, "geometry": { "type": "LineString", "coordinates": [ [ -180.0, -77.724939165529122 ], [ -179.375, -77.724939165529122 ], [ -172.393457382953187, -78.862469582764561 ], [ -162.393457382953187, -80.07917926406607 ], [ -155.0, -79.988678269405824 ], [ -147.5, -79.080419507431813 ], [ -137.5, -76.1550599873826 ], [ -127.317604772101561, -73.234139485290541 ], [ -122.317604772101561, -71.665471066475391 ], [ -120.428098391674553, -70.415471066475391 ], [ -126.678098391674553, -69.260299625468164 ], [ -141.25, -68.229515459114666 ], [ -158.75, -68.018048002383566 ], [ -174.375, -68.606676273325121 ], [ -180.0, -69.115688209176113 ] ] } },
{ "type": "Feature", "properties": { "fid": 60, "ID": 59, "pressure": 984.0 }, "geometry": { "type": "LineString", "coordinates": [ [ 206.25, -80.097175633113977 ], [ 208.75, -79.877851933708271 ], [ 215.0, -78.82373690626693 ], [ 225.0, -75.805254912020672 ], [ 234.546469740633995, -73.060782122905024 ], [ 238.296469740633995, -72.07694892473117 ], [ 240.190738963531658, -70.82694892473117 ], [ 233.940738963531658, -69.214347195795952 ], [ 217.5, -68.172626444670996 ], [ 198.75, -68.120364872729795 ], [ 187.5, -68.533105577155538 ], [ 184.703418999541071, -69.371019953300788 ], [ 183.168368600274135, -72.5 ], [ 183.718689381564502, -76.25 ], [ 186.503739780831438, -78.192771927859312 ], [ 191.25, -79.364613697319115 ], [ 200.0, -79.970429586016792 ], [ 206.25, -80.097175633113977 ] ] } },
{ "type": "Feature", "properties": { "fid": 61, "ID": 60, "pressure": 987.0 }, "geometry": { "type": "LineString", "coordinates": [ [ -180.0, -81.322133571772468 ], [ -169.375, -81.915059484950788 ], [ -153.75, -82.441886500935368 ], [ -145.0, -82.030613345057844 ], [ -137.390549090498268, -80.84271954318703 ], [ -131.785495276740647, -78.75 ], [ -126.894946186242393, -76.531646115374656 ], [ -121.25, -75.158465399789463 ], [ -108.345923475773276, -73.626819284414807 ], [ -95.845923475773276, -71.591489103135359 ], [ -92.536701208981015, -70.341489103135359 ], [ -94.477519630805574, -68.75 ], [ -101.940818421824574, -66.879888638472764 ], [ -110.0, -65.914377697412618 ], [ -120.0, -65.286550469337215 ], [ -153.125, -64.331419042426859 ], [ -180.0, -63.658715264058998 ] ] } },
{ "type": "Feature", "properties": { "fid": 62, "ID": 61, "pressure": 987.0 }, "geometry": { "type": "LineString", "coordinates": [ [ 208.75, -82.509727198786578 ], [ 212.5, -82.310929048180796 ], [ 220.0, -81.587165311519144 ], [ 225.7402176498573, -80.531099862731637 ], [ 229.48364059063988, -78.75 ], [ 233.74342294078258, -76.672366984165478 ], [ 240.0, -75.222287904174053 ], [ 250.0, -74.030921477139856 ], [ 259.771392249693122, -72.981000557131281 ], [ 264.771392249693122, -71.807747793618461 ], [ 268.085039370078732, -70.557747793618461 ], [ 266.756891965432942, -68.75 ], [ 258.671852595354153, -66.80798675089936 ], [ 247.5, -65.665959306788594 ], [ 212.5, -64.444697940708778 ], [ 178.75, -63.844352041801557 ], [ 167.177159432746066, -64.507626656982012 ], [ 162.177159432746066, -65.503108886866841 ], [ 164.473094993393033, -66.753108886866841 ], [ 166.973094993393033, -68.134586303737308 ], [ 170.0, -69.621664778367006 ], [ 172.329682880945967, -71.487078474629698 ], [ 173.545196110569691, -73.75 ], [ 173.318354048541352, -76.25 ], [ 174.093091772294429, -78.75 ], [ 178.240250953376801, -80.470535567022452 ], [ 186.25, -81.444851258378804 ], [ 196.25, -82.220735594268959 ], [ 205.0, -82.501283502305895 ], [ 208.75, -82.509727198786578 ] ] } },
{ "type": "Feature", "properties": { "fid": 63, "ID": 62, "pressure": 990.0 }, "geometry": { "type": "LineString", "coordinates": [ [ 231.25, -82.634381181036701 ], [ 232.017877452374194, -82.567190590518351 ], [ 234.517877452374194, -81.684345513267047 ], [ 238.359383494617845, -79.184345513267047 ], [ 240.859383494617845, -77.410400299289194 ], [ 243.75, -76.938084477570712 ], [ 252.5, -76.026757903476195 ], [ 265.0, -74.742831852632904 ], [ 279.986850015028494, -73.243758127438227 ], [ 291.544890894318939, -71.25 ], [ 293.296566214441555, -68.75 ], [ 291.73852533515111, -67.293883616144186 ], [ 288.75, -66.226418662873158 ], [ 283.75, -65.008565707594926 ], [ 262.5, -63.501504498146915 ], [ 231.25, -62.222499271969852 ], [ 205.0, -61.683338655629441 ], [ 177.5, -61.304127793548503 ], [ 160.0, -61.193773406824832 ], [ 147.5, -59.902231444674527 ], [ 126.25, -56.369316572616796 ], [ 108.75, -53.377698823643314 ], [ 98.75, -52.538454306314151 ], [ 86.25, -52.666966613690448 ], [ 65.0, -54.128922527130968 ], [ 33.75, -55.708944340702359 ], [ 8.75, -56.684125642517955 ], [ -6.515260878531649, -58.590936660086101 ], [ -22.765260878531649, -62.296509009009014 ], [ -41.25, -66.378768443973257 ], [ -54.636348295646314, -69.082259434964243 ], [ -59.444529870365116, -71.25 ], [ -57.655226303153313, -75.0 ], [ -51.597044728434511, -78.075976046960562 ], [ -45.0, -78.725615911726109 ], [ -35.103498433537226, -78.149639864765547 ], [ -22.603498433537226, -75.632441425351885 ], [ -10.0, -72.621692010515119 ], [ 2.5, -70.962742205502991 ], [ 19.569208211143689, -70.223491620339757 ], [ 40.819208211143689, -68.296398122691556 ], [ 55.0, -66.55499173947095 ], [ 65.0, -67.733886619951761 ], [ 72.5, -69.059006029763339 ], [ 75.0, -69.103832511623295 ], [ 80.0, -68.376183777829922 ], [ 87.5, -67.278578113831287 ], [ 101.25, -67.000998025971299 ], [ 122.5, -66.360134249192086 ], [ 137.5, -65.517208559320224 ], [ 145.0, -65.866548483268531 ], [ 153.75, -67.431510277031251 ], [ 161.25, -69.425009522930921 ], [ 165.633029308714725, -71.374489214102454 ], [ 167.677414964211493, -73.75 ], [ 167.063735500697987, -76.25 ], [ 166.166918133009347, -78.75 ], [ 167.397568287808127, -80.505295369057151 ], [ 171.25, -81.622118544817297 ], [ 181.25, -82.707444807488429 ], [ 196.25, -83.372400255606436 ], [ 211.25, -83.459523049264092 ], [ 225.0, -82.994935015904289 ], [ 231.25, -82.634381181036701 ] ] } },
{ "type": "Feature", "properties": { "fid": 64, "ID": 63, "pressure": 990.0 }, "geometry": { "type": "LineString", "coordinates": [ [ -180.0, -82.993426508475324 ], [ -165.625, -83.272904203245844 ], [ -145.0, -83.374661200657627 ], [ -133.612573499247901, -82.848470251649445 ], [ -126.112573499247915, -81.283254156769601 ], [ -122.247598969313657, -78.783254156769601 ], [ -119.747598969313657, -77.295444174932157 ], [ -105.0, -75.606577699138299 ], [ -81.81087030138842, -73.311133524206141 ], [ -69.562017090379243, -71.25 ], [ -67.883697494458204, -68.75 ], [ -70.132550705467366, -67.037522810218974 ], [ -73.75, -65.830658109117962 ], [ -78.75, -64.821918226810567 ], [ -98.75, -63.47470572230111 ], [ -148.125, -61.804195621440059 ], [ -180.0, -61.216545654101054 ] ] } },
{ "type": "Feature", "properties": { "fid": 65, "ID": 64, "pressure": 993.0 }, "geometry": { "type": "LineString", "coordinates": [ [ -180.0, -84.054915467884427 ], [ -165.625, -84.333204517993764 ], [ -140.0, -84.171952600943939 ], [ -122.754083230786449, -83.116205816892389 ], [ -114.804166069389225, -81.25 ], [ -109.550082838602791, -79.058864713485548 ], [ -100.0, -77.407736495355707 ], [ -88.75, -76.384884307966189 ], [ -80.0, -76.125528170902228 ], [ -73.75, -76.470989972105059 ], [ -69.86873462484624, -77.131474327298861 ], [ -65.281378061734017, -78.75 ], [ -60.41264343688777, -80.233100111024982 ], [ -55.0, -80.766451327047861 ], [ -46.25, -81.000637174781929 ], [ -37.5, -80.604826348687709 ], [ -31.25, -79.879722482673913 ], [ -25.0, -78.555381894830688 ], [ -16.25, -75.857249918305172 ], [ -5.0, -73.009682431016969 ], [ 6.25, -71.515778268963047 ], [ 22.5, -70.716006114158532 ], [ 35.488228231363536, -70.165860159992718 ], [ 41.738228231363536, -69.147209815587004 ], [ 50.0, -67.958840675520207 ], [ 57.5, -67.831979871616952 ], [ 65.45967482292339, -69.020349011683749 ], [ 71.70967482292339, -70.218818945560855 ], [ 75.900229718673302, -70.218818945560855 ], [ 82.150229718673302, -69.080171459525673 ], [ 88.75, -67.940169819053978 ], [ 102.5, -67.77586077346345 ], [ 123.75, -67.215613617440965 ], [ 137.5, -66.701199513810465 ], [ 147.5, -67.982196248957607 ], [ 156.25, -69.933552464664885 ], [ 160.654832935560847, -71.602804526011923 ], [ 162.865660069222969, -73.75 ], [ 161.489739637112336, -77.5 ], [ 160.528912503450215, -80.59977501262685 ], [ 162.492650930150887, -81.84977501262685 ], [ 169.992650930150887, -83.082736731851625 ], [ 187.5, -84.102031306167461 ], [ 210.0, -84.453828249168936 ], [ 230.0, -83.767191212741949 ], [ 241.62442078552516, -82.832657537888849 ], [ 246.42910828552516, -81.25 ], [ 251.0546875, -79.179410963877288 ], [ 256.296366389099148, -77.929410963877288 ], [ 267.546366389099148, -76.798947529369798 ], [ 280.0, -76.103830562950478 ], [ 286.25, -76.323446674449599 ], [ 290.762028869286269, -77.018563640868919 ], [ 295.959921395358094, -78.75 ], [ 301.447892526071826, -80.308030944357682 ], [ 307.5, -80.865099938631317 ], [ 316.25, -80.986989304994836 ], [ 325.536034688995244, -80.429920310721201 ], [ 331.786034688995244, -79.619499683214457 ], [ 336.25, -78.628433252910298 ], [ 342.885820531577679, -76.508933569695841 ], [ 349.135820531577679, -74.400990195568511 ], [ 353.75, -73.440748612427925 ], [ 358.125, -72.990833428803995 ], [ 360.0, -72.902150023889163 ] ] } },
{ "type": "Feature", "properties": { "fid": 66, "ID": 65, "pressure": 996.0 }, "geometry": { "type": "LineString", "coordinates": [ [ -180.0, -85.074948029388281 ], [ -165.625, -85.241560101183524 ], [ -140.0, -85.17386050272539 ], [ -123.75, -84.50075849529172 ], [ -112.559915794019219, -83.280984079055713 ], [ -105.059915794019219, -82.015828203351134 ], [ -101.25, -80.928538325694561 ], [ -95.0, -79.781950419618411 ], [ -88.75, -79.081158872510258 ], [ -82.5, -79.14225037423796 ], [ -72.5, -80.449127728906603 ], [ -62.358802908335498, -82.018795929903916 ], [ -53.608802908335498, -82.604858970252621 ], [ -44.652817849586469, -82.604858970252621 ], [ -35.902817849586469, -81.964013205608609 ], [ -27.239930904151649, -80.714013205608609 ], [ -16.596670308434653, -77.5 ], [ -5.606739404283005, -74.055933583189969 ], [ 5.0, -72.47287534671365 ], [ 22.5, -71.355904712578621 ], [ 37.779868761796081, -70.43896294905494 ], [ 45.279868761796081, -69.387033925794071 ], [ 51.25, -68.590619906865911 ], [ 57.5, -68.70408864192332 ], [ 65.0, -69.946985866341095 ], [ 71.25, -71.18697890709052 ], [ 76.25, -71.151409844579774 ], [ 82.5, -69.867919724834309 ], [ 88.75, -68.619860254991451 ], [ 102.5, -68.361186339116117 ], [ 123.75, -67.990662460644188 ], [ 137.5, -67.74022853668329 ], [ 145.0, -68.563144824371548 ], [ 151.25, -69.949471876126211 ], [ 156.039694241812839, -71.58422479377387 ], [ 158.879730987792612, -73.75 ], [ 157.344112832936304, -77.5 ], [ 155.82875793558344, -81.25 ], [ 160.074681848626909, -83.100363960994372 ], [ 167.5, -84.069499617526603 ], [ 182.5, -84.863799723369326 ], [ 206.25, -85.308707736921647 ], [ 227.5, -84.994576656759889 ], [ 245.564673913043464, -83.580532986675337 ], [ 258.064673913043464, -81.533629770333278 ], [ 265.0, -79.966896472243008 ], [ 271.25, -79.157953941275878 ], [ 277.5, -79.065065137701467 ], [ 288.75, -80.455037814181239 ], [ 299.500868055555543, -82.11465991584592 ], [ 307.000868055555543, -82.606945200508065 ], [ 316.029395296752568, -82.606945200508065 ], [ 324.779395296752568, -82.056473300038419 ], [ 333.41424160809305, -80.806473300038419 ], [ 344.66424160809305, -77.524944210105389 ], [ 353.75, -74.558149041768203 ], [ 358.125, -73.942951606626977 ], [ 360.0, -73.819493549928325 ] ] } },
{ "type": "Feature", "properties": { "fid": 67, "ID": 66, "pressure": 999.0 }, "geometry": { "type": "LineString", "coordinates": [ [ -180.0, -85.758397169381482 ], [ -164.375, -85.90005995523957 ], [ -136.25, -85.754655657987982 ], [ -119.438730158730152, -85.233794287439153 ], [ -103.188730158730152, -83.54079274034757 ], [ -88.75, -81.925642814896136 ], [ -71.25, -82.690724670430825 ], [ -51.25, -83.622861081433555 ], [ -41.25, -83.406089130479188 ], [ -32.657149712092135, -82.839102644927891 ], [ -25.157149712092135, -81.680654166953872 ], [ -19.772885521196002, -80.430654166953872 ], [ -14.772885521196002, -78.378850046124825 ], [ -8.79601143231632, -75.878850046124825 ], [ -2.54601143231632, -74.229418280817029 ], [ 6.25, -73.003506055248522 ], [ 22.5, -71.986153512548682 ], [ 43.75, -70.307606840327651 ], [ 56.25, -69.341406783497035 ], [ 63.75, -70.716835872942852 ], [ 71.25, -72.231211315253844 ], [ 76.25, -72.13587527277268 ], [ 82.5, -70.709473853360322 ], [ 90.0, -69.22728225393098 ], [ 103.75, -68.874243467770839 ], [ 123.75, -68.596357506107466 ], [ 137.5, -68.478715165814037 ], [ 145.0, -69.553524954944436 ], [ 151.764532463928958, -71.440366377212797 ], [ 155.533011452045031, -73.75 ], [ 155.370393315393272, -76.25 ], [ 153.017807980041795, -78.75 ], [ 151.415893652764595, -81.278023972658744 ], [ 153.75, -83.184520325067837 ], [ 160.484724560981476, -84.406496352409093 ], [ 177.984724560981476, -85.451984811874354 ], [ 205.0, -85.942839217691585 ], [ 230.0, -85.634923761021994 ], [ 243.697397384436101, -85.144069355204763 ], [ 259.947397384436101, -83.39486862913742 ], [ 276.25, -81.806175004226034 ], [ 285.0, -82.370828729773407 ], [ 297.5, -83.25007491053853 ], [ 308.75, -83.620412321102151 ], [ 318.75, -83.463895106489247 ], [ 327.979078904731068, -82.884035341240832 ], [ 335.479078904731068, -81.841006490374681 ], [ 340.871839387464377, -80.591006490374681 ], [ 347.121839387464377, -78.144115294815734 ], [ 353.75, -75.672099060453732 ], [ 358.125, -74.896402303621755 ], [ 360.0, -74.736837075967514 ] ] } },
{ "type": "Feature", "properties": { "fid": 68, "ID": 67, "pressure": 1002.0 }, "geometry": { "type": "LineString", "coordinates": [ [ -180.0, -86.441846309374625 ], [ -165.625, -86.569650659387833 ], [ -140.0, -86.527851936019843 ], [ -120.0, -85.963056615116656 ], [ -102.5, -84.787084717949796 ], [ -90.0, -83.817013543021829 ], [ -71.25, -84.130200127467276 ], [ -51.25, -84.607863670999762 ], [ -41.25, -84.346181060941859 ], [ -31.25, -83.599334878108479 ], [ -23.75, -82.63708203676363 ], [ -17.932219341549171, -81.092403667195157 ], [ -12.334657153907187, -78.75 ], [ -8.152437812358016, -76.745749093069136 ], [ -2.5, -75.058530802529035 ], [ 6.25, -73.598752422217956 ], [ 21.25, -72.626617882296188 ], [ 42.5, -71.078143392887227 ], [ 56.25, -70.159606291498775 ], [ 63.75, -71.658590508607816 ], [ 71.25, -73.185626861094008 ], [ 76.25, -73.030037632465522 ], [ 83.429865899719317, -71.330891211829652 ], [ 90.929865899719317, -69.679235088178899 ], [ 103.75, -69.442505258248929 ], [ 122.5, -69.195913364518944 ], [ 135.0, -69.03162940377031 ], [ 142.5, -69.935683483380444 ], [ 148.75, -71.502826145871126 ], [ 151.46125657729894, -72.416128871812077 ], [ 152.621489268754772, -73.75 ], [ 152.633492025461919, -76.25 ], [ 150.040162388868936, -78.75 ], [ 147.553371874316383, -81.25 ], [ 147.736468819453535, -82.926336339639235 ], [ 151.25, -84.028699575858056 ], [ 156.25, -85.017318357875979 ], [ 165.0, -85.703601348001911 ], [ 180.0, -86.29947569698129 ], [ 201.25, -86.601418019076874 ], [ 225.0, -86.459762597443628 ], [ 245.0, -85.776526280383692 ], [ 263.75, -84.481380704497298 ], [ 290.0, -84.148607599462963 ], [ 315.0, -84.424141240225552 ], [ 327.5, -83.8768823670069 ], [ 335.009556369118116, -83.027320253127414 ], [ 342.509556369118116, -81.347250478920074 ], [ 348.784295608164371, -78.847250478920074 ], [ 352.534295608164371, -77.076715512943878 ], [ 356.875, -76.174401163673693 ], [ 360.0, -75.69537130145963 ] ] } },
{ "type": "Feature", "properties": { "fid": 69, "ID": 68, "pressure": 1005.0 }, "geometry": { "type": "LineString", "coordinates": [ [ -180.0, -87.125295449367798 ], [ -159.375, -87.184499359594128 ], [ -128.75, -86.993519214297052 ], [ -102.5, -85.938883960848287 ], [ -70.0, -85.34295490599402 ], [ -45.0, -85.29436522183029 ], [ -31.25, -84.541788275096096 ], [ -21.951944215443802, -83.273161577798362 ], [ -15.701944215443802, -81.803769589811765 ], [ -10.0, -79.058672850519912 ], [ -3.75, -76.189284849670614 ], [ 1.25, -74.874361096503051 ], [ 8.75, -73.905685110939018 ], [ 23.75, -72.972680065951025 ], [ 42.5, -71.608312202351669 ], [ 53.75, -70.753215553002377 ], [ 57.5, -70.985457599753389 ], [ 63.75, -72.57536593696274 ], [ 71.25, -74.129837868086824 ], [ 76.25, -73.884992023296903 ], [ 83.75, -72.00083939119628 ], [ 91.25, -70.218926712185606 ], [ 103.75, -70.00472273143572 ], [ 122.5, -69.780732401235383 ], [ 135.0, -69.715067456196067 ], [ 141.25, -70.42199391199064 ], [ 146.307452159333991, -71.697963752206292 ], [ 149.971822213811777, -73.75 ], [ 150.114051299066801, -76.25 ], [ 147.285333431581392, -78.75 ], [ 144.104928627777667, -81.25 ], [ 144.519276440785291, -83.402885288316753 ], [ 147.5, -84.684448801204553 ], [ 153.75, -85.598414242160871 ], [ 170.0, -86.595207499920519 ], [ 201.25, -87.158721986010633 ], [ 232.5, -86.97765262368894 ], [ 258.75, -85.924765402741528 ], [ 290.0, -85.3543768686325 ], [ 315.0, -85.336221170295644 ], [ 328.75, -84.664082177081895 ], [ 338.700577200577186, -83.354759881002977 ], [ 346.200577200577186, -81.525770538289279 ], [ 351.750381097560989, -79.025770538289279 ], [ 357.375381097560989, -77.085237834049423 ], [ 360.0, -76.670475668098845 ] ] } },
{ "type": "Feature", "properties": { "fid": 70, "ID": 69, "pressure": 1032.0 }, "geometry": { "type": "LineString", "coordinates": [ [ 76.232959386537914, -85.0 ], [ 69.991479693268957, -85.395987820539375 ], [ 57.5, -85.933002798375298 ], [ 45.0, -85.904213026970325 ], [ 34.37476235741444, -85.367198049134402 ], [ 30.723087193539712, -83.75 ], [ 32.598324836125272, -81.814883015597928 ], [ 35.0, -80.829232225431113 ], [ 37.5, -80.51226280826225 ], [ 45.0, -81.187741678658284 ], [ 56.43088965253915, -82.189828080229219 ], [ 66.43088965253915, -83.166575135580416 ], [ 73.741479693268957, -84.416575135580416 ], [ 76.232959386537914, -85.0 ] ] } },
{ "type": "Feature", "properties": { "fid": 71, "ID": 70, "pressure": 1008.0 }, "geometry": { "type": "LineString", "coordinates": [ [ -180.0, -87.918730508163634 ], [ -159.375, -87.978689556126213 ], [ -112.5, -87.154191672755971 ], [ -70.0, -86.332368864455432 ], [ -45.0, -86.145201482123127 ], [ -31.25, -85.44942299204456 ], [ -21.25, -84.135154716764077 ], [ -13.75, -82.392650247339063 ], [ -8.126033938239431, -79.509218534240276 ], [ -1.876033938239431, -76.521102004987853 ], [ 3.75, -75.088994434189928 ], [ 10.0, -74.28595600238063 ], [ 23.75, -73.455321236091919 ], [ 41.25, -72.216310705121586 ], [ 51.25, -71.403381880908228 ], [ 56.25, -71.669378343650493 ], [ 62.5, -73.247720992577584 ], [ 67.5, -74.749763347994289 ], [ 71.25, -75.063388168333375 ], [ 76.25, -74.72928570738199 ], [ 83.75, -72.731304457320761 ], [ 92.5, -70.762713533619404 ], [ 103.75, -70.49340547303899 ], [ 121.25, -70.344497959737396 ], [ 133.75, -70.212942545299342 ], [ 138.75, -70.719350247587712 ], [ 143.733236828448923, -71.801898664701227 ], [ 147.464796428304311, -73.75 ], [ 147.706516454837384, -76.25 ], [ 142.862222641277839, -80.0 ], [ 140.736004667381962, -83.75 ], [ 148.098738881086121, -85.785120859689741 ], [ 165.0, -87.136194340185668 ], [ 187.5, -87.90730058344198 ], [ 208.75, -88.099437954036745 ], [ 227.5, -87.908978448269892 ], [ 255.0, -87.011131635795451 ], [ 290.0, -86.347086787934757 ], [ 315.0, -86.185328183678379 ], [ 328.75, -85.564888921939016 ], [ 338.75, -84.363356843416128 ], [ 346.25, -82.831201717123975 ], [ 352.5, -80.333748086933809 ], [ 357.5, -78.161229679534557 ], [ 359.375, -77.753219907775474 ], [ 360.0, -77.753219907775474 ] ] } },
{ "type": "Feature", "properties": { "fid": 72, "ID": 71, "pressure": 1011.0 }, "geometry": { "type": "LineString", "coordinates": [ [ -180.0, -88.845648794523441 ], [ -155.625, -88.832045643994576 ], [ -110.0, -88.135923650125889 ], [ -70.0, -87.32932130636128 ], [ -42.5, -86.910377033198756 ], [ -28.75, -86.160867125999815 ], [ -18.75, -84.752144089075472 ], [ -11.25, -82.865717069618555 ], [ -5.660554275473629, -79.716681976312387 ], [ 0.589445724526371, -76.623846184060639 ], [ 6.25, -75.322446938837842 ], [ 21.25, -74.166141618051341 ], [ 42.5, -72.70088165775465 ], [ 54.258768724881264, -72.233340794480512 ], [ 60.508768724881264, -73.716993225834827 ], [ 65.0, -75.227570063885892 ], [ 70.0, -75.704977739200359 ], [ 76.25, -75.519691536418534 ], [ 83.75, -73.458021665505569 ], [ 92.5, -71.347313061904103 ], [ 103.75, -71.010553424958559 ], [ 121.25, -70.875272746711602 ], [ 133.75, -70.818083243780251 ], [ 138.75, -71.417041924702403 ], [ 142.418886198547199, -72.178260034342969 ], [ 144.99340108344532, -73.75 ], [ 145.333071149781347, -76.25 ], [ 139.758086434022346, -80.0 ], [ 136.116222941571436, -83.75 ], [ 139.116692772432316, -85.511265956438763 ], [ 145.0, -86.530636229629081 ], [ 160.0, -87.783983499218806 ], [ 183.75, -88.742278022029708 ], [ 210.0, -88.930102449736466 ], [ 248.75, -88.165687736551959 ], [ 291.25, -87.325325666443732 ], [ 316.25, -87.019964156267818 ], [ 330.0, -86.341520888572916 ], [ 340.0, -85.259417866780538 ], [ 347.646229852537715, -83.575785550848423 ], [ 354.275997008716161, -81.25 ], [ 357.879767156178445, -79.72465150792388 ], [ 359.375, -79.449303015847761 ], [ 360.0, -79.449303015847761 ] ] } },
{ "type": "Feature", "properties": { "fid": 73, "ID": 72, "pressure": 1014.0 }, "geometry": { "type": "LineString", "coordinates": [ [ -180.0, -89.772567080883277 ], [ -153.125, -89.728129230905012 ], [ -90.0, -89.13463903690716 ], [ -47.5, -88.359985259629482 ], [ -32.5, -87.454703046563552 ], [ -20.0, -86.214482739882982 ], [ -13.75, -85.027034509366132 ], [ -8.827925485394431, -83.450062902861006 ], [ -4.988075190847596, -81.25 ], [ -1.800595364193327, -78.75 ], [ 3.109554341259837, -76.753395312476044 ], [ 9.684029049188325, -75.503395312476044 ], [ 32.184029049188325, -73.823843819582663 ], [ 53.75, -73.031695752713745 ], [ 58.75, -74.351822854309418 ], [ 63.75, -75.876157816313878 ], [ 70.0, -76.554692389467917 ], [ 76.25, -76.294116951306805 ], [ 80.0, -75.599523724903065 ], [ 85.0, -73.825059270496354 ], [ 92.5, -71.931912590188816 ], [ 103.75, -71.527701376878127 ], [ 121.25, -71.406047533685779 ], [ 133.75, -71.423223942261103 ], [ 138.529959885024766, -72.060112197832353 ], [ 142.435078494381855, -73.75 ], [ 142.921034505724748, -76.25 ], [ 136.550754941019761, -80.0 ], [ 131.472433471376974, -83.75 ], [ 133.937594426724871, -85.73176545367869 ], [ 141.25, -87.28247276786054 ], [ 153.75, -88.672209098922323 ], [ 175.0, -89.506214878480264 ], [ 205.0, -89.787312270454663 ], [ 267.5, -89.113165936162289 ], [ 323.75, -87.766034367825398 ], [ 337.5, -86.714862274810159 ], [ 345.0, -85.525199536661802 ], [ 353.75, -83.184551555082251 ], [ 359.375, -81.637493369705254 ], [ 360.0, -81.637493369705254 ] ] } },
{ "type": "Feature", "properties": { "fid": 74, "ID": 73, "pressure": 1020.0 }, "geometry": { "type": "LineString", "coordinates": [ [ 360.0, -89.346858225449949 ], [ 358.125, -89.137065476361343 ], [ 354.681808480364225, -88.213636363636368 ], [ 356.556808480364225, -86.947644770143171 ], [ 360.0, -86.395289540286342 ] ] } },
{ "type": "Feature", "properties": { "fid": 75, "ID": 74, "pressure": 1023.0 }, "geometry": { "type": "LineString", "coordinates": [ [ 109.938995855060796, -87.5 ], [ 105.594497927530398, -88.054989156023495 ], [ 96.25, -88.900868654371777 ], [ 72.5, -89.490347137043386 ], [ 36.25, -89.519234253577608 ], [ 13.75, -88.928241763912382 ], [ 5.117097701149419, -88.053475149029879 ], [ 1.662756383784142, -86.25 ], [ 3.120215769248887, -83.75 ], [ 4.934853289863895, -81.25 ], [ 8.038129261612298, -78.75 ], [ 13.427833058362566, -77.172081052559662 ], [ 27.968492432189436, -75.922081052559662 ], [ 42.968492432189436, -74.964583721964729 ], [ 47.5, -75.074657382018032 ], [ 51.903534520401706, -76.360073660053303 ], [ 56.903534520401706, -77.928632463828365 ], [ 61.25, -78.661596516546041 ], [ 67.5, -79.053602302491612 ], [ 73.75, -78.985092032808694 ], [ 78.75, -78.404980257791394 ], [ 83.75, -77.206742950958116 ], [ 88.75, -75.433098235026222 ], [ 93.75, -74.010870560732556 ], [ 111.25, -73.309005944270552 ], [ 128.75, -73.250350796710492 ], [ 133.615091265874327, -74.235333654347755 ], [ 134.507069326189082, -76.25 ], [ 124.785869689005665, -80.0 ], [ 113.893891628690909, -84.694890465521524 ], [ 110.594497927530398, -87.194890465521524 ], [ 109.938995855060796, -87.5 ] ] } },
{ "type": "Feature", "properties": { "fid": 76, "ID": 75, "pressure": 1026.0 }, "geometry": { "type": "LineString", "coordinates": [ [ 95.051736881005183, -87.5 ], [ 89.400868440502592, -87.845147797351103 ], [ 75.0, -88.428182451530589 ], [ 48.75, -88.572754478216751 ], [ 22.771747837231658, -87.989719824037266 ], [ 12.771747837231658, -87.06587442586013 ], [ 9.748738123515437, -85.81587442586013 ], [ 8.970983900046662, -83.75 ], [ 9.964918114973045, -81.25 ], [ 13.242672338441821, -78.881295062267867 ], [ 17.5, -77.562499978110779 ], [ 27.5, -76.799300023233286 ], [ 40.0, -76.181766238215815 ], [ 45.0, -76.27005112557643 ], [ 50.0, -77.498027053574503 ], [ 56.25, -79.024545639671317 ], [ 61.25, -79.667083750713758 ], [ 67.5, -79.906712297365203 ], [ 76.25, -79.520661464526754 ], [ 83.75, -78.415382114233779 ], [ 89.742050854931165, -76.367247777206273 ], [ 94.742050854931165, -74.791681787547304 ], [ 110.0, -74.284860318000739 ], [ 126.25, -74.141895651833934 ], [ 130.423674968809223, -74.6487171213805 ], [ 130.505648886730143, -76.25 ], [ 121.331973917920919, -79.269435462139597 ], [ 111.729039574534625, -81.769435462139597 ], [ 107.681257601906026, -83.75 ], [ 104.702218027371401, -85.34824818778047 ], [ 99.400868440502592, -86.59824818778047 ], [ 95.051736881005183, -87.5 ] ] } },
{ "type": "Feature", "properties": { "fid": 77, "ID": 76, "pressure": 1029.0 }, "geometry": { "type": "LineString", "coordinates": [ [ 70.354462051709788, -87.5 ], [ 60.802231025854894, -87.622270173048676 ], [ 43.323419744318187, -87.622270173048676 ], [ 29.573419744318187, -86.964409101004364 ], [ 20.248971081988515, -85.714409101004364 ], [ 17.237506080414363, -82.5 ], [ 23.147834568987079, -78.75 ], [ 34.909299570561231, -77.37076095947063 ], [ 42.522714132320147, -77.37076095947063 ], [ 46.272714132320147, -78.298299343402704 ], [ 52.5, -79.804380254551333 ], [ 60.0, -80.850618969995196 ], [ 68.75, -81.237994366363452 ], [ 76.25, -81.097888063906225 ], [ 82.5, -80.203448950892977 ], [ 89.343512304250567, -78.499017194503637 ], [ 94.343512304250567, -77.065377760897519 ], [ 97.5, -76.501100845800423 ], [ 103.75, -76.399390904972108 ], [ 111.25, -76.138160540895953 ], [ 115.032369768142104, -75.424492720826748 ], [ 120.485426536701056, -75.0 ], [ 123.050049834077839, -76.25 ], [ 116.346993065518888, -77.976073802624853 ], [ 110.0, -78.708034512862866 ], [ 101.879888843145324, -81.981960710238013 ], [ 89.379888843145324, -85.755076873429687 ], [ 77.052231025854894, -87.005076873429687 ], [ 70.354462051709788, -87.5 ] ] } },
{ "type": "Feature", "properties": { "fid": 78, "ID": 77, "pressure": 1017.0 }, "geometry": { "type": "LineString", "coordinates": [ [ -44.574554294975684, -91.25 ], [ -44.574554294975684, -90.625 ], [ -39.162277147487842, -89.817389702598902 ], [ -30.0, -89.332952108708056 ], [ -25.0, -88.839714633371727 ], [ -21.765870541282112, -88.074152227262573 ], [ -15.515870541282112, -86.781532202044275 ], [ -8.75, -85.152029710697434 ], [ -5.0, -83.585951353729499 ], [ -2.351527936480039, -81.46545384507634 ], [ 0.915649119325948, -78.75 ], [ 8.267177055805988, -76.573804518782893 ], [ 17.295010213014308, -75.323804518782893 ], [ 34.795010213014308, -74.247153390850713 ], [ 51.25, -73.725569106072683 ], [ 57.5, -75.250552000932529 ], [ 62.5, -76.819843361404565 ], [ 67.5, -77.314567570017317 ], [ 75.0, -77.1347927730029 ], [ 80.0, -76.432684735905667 ], [ 86.212757395371426, -74.314752457226078 ], [ 92.462757395371426, -72.332538459301475 ], [ 111.25, -71.944988886305239 ], [ 133.168756136243474, -72.112450427003765 ], [ 139.605978556989783, -73.75 ], [ 140.397275811323141, -76.25 ], [ 133.096452962729586, -80.0 ], [ 126.568836053456693, -83.75 ], [ 127.432436481303938, -85.730302639220497 ], [ 132.5, -87.707236060909111 ], [ 141.268686073957497, -89.476933421688614 ], [ 146.287372147914994, -90.625 ], [ 146.287372147914994, -91.25 ] ] } },
{ "type": "Feature", "properties": { "fid": 79, "ID": 78, "pressure": 1017.0 }, "geometry": { "type": "LineString", "coordinates": [ [ 316.71210363495743, -91.25 ], [ 316.71210363495743, -90.625 ], [ 322.731051817478715, -89.783786457484695 ], [ 332.5, -89.214611206739235 ], [ 338.869963369963386, -88.180824749254541 ], [ 345.119963369963386, -86.941262180129314 ], [ 352.5, -85.346118913112804 ], [ 358.125, -84.044278020664933 ], [ 360.0, -83.778842575362887 ] ] } },
{ "type": "Feature", "properties": { "fid": 80, "ID": 79, "pressure": 1020.0 }, "geometry": { "type": "LineString", "coordinates": [ [ -0.343693693693695, -91.25 ], [ -0.343693693693695, -90.625 ], [ -3.296846846846847, -89.466548847280606 ], [ -7.443639932102698, -88.216548847280606 ], [ -7.443639932102698, -87.142101663644752 ], [ -3.75, -85.286466598360448 ], [ -0.441033047001014, -83.144364934715696 ], [ 1.15881395010706, -81.25 ], [ 4.047736763211518, -78.75 ], [ 9.947889766103444, -76.936758967999523 ], [ 22.067390515912592, -75.686758967999523 ], [ 39.567390515912592, -74.6484375 ], [ 51.123324203546204, -74.6484375 ], [ 56.123324203546204, -76.082646280686646 ], [ 60.0, -77.45081079532217 ], [ 63.75, -77.99947566664919 ], [ 68.75, -78.300060524062303 ], [ 75.0, -77.936034861749931 ], [ 81.25, -76.895862424149684 ], [ 87.5, -74.855762712860965 ], [ 92.5, -73.176479185621702 ], [ 96.25, -72.696972572865732 ], [ 103.75, -72.577116885937471 ], [ 120.0, -72.510170246725494 ], [ 132.5, -72.507497616632818 ], [ 135.0, -73.08399083830011 ], [ 137.623014993210091, -74.257225748111921 ], [ 137.623014993210091, -76.26946089400721 ], [ 129.216033483580162, -80.01946089400721 ], [ 121.185664051038913, -83.75 ], [ 120.938242964432874, -86.25 ], [ 121.468612396974123, -87.651934243565606 ], [ 120.0, -88.3321922701696 ], [ 117.5, -89.128234669178198 ], [ 113.308823529411768, -89.697976642574204 ], [ 110.367647058823536, -90.625 ], [ 110.367647058823536, -91.25 ] ] } },
{ "type": "Feature", "properties": { "fid": 17, "ID": 16, "pressure": 1005.0 }, "geometry": { "type": "LineString", "coordinates": [ [ 104.942893179944377, 19.571810597052263 ], [ 104.988140417457316, 19.47923173016865 ], [ 107.5, 19.118074518340045 ], [ 108.75, 19.27768557634279 ] ] } },
{ "type": "Feature", "properties": { "fid": 23, "ID": 22, "pressure": 1005.0 }, "geometry": { "type": "LineString", "coordinates": [ [ 88.75, 14.779260157671317 ], [ 91.167785950325111, 16.139630078835658 ], [ 94.751980383053905, 18.75 ], [ 99.897139042869412, 20.53428563225755 ], [ 104.942893179944377, 19.571810597052263 ] ] } },
{ "type": "Feature", "properties": { "fid": 12, "ID": 11, "pressure": 999.0 }, "geometry": { "type": "LineString", "coordinates": [ [ 56.25, 22.075435520981713 ], [ 56.731545917733314, 22.287717760490857 ], [ 59.194726562500023, 22.971875 ], [ 61.976574036794091, 23.9502941377254 ], [ 67.709754555780961, 26.596590279842999 ] ] } },
{ "type": "Feature", "properties": { "fid": 7, "ID": 6, "pressure": 999.0 }, "geometry": { "type": "LineString", "coordinates": [ [ 67.709754555780961, 26.596590279842999 ], [ 68.75, 26.450208174234014 ], [ 71.25, 26.373785703929244 ] ] } }
]
}
