{
  "type": "FeatureCollection",
  "features": [
    {
      "type": "Feature",
      "properties": {
        "name": "北京",
        "01_T": -3.7,
        "02_T": 0.1,
        "03_T": 7.5,
        "04_T": 15.2,
        "05_T": 21.4,
        "06_T": 25.8,
        "07_T": 27.2,
        "08_T": 25.9,
        "09_T": 21.0,
        "10_T": 13.8,
        "11_T": 5.0,
        "12_T": -1.5,
        "01_P": 3,
        "02_P": 5,
        "03_P": 8,
        "04_P": 20,
        "05_P": 35,
        "06_P": 75,
        "07_P": 185,
        "08_P": 155,
        "09_P": 45,
        "10_P": 25,
        "11_P": 10,
        "12_P": 3
      },
      "geometry": {
        "type": "Point",
        "coordinates": [116.4074, 39.9042]
      }
    },
    {
      "type": "Feature",
      "properties": {
        "name": "上海",
        "01_T": 4.8,
        "02_T": 6.0,
        "03_T": 10.1,
        "04_T": 16.2,
        "05_T": 21.7,
        "06_T": 25.5,
        "07_T": 29.0,
        "08_T": 28.9,
        "09_T": 25.2,
        "10_T": 19.4,
        "11_T": 13.1,
        "12_T": 7.3,
        "01_P": 45,
        "02_P": 50,
        "03_P": 85,
        "04_P": 100,
        "05_P": 115,
        "06_P": 180,
        "07_P": 145,
        "08_P": 135,
        "09_P": 155,
        "10_P": 65,
        "11_P": 55,
        "12_P": 40
      },
      "geometry": {
        "type": "Point",
        "coordinates": [121.4737, 31.2304]
      }
    },
    {
      "type": "Feature",
      "properties": {
        "name": "广州",
        "01_T": 13.3,
        "02_T": 14.4,
        "03_T": 17.9,
        "04_T": 22.3,
        "05_T": 26.1,
        "06_T": 28.4,
        "07_T": 29.1,
        "08_T": 28.9,
        "09_T": 27.7,
        "10_T": 24.6,
        "11_T": 19.8,
        "12_T": 15.0,
        "01_P": 40,
        "02_P": 65,
        "03_P": 85,
        "04_P": 175,
        "05_P": 255,
        "06_P": 270,
        "07_P": 230,
        "08_P": 210,
        "09_P": 175,
        "10_P": 85,
        "11_P": 45,
        "12_P": 30
      },
      "geometry": {
        "type": "Point",
        "coordinates": [113.2644, 23.1291]
      }
    },
    {
      "type": "Feature",
      "properties": {
        "name": "哈尔滨",
        "01_T": -18.3,
        "02_T": -13.6,
        "03_T": -3.4,
        "04_T": 8.4,
        "05_T": 15.8,
        "06_T": 20.8,
        "07_T": 23.1,
        "08_T": 21.6,
        "09_T": 14.8,
        "10_T": 5.0,
        "11_T": -5.9,
        "12_T": -15.1,
        "01_P": 5,
        "02_P": 5,
        "03_P": 10,
        "04_P": 25,
        "05_P": 45,
        "06_P": 90,
        "07_P": 145,
        "08_P": 115,
        "09_P": 55,
        "10_P": 20,
        "11_P": 10,
        "12_P": 5
      },
      "geometry": {
        "type": "Point",
        "coordinates": [126.6424, 45.7560]
      }
    },
    {
      "type": "Feature",
      "properties": {
        "name": "乌鲁木齐",
        "01_T": -12.1,
        "02_T": -8.0,
        "03_T": 0.9,
        "04_T": 10.2,
        "05_T": 16.9,
        "06_T": 21.5,
        "07_T": 23.5,
        "08_T": 22.3,
        "09_T": 16.6,
        "10_T": 8.7,
        "11_T": -1.5,
        "12_T": -9.0,
        "01_P": 10,
        "02_P": 10,
        "03_P": 15,
        "04_P": 20,
        "05_P": 25,
        "06_P": 30,
        "07_P": 25,
        "08_P": 20,
        "09_P": 15,
        "10_P": 10,
        "11_P": 10,
        "12_P": 10
      },
      "geometry": {
        "type": "Point",
        "coordinates": [87.6168, 43.8256]
      }
    },
    {
      "type": "Feature",
      "properties": {
        "name": "拉萨",
        "01_T": 0.1,
        "02_T": 2.9,
        "03_T": 6.4,
        "04_T": 9.9,
        "05_T": 13.5,
        "06_T": 16.6,
        "07_T": 16.1,
        "08_T": 15.3,
        "09_T": 12.8,
        "10_T": 8.0,
        "11_T": 3.3,
        "12_T": 0.3,
        "01_P": 1,
        "02_P": 2,
        "03_P": 3,
        "04_P": 6,
        "05_P": 25,
        "06_P": 75,
        "07_P": 120,
        "08_P": 110,
        "09_P": 60,
        "10_P": 8,
        "11_P": 2,
        "12_P": 1
      },
      "geometry": {
        "type": "Point",
        "coordinates": [91.1170, 29.6466]
      }
    }
  ]
}